{
"type": "FeatureCollection",
"name": "Valle d'Aosta",
"crs": { "type": "name", "properties": { "name": "urn:ogc:def:crs:OGC:1.3:CRS84" } },
"features": [
{ "type": "Feature", "properties": { "Name": "Valle d'Aosta / Vallée d'Aoste", "description": "Valle d'Aosta DOC - 義大利最小且海拔最高的葡萄酒產區，擁有歐洲海拔最高的葡萄園（900-1200公尺），以 Nebbiolo (Picotendro)、Petit Rouge、Prié Blanc 等稀有原生品種聞名", "timestamp": null, "begin": null, "end": null, "altitudeMode": null, "tessellate": -1, "extrude": 0, "visibility": -1, "drawOrder": null, "icon": null, "cartodb_id": 19, "ccn_1": 0.0, "id_1": 19.0, "id_0": 112.0, "varname_1": "Aosta Valley|Val d'Aoste|Vallée d'Aoste", "nl_name_1": null, "engtype_1": "Autonomous Region", "type_1": "Regione", "cca_1": "2", "hasc_1": null, "name_1": "Valle d'Aosta", "name_0": "Italy", "iso": "ITA" }, "geometry": { "type": "MultiPolygon", "coordinates": [ [ [ [ 7.58417987823498, 45.9871215820313 ], [ 7.58494806289684, 45.985843658447301 ], [ 7.58556318283081, 45.985195159912202 ], [ 7.58582401275629, 45.984676361083999 ], [ 7.58594417572033, 45.984088897705099 ], [ 7.58594322204584, 45.980823516845597 ], [ 7.58599090576166, 45.980171203613303 ], [ 7.58613014221197, 45.979534149169901 ], [ 7.58657979965216, 45.978706359863303 ], [ 7.58745908737194, 45.977619171142599 ], [ 7.58782482147217, 45.977264404297003 ], [ 7.58935022354137, 45.976341247558501 ], [ 7.58996105194098, 45.9760971069337 ], [ 7.59075117111212, 45.975940704345803 ], [ 7.59385681152344, 45.975605010986399 ], [ 7.59741210937511, 45.974933624267599 ], [ 7.59833097457897, 45.974811553955099 ], [ 7.60162210464483, 45.974521636962798 ], [ 7.60810708999639, 45.973575592041001 ], [ 7.61252403259277, 45.973243713378999 ], [ 7.61351394653332, 45.973262786865298 ], [ 7.61458778381353, 45.973373413086001 ], [ 7.61580514907831, 45.973499298095803 ], [ 7.61649322509777, 45.97367477417 ], [ 7.61776208877575, 45.97420501709 ], [ 7.61973476409906, 45.974716186523501 ], [ 7.6207041740418, 45.975128173828203 ], [ 7.62141418457043, 45.975273132324297 ], [ 7.62221002578735, 45.975326538086101 ], [ 7.62345790863043, 45.975242614746101 ], [ 7.62736988067627, 45.974460601806697 ], [ 7.63199281692505, 45.973808288574297 ], [ 7.63507699966425, 45.973686218261697 ], [ 7.64028978347778, 45.973682403564503 ], [ 7.64229106903088, 45.973834991455099 ], [ 7.64569091796869, 45.974403381347798 ], [ 7.64735794067383, 45.975051879882798 ], [ 7.64967393875122, 45.975532531738402 ], [ 7.65160322189337, 45.976108551025398 ], [ 7.65392303466797, 45.976596832275497 ], [ 7.65522909164429, 45.977161407470803 ], [ 7.65722703933727, 45.977714538574197 ], [ 7.6585140228272, 45.978267669677798 ], [ 7.65888500213634, 45.978378295898601 ], [ 7.65972280502331, 45.978523254394602 ], [ 7.66064119338989, 45.978591918945398 ], [ 7.66208791732788, 45.978603363037202 ], [ 7.66401720047003, 45.9784355163575 ], [ 7.66488790512079, 45.978244781494197 ], [ 7.66642522811895, 45.977771759033097 ], [ 7.66651487350464, 45.977752685546903 ], [ 7.66835784912121, 45.977348327636697 ], [ 7.66904020309454, 45.977127075195298 ], [ 7.67000198364252, 45.976608276367202 ], [ 7.671881198883, 45.975757598877003 ], [ 7.67520523071289, 45.973888397216797 ], [ 7.67563390731823, 45.973518371582003 ], [ 7.67652702331554, 45.972198486328097 ], [ 7.67871618270868, 45.970401763916101 ], [ 7.67903280258179, 45.969974517822301 ], [ 7.67952108383184, 45.969058990478501 ], [ 7.68048620223999, 45.967960357666101 ], [ 7.68116712570196, 45.966388702392599 ], [ 7.68198299407965, 45.965084075927798 ], [ 7.6826381683349, 45.963516235351698 ], [ 7.68354606628429, 45.962394714355597 ], [ 7.68364095687866, 45.962188720703203 ], [ 7.68398904800421, 45.961429595947301 ], [ 7.68430185317993, 45.960929870605497 ], [ 7.68452310562134, 45.960693359374901 ], [ 7.68508577346807, 45.960277557372997 ], [ 7.685791015625, 45.959953308105497 ], [ 7.686210155487, 45.959835052490199 ], [ 7.68708896636974, 45.959678649902401 ], [ 7.6898131370545, 45.959384918212898 ], [ 7.6906561851502, 45.959205627441399 ], [ 7.6922402381897, 45.958770751953203 ], [ 7.69308519363415, 45.958610534667997 ], [ 7.69671678543085, 45.958042144775398 ], [ 7.69891023635858, 45.957794189453203 ], [ 7.69957590103149, 45.957695007324197 ], [ 7.70085096359264, 45.957508087158303 ], [ 7.70365810394281, 45.957260131835902 ], [ 7.70501518249512, 45.957008361816499 ], [ 7.70623588562017, 45.9565238952637 ], [ 7.70824909210205, 45.9554634094238 ], [ 7.70963478088373, 45.954826354980497 ], [ 7.71046304702759, 45.954246520996101 ], [ 7.71134519577026, 45.953746795654297 ], [ 7.71263694763184, 45.952732086181797 ], [ 7.71298885345453, 45.952320098877003 ], [ 7.71318817138683, 45.951786041259901 ], [ 7.71325111389154, 45.951202392578097 ], [ 7.71322011947632, 45.950595855712898 ], [ 7.71301603317255, 45.949676513671903 ], [ 7.71263504028326, 45.948688507080099 ], [ 7.71172904968267, 45.9454956054688 ], [ 7.71145105361933, 45.942375183105597 ], [ 7.71137714385998, 45.942012786865298 ], [ 7.71111917495739, 45.9407348632812 ], [ 7.71113014221203, 45.940231323242301 ], [ 7.71133708953869, 45.939529418945298 ], [ 7.71175622940069, 45.938617706298899 ], [ 7.71207094192499, 45.938144683837898 ], [ 7.71333885192882, 45.936656951904403 ], [ 7.71392679214483, 45.936141967773402 ], [ 7.71422815322882, 45.935878753662202 ], [ 7.71451902389538, 45.935451507568402 ], [ 7.71511507034313, 45.934211730957003 ], [ 7.71583604812622, 45.933441162109403 ], [ 7.7174129486084, 45.932247161865199 ], [ 7.72050285339361, 45.930194854736399 ], [ 7.72159194946295, 45.929584503173899 ], [ 7.72281408309936, 45.929111480712997 ], [ 7.72374677658092, 45.928939819336001 ], [ 7.72471809387207, 45.928859710693402 ], [ 7.72919321060186, 45.9287719726563 ], [ 7.73162698745728, 45.928554534912102 ], [ 7.73237085342413, 45.9285278320312 ], [ 7.73346614837646, 45.928619384765703 ], [ 7.73484611511236, 45.928890228271598 ], [ 7.73520517349237, 45.928989410400398 ], [ 7.7355570793153, 45.929084777832003 ], [ 7.7363138198852, 45.929389953613402 ], [ 7.73700094223017, 45.929763793945398 ], [ 7.737624168396, 45.930183410644503 ], [ 7.73840618133556, 45.9308891296387 ], [ 7.73876190185541, 45.9314193725587 ], [ 7.73946523666376, 45.933277130127102 ], [ 7.73997020721447, 45.934135437011797 ], [ 7.74049615859985, 45.934726715087898 ], [ 7.74095106124872, 45.935035705566499 ], [ 7.7428941726684, 45.936000823974602 ], [ 7.74353790283197, 45.936191558837798 ], [ 7.74455976486217, 45.936408996582102 ], [ 7.74519395828247, 45.93660736084 ], [ 7.74665307998663, 45.937526702880803 ], [ 7.7468838691712, 45.937671661377102 ], [ 7.74722814559936, 45.938106536865199 ], [ 7.7476549148559, 45.939014434814602 ], [ 7.7478170394898, 45.939357757568402 ], [ 7.74864816665655, 45.940620422363402 ], [ 7.74931478500372, 45.942237854003899 ], [ 7.74971008300781, 45.942771911621001 ], [ 7.74997997283941, 45.943023681640597 ], [ 7.75098085403437, 45.943679809570398 ], [ 7.75179815292358, 45.944000244140703 ], [ 7.75266408920288, 45.944156646728601 ], [ 7.75399208068853, 45.944183349609403 ], [ 7.75485515594477, 45.944114685058601 ], [ 7.75503396987909, 45.944087982177798 ], [ 7.75676584243769, 45.943851470947301 ], [ 7.7595410346986, 45.9436264038087 ], [ 7.76042890548706, 45.943481445312599 ], [ 7.76198196411133, 45.943065643310497 ], [ 7.76281499862682, 45.942897796630902 ], [ 7.76648283004761, 45.942554473877003 ], [ 7.76732587814331, 45.942386627197301 ], [ 7.76765298843384, 45.942295074462798 ], [ 7.76885414123541, 45.941967010497997 ], [ 7.77077913284313, 45.9416122436525 ], [ 7.77144098281866, 45.941410064697301 ], [ 7.77315187454224, 45.940441131591797 ], [ 7.77440404891973, 45.9394721984863 ], [ 7.77474403381348, 45.939136505127003 ], [ 7.77533197402965, 45.938182830810597 ], [ 7.77539491653437, 45.938079833984403 ], [ 7.77580499649048, 45.937732696533203 ], [ 7.77725601196289, 45.936988830566499 ], [ 7.78073596954351, 45.934955596923899 ], [ 7.78231096267712, 45.934284210205 ], [ 7.78323411941534, 45.933799743652301 ], [ 7.78378200531006, 45.933578491211101 ], [ 7.78402996063244, 45.933521270751903 ], [ 7.78545379638683, 45.93318939209 ], [ 7.78667593002325, 45.932662963867102 ], [ 7.78866815567028, 45.932197570800803 ], [ 7.78990221023565, 45.931674957275398 ], [ 7.79159688949585, 45.931224822997997 ], [ 7.79213476181036, 45.930999755859403 ], [ 7.79273176193243, 45.930503845215 ], [ 7.79333019256597, 45.9297904968262 ], [ 7.79366016387939, 45.929401397705099 ], [ 7.79372787475592, 45.929275512695298 ], [ 7.79393482208258, 45.928890228271598 ], [ 7.79440307617193, 45.927562713623203 ], [ 7.79474782943737, 45.927070617675902 ], [ 7.79523181915289, 45.926647186279197 ], [ 7.79580783844005, 45.926296234130902 ], [ 7.79683780670166, 45.925830841064602 ], [ 7.7977290153504, 45.925334930419901 ], [ 7.79836416244518, 45.925132751464901 ], [ 7.79968500137335, 45.924819946289198 ], [ 7.80088710784923, 45.924320220947401 ], [ 7.80101203918457, 45.924285888671903 ], [ 7.80122280120855, 45.924232482910298 ], [ 7.80197906494146, 45.924144744873203 ], [ 7.80279588699341, 45.924163818359403 ], [ 7.8036317825318, 45.924301147460902 ], [ 7.80447292327887, 45.924594879150398 ], [ 7.80597591400152, 45.925411224365298 ], [ 7.80956506729126, 45.927761077881001 ], [ 7.81102609634405, 45.928638458252003 ], [ 7.81176900863642, 45.929023742675902 ], [ 7.81328821182262, 45.929653167724702 ], [ 7.81423377990728, 45.930145263672003 ], [ 7.81588697433483, 45.930599212646598 ], [ 7.81650114059454, 45.930812835693501 ], [ 7.81889820098883, 45.932155609131001 ], [ 7.81951618194592, 45.932399749755902 ], [ 7.82079076766979, 45.932601928711101 ], [ 7.82220220565796, 45.932651519775398 ], [ 7.82364606857305, 45.932605743408203 ], [ 7.82459211349493, 45.932506561279403 ], [ 7.82544994354248, 45.932327270507798 ], [ 7.82699012756348, 45.931892395019503 ], [ 7.82948780059809, 45.931480407715 ], [ 7.83067178726202, 45.931167602539098 ], [ 7.8325510025025, 45.930557250976499 ], [ 7.83278894424438, 45.9304809570313 ], [ 7.83351421356201, 45.930198669433601 ], [ 7.83492612838745, 45.929378509521499 ], [ 7.83665609359747, 45.927986145019602 ], [ 7.83725595474237, 45.927703857421797 ], [ 7.83807611465465, 45.927532196045 ], [ 7.83898019790649, 45.927455902099602 ], [ 7.84041881561285, 45.927425384521499 ], [ 7.84646797180181, 45.927520751953097 ], [ 7.84896802902222, 45.927505493163999 ], [ 7.85042476654058, 45.927425384521499 ], [ 7.85290193557739, 45.927158355712898 ], [ 7.85734987258917, 45.9271049499512 ], [ 7.85873699188238, 45.926979064941399 ], [ 7.85955810546875, 45.926746368408303 ], [ 7.85982322692882, 45.926612854003899 ], [ 7.86023616790766, 45.926284790039098 ], [ 7.86052083969122, 45.925819396972599 ], [ 7.86085414886475, 45.924854278564503 ], [ 7.86117219924933, 45.924392700195398 ], [ 7.86140108108532, 45.924186706542997 ], [ 7.8619909286499, 45.923843383789198 ], [ 7.8623571395874, 45.923728942871101 ], [ 7.86307287216192, 45.923648834228501 ], [ 7.86379384994518, 45.923725128173899 ], [ 7.86450290679932, 45.923984527587798 ], [ 7.86506605148327, 45.9243392944337 ], [ 7.86598491668707, 45.925205230712898 ], [ 7.86773777008051, 45.926246643066499 ], [ 7.8680801391601, 45.926361083984297 ], [ 7.86885118484503, 45.926506042480597 ], [ 7.8705477714538, 45.926673889160199 ], [ 7.87140989303594, 45.926807403564602 ], [ 7.8722071647644, 45.927055358886797 ], [ 7.87287092208868, 45.927413940429702 ], [ 7.87339305877691, 45.927864074707102 ], [ 7.8735871315003, 45.928119659423899 ], [ 7.87435483932506, 45.9297103881837 ], [ 7.87493085861212, 45.930549621582102 ], [ 7.87806320190441, 45.927364349365298 ], [ 7.87610912323004, 45.925552368164198 ], [ 7.86709880828863, 45.920280456542997 ], [ 7.86605882644665, 45.918766021728601 ], [ 7.86576318740839, 45.918319702148501 ], [ 7.86514616012579, 45.917377471923899 ], [ 7.86328220367437, 45.915859222412202 ], [ 7.86299610137945, 45.915359497070298 ], [ 7.86247205734253, 45.911342620849702 ], [ 7.86256504058849, 45.9105033874512 ], [ 7.86295700073248, 45.909671783447202 ], [ 7.86523818969732, 45.893871307372997 ], [ 7.86650514602667, 45.8810234069825 ], [ 7.86670684814464, 45.879981994628999 ], [ 7.86976194381725, 45.869174957275398 ], [ 7.86991310119629, 45.868663787841697 ], [ 7.87032222747814, 45.868171691894602 ], [ 7.87096691131603, 45.867511749267699 ], [ 7.87284088134777, 45.865921020507798 ], [ 7.87496185302729, 45.864250183105497 ], [ 7.8768038749696, 45.862979888916001 ], [ 7.87701797485352, 45.862518310546903 ], [ 7.87553882598883, 45.855487823486399 ], [ 7.87532186508179, 45.854713439941399 ], [ 7.87503814697271, 45.854095458984403 ], [ 7.87467384338379, 45.853626251220703 ], [ 7.8738379478454, 45.852916717529403 ], [ 7.87325477600109, 45.852466583252003 ], [ 7.87237596511852, 45.851966857910298 ], [ 7.87126684188848, 45.851387023925902 ], [ 7.87032413482672, 45.850917816162202 ], [ 7.86942005157471, 45.850414276122997 ], [ 7.86840295791637, 45.849720001220803 ], [ 7.86780786514294, 45.849208831787102 ], [ 7.86748600006115, 45.848594665527301 ], [ 7.86728000640875, 45.847972869873097 ], [ 7.86505222320551, 45.840991973877102 ], [ 7.86496019363398, 45.840522766113402 ], [ 7.8651061058045, 45.840229034423899 ], [ 7.86539697647095, 45.839851379394602 ], [ 7.86576700210577, 45.8393783569337 ], [ 7.86608219146729, 45.839076995849702 ], [ 7.86793184280396, 45.837413787841797 ], [ 7.86894989013677, 45.836727142333999 ], [ 7.86953592300415, 45.836391448974702 ], [ 7.87060308456415, 45.835826873779403 ], [ 7.87208700180054, 45.835060119628899 ], [ 7.87252378463745, 45.834480285644503 ], [ 7.87382698059093, 45.832412719726598 ], [ 7.87457895278942, 45.8308715820312 ], [ 7.87497615814209, 45.829715728759901 ], [ 7.87509107589722, 45.828445434570398 ], [ 7.87513399124157, 45.826927185058601 ], [ 7.87459516525274, 45.826866149902301 ], [ 7.87449216842657, 45.826873779296903 ], [ 7.86342811584473, 45.820842742919901 ], [ 7.86467123031622, 45.817920684814602 ], [ 7.86498689651495, 45.817005157470703 ], [ 7.86771011352545, 45.802581787109297 ], [ 7.86761999130249, 45.801292419433601 ], [ 7.86732912063593, 45.799846649169901 ], [ 7.86707878112787, 45.798862457275298 ], [ 7.86631917953485, 45.797634124755902 ], [ 7.8652448654176, 45.795993804931598 ], [ 7.8642339706422, 45.794498443603501 ], [ 7.86373615264898, 45.793102264404403 ], [ 7.86419582366955, 45.7919311523437 ], [ 7.87021398544306, 45.783802032470703 ], [ 7.87451219558716, 45.7792358398438 ], [ 7.88602495193487, 45.761142730712898 ], [ 7.88657522201538, 45.760650634765597 ], [ 7.89264297485351, 45.756145477294901 ], [ 7.90058088302624, 45.7506332397462 ], [ 7.90125894546514, 45.750190734863303 ], [ 7.91837787628168, 45.744449615478601 ], [ 7.92367219924927, 45.743221282958999 ], [ 7.92545318603527, 45.742851257324297 ], [ 7.92693090438843, 45.7429008483887 ], [ 7.93009614944452, 45.743385314941499 ], [ 7.92835521698004, 45.735641479492202 ], [ 7.93771314620977, 45.725288391113402 ], [ 7.93104982376093, 45.715602874755902 ], [ 7.92499303817749, 45.707237243652301 ], [ 7.92139101028448, 45.702831268310597 ], [ 7.91387796401989, 45.702075958252003 ], [ 7.91289615631115, 45.701725006103601 ], [ 7.91256904602045, 45.7013359069825 ], [ 7.91050291061407, 45.698570251465 ], [ 7.91010713577271, 45.69783782959 ], [ 7.90790796279902, 45.693363189697401 ], [ 7.90755319595343, 45.692489624023501 ], [ 7.90589618682867, 45.687133789062599 ], [ 7.9058570861817, 45.686618804931697 ], [ 7.90588712692261, 45.685672760009801 ], [ 7.90630102157593, 45.682907104492202 ], [ 7.91295289993286, 45.671630859375099 ], [ 7.91768217086792, 45.670036315917997 ], [ 7.91900205612177, 45.669452667236399 ], [ 7.92112779617315, 45.668354034423899 ], [ 7.9218950271607, 45.667915344238203 ], [ 7.92271423339849, 45.667366027832003 ], [ 7.92323398590082, 45.6663627624512 ], [ 7.92309999465942, 45.665290832519503 ], [ 7.92262315750122, 45.664096832275398 ], [ 7.92209482193004, 45.662841796875099 ], [ 7.92195320129395, 45.661552429199297 ], [ 7.92274713516247, 45.660308837890597 ], [ 7.92368316650396, 45.659011840820298 ], [ 7.92495393753052, 45.657627105712898 ], [ 7.92633581161499, 45.656517028808601 ], [ 7.92691993713379, 45.656181335449297 ], [ 7.92699384689337, 45.656139373779403 ], [ 7.94047212600714, 45.644195556640703 ], [ 7.93719387054449, 45.636634826660099 ], [ 7.93291807174677, 45.6370658874513 ], [ 7.93079996109014, 45.637100219726598 ], [ 7.92862415313732, 45.636825561523402 ], [ 7.92625904083252, 45.636356353759702 ], [ 7.91698884963989, 45.634025573730497 ], [ 7.91613006591808, 45.633678436279197 ], [ 7.91465091705317, 45.632232666015703 ], [ 7.91439914703375, 45.6319808959962 ], [ 7.91404581069952, 45.631629943847798 ], [ 7.90784597396862, 45.624580383300902 ], [ 7.90550994873047, 45.621734619140703 ], [ 7.90252876281738, 45.617687225341797 ], [ 7.89997386932384, 45.614513397216797 ], [ 7.8992161750794, 45.613883972168097 ], [ 7.89855194091808, 45.613468170166001 ], [ 7.89782953262329, 45.6122245788575 ], [ 7.89848518371582, 45.607242584228601 ], [ 7.8980650901795, 45.606674194336101 ], [ 7.89798784255981, 45.606563568115298 ], [ 7.89766979217541, 45.605766296386697 ], [ 7.89692497253424, 45.602565765381001 ], [ 7.89698219299316, 45.601619720459098 ], [ 7.89734601974482, 45.600715637207102 ], [ 7.89789104461681, 45.599758148193402 ], [ 7.89843416213984, 45.598854064941499 ], [ 7.89902877807629, 45.597923278808501 ], [ 7.89986085891729, 45.596706390380902 ], [ 7.90123796463013, 45.594436645507898 ], [ 7.90165281295771, 45.5935668945312 ], [ 7.90182781219488, 45.593116760253999 ], [ 7.90186309814453, 45.592666625976598 ], [ 7.90122795104975, 45.592365264892599 ], [ 7.89822292327881, 45.591293334960902 ], [ 7.89741992950439, 45.591060638427798 ], [ 7.89714384078985, 45.591018676757898 ], [ 7.89686679840099, 45.590976715087898 ], [ 7.89597606658947, 45.591495513916101 ], [ 7.89539098739618, 45.5918579101562 ], [ 7.89457178115839, 45.592460632324297 ], [ 7.89347791671759, 45.593353271484403 ], [ 7.89266920089727, 45.594055175781399 ], [ 7.89207983016973, 45.594642639160298 ], [ 7.89159107208258, 45.595386505127003 ], [ 7.89152479171759, 45.596248626709098 ], [ 7.8916511535644, 45.596969604492102 ], [ 7.89174222946167, 45.5973930358888 ], [ 7.89166879653931, 45.597934722900398 ], [ 7.89024591445923, 45.598575592041101 ], [ 7.88159799575811, 45.600849151611399 ], [ 7.88025999069225, 45.601097106933601 ], [ 7.87848615646362, 45.6011772155762 ], [ 7.87717390060425, 45.600963592529403 ], [ 7.87151384353643, 45.599925994872997 ], [ 7.86939477920527, 45.5993881225587 ], [ 7.86736917495739, 45.598876953124901 ], [ 7.86632490158081, 45.598537445068501 ], [ 7.86580181121832, 45.598255157470703 ], [ 7.86337423324591, 45.597927093505902 ], [ 7.8499689102174, 45.603210449218899 ], [ 7.84831285476696, 45.601455688476598 ], [ 7.84716320037853, 45.600563049316499 ], [ 7.84635210037237, 45.600112915039098 ], [ 7.84327077865601, 45.598426818847699 ], [ 7.84253311157232, 45.598175048828097 ], [ 7.84172296524042, 45.598266601562599 ], [ 7.84078502655035, 45.598365783691399 ], [ 7.837959766388, 45.598598480224602 ], [ 7.8366122245788, 45.59867477417 ], [ 7.83280277252209, 45.598724365234403 ], [ 7.83203506469732, 45.598670959472798 ], [ 7.83102607727056, 45.598472595215 ], [ 7.82992792129517, 45.598243713378999 ], [ 7.82888078689586, 45.598018646240199 ], [ 7.8284478187561, 45.597888946533203 ], [ 7.81522798538219, 45.593700408935597 ], [ 7.81432580947876, 45.593288421630902 ], [ 7.80774211883545, 45.589977264404403 ], [ 7.79677581787109, 45.587326049804702 ], [ 7.79789400100719, 45.5836601257325 ], [ 7.79736709594738, 45.583560943603501 ], [ 7.79646396636963, 45.583244323730497 ], [ 7.79544115066534, 45.582630157470703 ], [ 7.78809022903448, 45.577484130859503 ], [ 7.78640985488886, 45.575729370117202 ], [ 7.78002214431774, 45.572422027587997 ], [ 7.77853918075562, 45.571659088134901 ], [ 7.77588605880737, 45.5704956054688 ], [ 7.77508306503296, 45.570156097412202 ], [ 7.77469301223755, 45.569988250732401 ], [ 7.77319288253778, 45.569412231445398 ], [ 7.76956701278687, 45.568187713623097 ], [ 7.76294612884533, 45.5662612915038 ], [ 7.75681781768793, 45.5646362304688 ], [ 7.74991416931158, 45.561061859130902 ], [ 7.74655723571777, 45.558765411377003 ], [ 7.73875713348394, 45.553066253662102 ], [ 7.73378276824957, 45.551273345947401 ], [ 7.73136806488037, 45.551692962646499 ], [ 7.73028516769409, 45.553482055663999 ], [ 7.72403812408453, 45.558345794677699 ], [ 7.72351980209351, 45.5587387084962 ], [ 7.72160911560059, 45.559444427490298 ], [ 7.72020483016973, 45.559787750244197 ], [ 7.72001886367809, 45.559829711914098 ], [ 7.71743392944342, 45.559898376464901 ], [ 7.71716785430908, 45.559734344482401 ], [ 7.71645879745495, 45.559291839599503 ], [ 7.71610689163208, 45.5590209960937 ], [ 7.715666770935, 45.558593750000099 ], [ 7.71088695526129, 45.556949615478601 ], [ 7.70891284942638, 45.556575775146598 ], [ 7.70774602890015, 45.556434631347699 ], [ 7.70735597610474, 45.556404113769503 ], [ 7.70632791519171, 45.556354522705099 ], [ 7.70534992218018, 45.556308746337898 ], [ 7.70460081100475, 45.556362152099702 ], [ 7.70428991317743, 45.5565605163575 ], [ 7.69280290603643, 45.556785583496101 ], [ 7.67788887023931, 45.553043365478501 ], [ 7.67053508758556, 45.556728363037202 ], [ 7.66202878952038, 45.561832427978501 ], [ 7.66005706787109, 45.563003540039198 ], [ 7.64808082580566, 45.569393157959098 ], [ 7.64703178405762, 45.569934844970803 ], [ 7.64589977264416, 45.570018768310497 ], [ 7.6456880569458, 45.570018768310497 ], [ 7.64273309707647, 45.569606781005902 ], [ 7.64143085479731, 45.569831848144602 ], [ 7.63878154754644, 45.570552825927699 ], [ 7.63658523559582, 45.571151733398501 ], [ 7.63596391677862, 45.571323394775398 ], [ 7.63554620742792, 45.5714530944825 ], [ 7.63102722167969, 45.570064544677798 ], [ 7.62824296951288, 45.568790435791101 ], [ 7.62667417526245, 45.568107604980597 ], [ 7.62556505203258, 45.567886352539098 ], [ 7.62483215332037, 45.567905426025398 ], [ 7.62442588806164, 45.567916870117301 ], [ 7.62402009963989, 45.568031311035199 ], [ 7.6225328445434, 45.568298339843899 ], [ 7.62191295623774, 45.568103790283203 ], [ 7.62101697921753, 45.567264556884901 ], [ 7.6199049949646, 45.566074371337898 ], [ 7.61972713470453, 45.565975189208899 ], [ 7.61879587173468, 45.565563201904403 ], [ 7.61795902252203, 45.565425872802699 ], [ 7.61694002151489, 45.565269470215 ], [ 7.61497497558588, 45.564933776855497 ], [ 7.61281108856201, 45.564319610595703 ], [ 7.61125707626343, 45.563770294189503 ], [ 7.61015796661377, 45.563819885253899 ], [ 7.60855817794811, 45.569488525390703 ], [ 7.60729789733881, 45.573787689208899 ], [ 7.60693979263311, 45.574275970458999 ], [ 7.6018700599671, 45.578201293945398 ], [ 7.60078477859491, 45.579032897949197 ], [ 7.60017395019531, 45.579387664794901 ], [ 7.57505989074713, 45.590244293212898 ], [ 7.56969118118292, 45.592140197753999 ], [ 7.56886482238764, 45.5923843383788 ], [ 7.56756496429449, 45.592563629150398 ], [ 7.56657981872564, 45.592506408691499 ], [ 7.5580468177796, 45.591300964355497 ], [ 7.55606985092169, 45.590888977050803 ], [ 7.55441522598272, 45.590446472168097 ], [ 7.54788208007812, 45.588272094726598 ], [ 7.54546022415167, 45.587234497070298 ], [ 7.54409122467041, 45.586624145507898 ], [ 7.54292583465588, 45.586051940918097 ], [ 7.54171800613403, 45.585243225097699 ], [ 7.54112482070917, 45.584346771240199 ], [ 7.5408301353454, 45.583854675292997 ], [ 7.54056215286266, 45.583320617675803 ], [ 7.54021787643433, 45.582748413086001 ], [ 7.53971099853516, 45.582260131836101 ], [ 7.53376817703253, 45.578117370605497 ], [ 7.5328779220581, 45.5777397155763 ], [ 7.5314040184021, 45.577632904052699 ], [ 7.5294971466065, 45.577545166015597 ], [ 7.52758789062511, 45.577510833740298 ], [ 7.5250759124757, 45.577514648437401 ], [ 7.52375411987305, 45.577571868896598 ], [ 7.52199220657354, 45.577835083007898 ], [ 7.52119207382202, 45.5780220031738 ], [ 7.52017784118652, 45.5786743164062 ], [ 7.51991415023815, 45.578842163085902 ], [ 7.51897001266485, 45.579181671142599 ], [ 7.51741695404058, 45.579738616943402 ], [ 7.51608419418346, 45.580226898193501 ], [ 7.51486396789562, 45.580783843994197 ], [ 7.51357221603405, 45.581199645996101 ], [ 7.5121960639953, 45.581371307373203 ], [ 7.51085996627808, 45.581478118896499 ], [ 7.51054286956793, 45.581611633300803 ], [ 7.51001691818237, 45.581836700439503 ], [ 7.50854015350347, 45.582439422607401 ], [ 7.5074667930603, 45.582775115966797 ], [ 7.50688695907593, 45.582912445068501 ], [ 7.50525188446045, 45.583160400390703 ], [ 7.50352287292492, 45.583614349365298 ], [ 7.50204420089727, 45.583793640136797 ], [ 7.50011396408081, 45.584056854248203 ], [ 7.49854803085327, 45.584133148193402 ], [ 7.496988773346, 45.5839462280275 ], [ 7.49546289443975, 45.583995819091903 ], [ 7.49385786056524, 45.584091186523501 ], [ 7.49281597137451, 45.584239959716903 ], [ 7.49177885055542, 45.584190368652301 ], [ 7.49042320251465, 45.584056854248203 ], [ 7.48917722702032, 45.583698272705199 ], [ 7.48776578903198, 45.583255767822301 ], [ 7.48636722564703, 45.582851409912202 ], [ 7.48511981964117, 45.582023620605497 ], [ 7.4841132164002, 45.581352233886697 ], [ 7.48286914825451, 45.580398559570298 ], [ 7.48167610168468, 45.5799789428712 ], [ 7.47963809967041, 45.579753875732401 ], [ 7.47812223434454, 45.579887390136797 ], [ 7.47704315185558, 45.579727172851598 ], [ 7.47645711898798, 45.579128265380803 ], [ 7.47523212432867, 45.578929901123203 ], [ 7.47364521026611, 45.578834533691499 ], [ 7.47195816040045, 45.5786361694337 ], [ 7.47015380859381, 45.578521728515597 ], [ 7.46870517730707, 45.578571319580099 ], [ 7.46696090698248, 45.5785942077637 ], [ 7.46631193161016, 45.578426361083999 ], [ 7.4661078453064, 45.578376770019602 ], [ 7.46561717987066, 45.5775756835938 ], [ 7.46497201919556, 45.576786041259901 ], [ 7.46458196640015, 45.576068878173899 ], [ 7.46477890014643, 45.574939727783097 ], [ 7.46460294723516, 45.573863983154403 ], [ 7.46377706527716, 45.573150634765597 ], [ 7.46276283264166, 45.5722846984863 ], [ 7.4616231918335, 45.571323394775398 ], [ 7.46021318435663, 45.570377349853501 ], [ 7.4586491584779, 45.569465637207102 ], [ 7.45721578598022, 45.568454742431598 ], [ 7.45623779296886, 45.567188262939503 ], [ 7.45560121536255, 45.5661010742187 ], [ 7.45305681228643, 45.563041687011697 ], [ 7.4529709815979, 45.562934875488303 ], [ 7.45158576965332, 45.562641143798899 ], [ 7.45066404342657, 45.562290191650497 ], [ 7.44974279403692, 45.561775207519602 ], [ 7.44926786422729, 45.560848236083999 ], [ 7.44932413101196, 45.559761047363402 ], [ 7.44941902160656, 45.55863571167 ], [ 7.44943284988409, 45.558143615722699 ], [ 7.44945096969604, 45.5574760437012 ], [ 7.44921398162847, 45.5567626953125 ], [ 7.44906902313244, 45.556510925293097 ], [ 7.44436216354376, 45.555290222167997 ], [ 7.42042398452764, 45.547916412353501 ], [ 7.41709899902349, 45.542720794677699 ], [ 7.40998601913446, 45.536159515381001 ], [ 7.38597822189342, 45.521377563476698 ], [ 7.38455581665045, 45.520519256591903 ], [ 7.38110589981073, 45.518947601318402 ], [ 7.37967681884766, 45.5183334350587 ], [ 7.37834596633911, 45.517848968506001 ], [ 7.37729406356817, 45.517528533935497 ], [ 7.37681722640997, 45.517440795898402 ], [ 7.37663078308111, 45.517410278320398 ], [ 7.37526178359985, 45.517364501953203 ], [ 7.37273120880127, 45.517730712890703 ], [ 7.37156391143799, 45.518257141113303 ], [ 7.37081289291382, 45.519424438476598 ], [ 7.37041711807245, 45.520740509033303 ], [ 7.37013292312633, 45.521690368652301 ], [ 7.36912584304815, 45.523334503173899 ], [ 7.36804723739624, 45.5243530273438 ], [ 7.36637687683117, 45.5254096984863 ], [ 7.36511898040771, 45.526004791259801 ], [ 7.36368703842174, 45.526378631591903 ], [ 7.36193609237671, 45.526706695556598 ], [ 7.36040687561029, 45.526817321777301 ], [ 7.35943078994751, 45.526504516601598 ], [ 7.35898876190191, 45.526367187500099 ], [ 7.3576450347901, 45.525436401367102 ], [ 7.35640907287598, 45.524852752685597 ], [ 7.35199689865124, 45.523349761962898 ], [ 7.35072803497326, 45.522987365722699 ], [ 7.34506702423096, 45.522205352783303 ], [ 7.34259080886841, 45.521942138671903 ], [ 7.34103202819819, 45.5218315124512 ], [ 7.33975696563726, 45.522125244140703 ], [ 7.33807897567743, 45.5223197937012 ], [ 7.33638906478887, 45.522140502929801 ], [ 7.33486795425415, 45.5216674804687 ], [ 7.32947778701782, 45.5195121765137 ], [ 7.32901191711431, 45.519252777099602 ], [ 7.32808303833008, 45.518627166748203 ], [ 7.32406091690075, 45.515399932861399 ], [ 7.3234481811524, 45.515190124511697 ], [ 7.32220411300665, 45.514984130859403 ], [ 7.32134008407593, 45.515045166015703 ], [ 7.31088304519653, 45.516265869140703 ], [ 7.28005218505854, 45.514392852783303 ], [ 7.27060508728039, 45.515628814697301 ], [ 7.26773309707664, 45.507881164550902 ], [ 7.2674961090089, 45.504745483398501 ], [ 7.26704216003412, 45.503700256347599 ], [ 7.26573801040655, 45.501152038574297 ], [ 7.26483917236328, 45.499977111816499 ], [ 7.26436376571661, 45.499618530273501 ], [ 7.26347208023083, 45.499507904052798 ], [ 7.26241207122808, 45.4994125366212 ], [ 7.2611870765686, 45.499336242675803 ], [ 7.25895690917974, 45.499008178711001 ], [ 7.2576088905335, 45.498741149902301 ], [ 7.25616407394409, 45.498287200927699 ], [ 7.25433921813971, 45.497692108154197 ], [ 7.25163507461548, 45.496555328369098 ], [ 7.25065088272089, 45.496089935302798 ], [ 7.24866294860845, 45.495025634765703 ], [ 7.23760700225841, 45.486789703369297 ], [ 7.23149108886724, 45.478954315185703 ], [ 7.22825002670299, 45.475013732910199 ], [ 7.22545385360723, 45.472339630127003 ], [ 7.2245330810548, 45.471572875976598 ], [ 7.22376108169561, 45.471424102783203 ], [ 7.21603918075562, 45.471996307372997 ], [ 7.21484279632568, 45.472213745117301 ], [ 7.21093893051159, 45.473510742187599 ], [ 7.21007013320923, 45.4739379882812 ], [ 7.20955085754395, 45.4749565124513 ], [ 7.20909214019787, 45.475734710693501 ], [ 7.20852708816534, 45.476596832275398 ], [ 7.20762205123901, 45.477310180664098 ], [ 7.2013697624206, 45.481597900390597 ], [ 7.20056200027472, 45.482097625732401 ], [ 7.16142892837536, 45.487541198730497 ], [ 7.15972805023193, 45.487674713134801 ], [ 7.15838384628307, 45.487556457519602 ], [ 7.15728282928478, 45.487178802490298 ], [ 7.15396118164074, 45.485828399658303 ], [ 7.15319681167625, 45.485347747802699 ], [ 7.15223979949957, 45.484466552734403 ], [ 7.15159177780157, 45.483539581298899 ], [ 7.15090322494507, 45.482303619384801 ], [ 7.15043592452997, 45.481323242187599 ], [ 7.14912796020508, 45.479072570800902 ], [ 7.14857912063604, 45.478649139404297 ], [ 7.14787578582769, 45.478572845459098 ], [ 7.1451239585877, 45.478736877441399 ], [ 7.14476013183599, 45.478778839111399 ], [ 7.14467716217041, 45.478786468506001 ], [ 7.14430809021002, 45.4789848327638 ], [ 7.14364194870006, 45.479766845703203 ], [ 7.14279079437262, 45.480766296386797 ], [ 7.14223384857183, 45.481765747070199 ], [ 7.14113903045654, 45.48433303833 ], [ 7.13846397399914, 45.490615844726598 ], [ 7.13801479339605, 45.491813659668097 ], [ 7.13803482055675, 45.492744445800803 ], [ 7.13863086700451, 45.493293762207102 ], [ 7.14027214050299, 45.494014739990298 ], [ 7.14136505126964, 45.494701385497997 ], [ 7.14161300659185, 45.494857788086001 ], [ 7.14286279678356, 45.495777130126903 ], [ 7.14319705963135, 45.496059417724702 ], [ 7.14412117004395, 45.496829986572301 ], [ 7.14459896087658, 45.497467041015597 ], [ 7.14476203918463, 45.4979476928712 ], [ 7.14334917068493, 45.506320953369098 ], [ 7.14215517044079, 45.511875152587898 ], [ 7.13863801956182, 45.517215728759801 ], [ 7.13657903671287, 45.516731262207003 ], [ 7.13540077209473, 45.516407012939403 ], [ 7.12743377685558, 45.512649536132898 ], [ 7.12684202194225, 45.511993408203203 ], [ 7.12276506423962, 45.507190704345803 ], [ 7.11597776412975, 45.488040924072301 ], [ 7.115807056427, 45.486274719238303 ], [ 7.11534118652349, 45.4814262390138 ], [ 7.11531114578258, 45.480777740478501 ], [ 7.11556720733637, 45.479225158691499 ], [ 7.11577320098877, 45.478427886962798 ], [ 7.11594104766857, 45.4776000976562 ], [ 7.11590003967285, 45.476905822753999 ], [ 7.11560487747204, 45.476154327392599 ], [ 7.11481523513794, 45.4745483398438 ], [ 7.11445093154919, 45.473941802978601 ], [ 7.1107487678529, 45.471015930175803 ], [ 7.10542917251587, 45.467914581298899 ], [ 7.10352277755732, 45.466793060302699 ], [ 7.10145807266247, 45.465267181396399 ], [ 7.10119152069103, 45.465663909912102 ], [ 7.10180997848516, 45.468517303466797 ], [ 7.09798860549932, 45.469291687011797 ], [ 7.09597015380871, 45.471443176269602 ], [ 7.09283876419073, 45.474781036377102 ], [ 7.05704116821289, 45.478481292724602 ], [ 7.05583429336554, 45.486591339111399 ], [ 7.05539703369141, 45.489528656005902 ], [ 7.0553622245788, 45.489761352539198 ], [ 7.0561146736145, 45.490638732910199 ], [ 7.05505752563488, 45.491809844970703 ], [ 7.05445909500128, 45.4958305358887 ], [ 7.05384111404425, 45.499980926513601 ], [ 7.04398679733282, 45.500797271728501 ], [ 7.02244615554821, 45.502578735351598 ], [ 7.01526546478283, 45.506259918212997 ], [ 7.00645112991339, 45.510780334472599 ], [ 7.00459289550793, 45.516002655029197 ], [ 7.00423765182489, 45.517002105712898 ], [ 7.00477457046514, 45.518539428711101 ], [ 7.00291061401373, 45.520729064941399 ], [ 7.00157117843634, 45.524494171142599 ], [ 7.00153923034662, 45.524581909179702 ], [ 7.01145410537731, 45.528877258300703 ], [ 6.99536991119385, 45.542179107666001 ], [ 6.9949831962586, 45.543659210205 ], [ 6.99507713317871, 45.543979644775497 ], [ 6.99187946319586, 45.556262969970703 ], [ 6.99766016006475, 45.569980621337798 ], [ 6.99633312225342, 45.572692871093899 ], [ 6.99310016632091, 45.579299926757898 ], [ 6.98636007308966, 45.593070983886797 ], [ 6.9858918190003, 45.608058929443402 ], [ 6.98570823669428, 45.613937377929602 ], [ 6.98550462722778, 45.620441436767599 ], [ 6.99733877182007, 45.631401062011797 ], [ 6.99756145477301, 45.6322441101075 ], [ 6.99811363220215, 45.634338378906399 ], [ 7.00102806091309, 45.635429382324297 ], [ 7.012351036072, 45.6396713256837 ], [ 7.01184988021851, 45.648380279541001 ], [ 6.99056100845348, 45.647171020507798 ], [ 6.97860622406011, 45.651020050048899 ], [ 6.96787023544312, 45.6544799804688 ], [ 6.95390415191662, 45.653812408447301 ], [ 6.92597007751476, 45.652481079101598 ], [ 6.92062759399414, 45.65970993042 ], [ 6.9145684242248, 45.667907714843899 ], [ 6.90676116943371, 45.678470611572401 ], [ 6.90631914138788, 45.678451538085902 ], [ 6.90296316146851, 45.678310394287102 ], [ 6.90136241912842, 45.679119110107401 ], [ 6.87671899795538, 45.680114746093899 ], [ 6.87593889236462, 45.680435180664098 ], [ 6.86707305908214, 45.684070587158203 ], [ 6.85131311416626, 45.697990417480497 ], [ 6.82427692413341, 45.721870422363402 ], [ 6.81839513778692, 45.740699768066499 ], [ 6.81216812133795, 45.760463714599702 ], [ 6.8141598701477, 45.775669097900398 ], [ 6.81508588790905, 45.782726287841903 ], [ 6.81919527053844, 45.814041137695298 ], [ 6.82087898254395, 45.826869964599702 ], [ 6.84737205505382, 45.829669952392599 ], [ 6.86351346969604, 45.826526641845703 ], [ 6.87667512893677, 45.823963165283303 ], [ 6.89057016372686, 45.8370590209962 ], [ 6.90568208694458, 45.8432006835937 ], [ 6.90847206115745, 45.8426933288575 ], [ 6.93772459030151, 45.847499847412003 ], [ 6.95340442657482, 45.859390258789198 ], [ 6.9731707572937, 45.8653984069825 ], [ 6.99285221099854, 45.87064743042 ], [ 6.9947710037232, 45.871963500976698 ], [ 6.99795913696295, 45.872932434082102 ], [ 7.00624990463268, 45.875450134277301 ], [ 7.00129795074469, 45.876316070556598 ], [ 7.00434494018549, 45.8781547546388 ], [ 7.01114988327026, 45.882259368896499 ], [ 7.01314020156872, 45.905361175537202 ], [ 7.02538585662847, 45.916744232177699 ], [ 7.04204940795904, 45.924766540527401 ], [ 7.04071712493896, 45.930992126464801 ], [ 7.04258394241344, 45.932727813720803 ], [ 7.04284906387335, 45.935829162597699 ], [ 7.04308891296398, 45.938652038574297 ], [ 7.04322910308838, 45.938110351562599 ], [ 7.04358100891125, 45.937564849853501 ], [ 7.0459189414978, 45.935775756835902 ], [ 7.04630899429321, 45.9352836608887 ], [ 7.04677104949957, 45.934482574462898 ], [ 7.04769706726068, 45.933586120605597 ], [ 7.04824876785278, 45.932750701904197 ], [ 7.04856777191168, 45.932079315185597 ], [ 7.04873514175426, 45.931385040283303 ], [ 7.04898214340221, 45.928844451904403 ], [ 7.04957008361816, 45.9267387390137 ], [ 7.04991912841803, 45.9260864257813 ], [ 7.05040407180798, 45.9255981445312 ], [ 7.05102014541632, 45.925197601318402 ], [ 7.05264091491711, 45.924537658691499 ], [ 7.05362606048578, 45.924022674560497 ], [ 7.05546188354486, 45.922473907470703 ], [ 7.05589580535894, 45.9219970703125 ], [ 7.05661106109625, 45.920650482177798 ], [ 7.05726480484014, 45.919994354247997 ], [ 7.05791282653831, 45.918983459472699 ], [ 7.05840492248541, 45.918510437011797 ], [ 7.05916881561285, 45.918197631835902 ], [ 7.06138706207281, 45.917697906494098 ], [ 7.06408023834234, 45.916732788086001 ], [ 7.06590318679815, 45.915664672851698 ], [ 7.06668186187744, 45.915081024169901 ], [ 7.06755781173712, 45.914566040039098 ], [ 7.06906509399414, 45.913345336914198 ], [ 7.06926488876348, 45.913078308105497 ], [ 7.06952285766613, 45.9124755859375 ], [ 7.07005786895758, 45.910404205322401 ], [ 7.0701007843017, 45.909290313720597 ], [ 7.07006311416626, 45.908679962158303 ], [ 7.06988620758051, 45.905860900878999 ], [ 7.06997680664085, 45.904754638672003 ], [ 7.0702161788941, 45.904048919677798 ], [ 7.07084798812872, 45.903194427490199 ], [ 7.07255411148083, 45.901420593261697 ], [ 7.07431793212891, 45.900257110595803 ], [ 7.07780790328991, 45.898826599121101 ], [ 7.08054876327526, 45.898204803466903 ], [ 7.08096981048584, 45.898044586181598 ], [ 7.08147382736212, 45.8977279663087 ], [ 7.08188295364391, 45.897228240966903 ], [ 7.08210086822504, 45.89656829834 ], [ 7.08220720291138, 45.894420623779197 ], [ 7.08241415023804, 45.893356323242301 ], [ 7.08311891555792, 45.891979217529297 ], [ 7.08371686935425, 45.890407562255803 ], [ 7.0845370292663, 45.8894653320313 ], [ 7.08536195755005, 45.888179779052699 ], [ 7.08561897277832, 45.887943267822301 ], [ 7.08630800247192, 45.887584686279297 ], [ 7.08725023269676, 45.8872680664062 ], [ 7.08935880661011, 45.886562347412202 ], [ 7.09016418457037, 45.886161804199197 ], [ 7.09131097793585, 45.885471343994098 ], [ 7.09314298629761, 45.884212493896499 ], [ 7.09487295150762, 45.8829154968263 ], [ 7.09578990936285, 45.882129669189503 ], [ 7.09678506851208, 45.881118774414198 ], [ 7.0976119041444, 45.880542755127003 ], [ 7.09895277023315, 45.8793144226075 ], [ 7.09916591644298, 45.8787651062013 ], [ 7.09913682937633, 45.878185272216903 ], [ 7.09889316558838, 45.877647399902401 ], [ 7.0980949401856, 45.876735687255902 ], [ 7.09786796569824, 45.876132965087898 ], [ 7.0977988243103, 45.875160217285199 ], [ 7.09796190261852, 45.874542236328097 ], [ 7.09835720062261, 45.874038696289098 ], [ 7.10029792785645, 45.872432708740298 ], [ 7.10066318511963, 45.8719291687012 ], [ 7.10125494003302, 45.870864868163999 ], [ 7.10187005996698, 45.870174407959098 ], [ 7.10213994979853, 45.8696098327638 ], [ 7.10260391235352, 45.867729187011797 ], [ 7.10348415374762, 45.866474151611399 ], [ 7.10394001007074, 45.865238189697202 ], [ 7.10424613952642, 45.864658355712798 ], [ 7.1055212020874, 45.863170623779297 ], [ 7.10583591461187, 45.862941741943303 ], [ 7.10662794113159, 45.862617492675902 ], [ 7.10731601715088, 45.862453460693402 ], [ 7.10841894149792, 45.862190246582102 ], [ 7.11032915115379, 45.861644744872997 ], [ 7.11183214187628, 45.861476898193402 ], [ 7.11282777786255, 45.861488342285298 ], [ 7.11376905441296, 45.861576080322401 ], [ 7.11459684371971, 45.861759185791101 ], [ 7.11559820175194, 45.862144470214801 ], [ 7.11640691757214, 45.8623046875 ], [ 7.11779022216797, 45.862335205078097 ], [ 7.11849689483643, 45.862274169921797 ], [ 7.12020111083996, 45.862129211425803 ], [ 7.12117004394526, 45.862178802490199 ], [ 7.1220850944519, 45.8623657226563 ], [ 7.12287998199474, 45.862739562988303 ], [ 7.12367820739752, 45.863361358642599 ], [ 7.12451696395874, 45.863918304443402 ], [ 7.12523603439342, 45.864574432373097 ], [ 7.12606000900269, 45.865184783935703 ], [ 7.12618303298962, 45.865303039550902 ], [ 7.1270518302918, 45.866153717041101 ], [ 7.12794923782354, 45.866756439208899 ], [ 7.1303381919862, 45.867717742919901 ], [ 7.13215923309326, 45.868450164795 ], [ 7.13348484039312, 45.869113922119098 ], [ 7.13577079772961, 45.8697929382325 ], [ 7.13761806488037, 45.870895385742202 ], [ 7.13819217681885, 45.871463775634801 ], [ 7.13849496841436, 45.872119903564503 ], [ 7.13884496688848, 45.874595642089901 ], [ 7.1390590667724, 45.875267028808601 ], [ 7.13924121856689, 45.875579833984503 ], [ 7.13981199264538, 45.876132965087898 ], [ 7.1406979560852, 45.876674652099602 ], [ 7.14142513275146, 45.877120971679801 ], [ 7.14199304580688, 45.877372741699197 ], [ 7.14251184463501, 45.877506256103501 ], [ 7.14399480819708, 45.877899169922003 ], [ 7.14524698257458, 45.878486633300703 ], [ 7.14694976806641, 45.878913879394503 ], [ 7.1485009193421, 45.879627227783303 ], [ 7.15019798278814, 45.880062103271598 ], [ 7.15173721313488, 45.8807792663575 ], [ 7.15374422073376, 45.881336212158303 ], [ 7.15501308441168, 45.881977081298899 ], [ 7.15753412246715, 45.882740020752102 ], [ 7.16016197204595, 45.882389068603601 ], [ 7.1629309654237, 45.8821029663087 ], [ 7.16377019882202, 45.881942749023402 ], [ 7.16619777679443, 45.881069183349602 ], [ 7.16697311401373, 45.880649566650497 ], [ 7.16829109191906, 45.879528045654403 ], [ 7.16843795776367, 45.879276275634801 ], [ 7.16857385635387, 45.878726959228601 ], [ 7.16854381561274, 45.878150939941399 ], [ 7.16835784912115, 45.877578735351598 ], [ 7.16779708862316, 45.876724243164198 ], [ 7.16750288009649, 45.876277923584098 ], [ 7.16713476181042, 45.875308990478601 ], [ 7.16709423065191, 45.874610900878999 ], [ 7.167398929596, 45.873977661132798 ], [ 7.16793298721313, 45.873409271240298 ], [ 7.16895103454601, 45.872642517089801 ], [ 7.17007684707664, 45.871994018554801 ], [ 7.1715722084046, 45.871322631836001 ], [ 7.17330789566034, 45.870250701904297 ], [ 7.17404890060436, 45.869674682617301 ], [ 7.17488384246826, 45.869163513183601 ], [ 7.17561388015758, 45.868587493896499 ], [ 7.17732810974127, 45.867553710937599 ], [ 7.17819023132324, 45.8672485351562 ], [ 7.1794519424439, 45.866939544677798 ], [ 7.18236303329473, 45.866546630859403 ], [ 7.18392276763927, 45.866146087646598 ], [ 7.18470382690452, 45.8658027648925 ], [ 7.18701410293585, 45.864414215087997 ], [ 7.18761777877813, 45.864200592041101 ], [ 7.1889262199403, 45.863864898681797 ], [ 7.19018220901501, 45.863330841064403 ], [ 7.19055414199841, 45.863220214843899 ], [ 7.1909499168396, 45.863155364990199 ], [ 7.19139814376842, 45.863082885742202 ], [ 7.19232606887812, 45.863010406494098 ], [ 7.19293880462652, 45.863006591797003 ], [ 7.19479703903198, 45.862991333007898 ], [ 7.1967821121217, 45.863121032714901 ], [ 7.19786882400518, 45.8633422851563 ], [ 7.19813680648815, 45.863399505615298 ], [ 7.20019483566295, 45.864143371582102 ], [ 7.20074319839489, 45.864391326904403 ], [ 7.20239591598522, 45.865535736083999 ], [ 7.20270109176642, 45.8659057617187 ], [ 7.20291185379023, 45.866310119628899 ], [ 7.20310020446789, 45.866916656494197 ], [ 7.20308494567882, 45.867340087890703 ], [ 7.20279407501221, 45.868934631347798 ], [ 7.20224285125738, 45.870803833007898 ], [ 7.20217990875267, 45.8714370727538 ], [ 7.20221185684204, 45.872390747070298 ], [ 7.2023220062257, 45.873023986816399 ], [ 7.2025089263916, 45.873569488525497 ], [ 7.20397281646723, 45.877136230468899 ], [ 7.20429420471197, 45.877655029296903 ], [ 7.20489501953136, 45.878185272216903 ], [ 7.20583820343018, 45.878734588623203 ], [ 7.2066321372987, 45.8793334960938 ], [ 7.20704221725464, 45.879581451416001 ], [ 7.20749807357799, 45.8798637390138 ], [ 7.20878887176508, 45.880954742431697 ], [ 7.20912981033348, 45.881336212158303 ], [ 7.20978689193737, 45.882572174072401 ], [ 7.20998382568365, 45.8828125 ], [ 7.21042490005499, 45.883163452148501 ], [ 7.21105003356939, 45.883441925048899 ], [ 7.21142578125, 45.883544921875099 ], [ 7.21340703964239, 45.883899688720803 ], [ 7.21525621414196, 45.884422302246101 ], [ 7.21576786041271, 45.884681701660199 ], [ 7.21728086471569, 45.8856391906738 ], [ 7.21873378753668, 45.886932373046903 ], [ 7.2190341949464, 45.8874130249025 ], [ 7.21956777572632, 45.888816833496101 ], [ 7.21989583969127, 45.889373779296903 ], [ 7.22109794616699, 45.891139984131001 ], [ 7.22192096710228, 45.891841888427798 ], [ 7.22294378280645, 45.892330169677699 ], [ 7.22430419921886, 45.892700195312599 ], [ 7.22438907623285, 45.8927192687988 ], [ 7.22540378570557, 45.8929252624512 ], [ 7.22562408447271, 45.892955780029297 ], [ 7.22755622863775, 45.893196105957003 ], [ 7.22831916809088, 45.893344879150398 ], [ 7.22863912582409, 45.893421173095803 ], [ 7.23041486740112, 45.8938598632813 ], [ 7.23234319686895, 45.894477844238402 ], [ 7.23323488235479, 45.894626617431598 ], [ 7.2345919609071, 45.8946762084962 ], [ 7.23587608337408, 45.894554138183601 ], [ 7.23661422729504, 45.894355773925803 ], [ 7.23758792877197, 45.893886566162102 ], [ 7.23825693130499, 45.893680572509801 ], [ 7.23865890502935, 45.893619537353601 ], [ 7.23914194107056, 45.893543243408303 ], [ 7.2405161857605, 45.893337249755902 ], [ 7.24149513244652, 45.8932914733887 ], [ 7.24318885803228, 45.8934326171875 ], [ 7.24340200424194, 45.893451690673899 ], [ 7.24468088150024, 45.893630981445398 ], [ 7.24514579772949, 45.893745422363203 ], [ 7.24549818038946, 45.893833160400497 ], [ 7.24705219268799, 45.894340515136697 ], [ 7.24995517730713, 45.894969940185703 ], [ 7.25179100036621, 45.895603179931598 ], [ 7.25235414505016, 45.895721435546903 ], [ 7.25245189666759, 45.895740509033303 ], [ 7.25337219238281, 45.895828247070398 ], [ 7.25395584106451, 45.895759582519602 ], [ 7.25423288345337, 45.895664215087898 ], [ 7.25467300415045, 45.895370483398501 ], [ 7.25499105453503, 45.894920349121101 ], [ 7.25544595718389, 45.893947601318402 ], [ 7.255539894104, 45.893749237060597 ], [ 7.25694179534923, 45.892333984375099 ], [ 7.25743103027349, 45.892013549804801 ], [ 7.25811815261846, 45.891757965087898 ], [ 7.25852823257458, 45.891677856445298 ], [ 7.25938415527349, 45.8916244506837 ], [ 7.26025104522711, 45.8917045593263 ], [ 7.26067781448364, 45.891799926757898 ], [ 7.26152610778809, 45.892131805419901 ], [ 7.26265001296997, 45.8928031921387 ], [ 7.26436996459961, 45.894092559814403 ], [ 7.265618801117, 45.895168304443501 ], [ 7.26686000823986, 45.8965072631837 ], [ 7.26769590377808, 45.8971176147462 ], [ 7.2684321403504, 45.897754669189503 ], [ 7.26928186416637, 45.898300170898601 ], [ 7.27002191543602, 45.898918151855497 ], [ 7.27086687088013, 45.899463653564503 ], [ 7.27159786224377, 45.900108337402301 ], [ 7.27243089675909, 45.900718688964901 ], [ 7.27341222763056, 45.901744842529403 ], [ 7.27434301376354, 45.902450561523501 ], [ 7.27507495880127, 45.902847290039198 ], [ 7.27581405639648, 45.903125762939503 ], [ 7.27751111984253, 45.903556823730497 ], [ 7.27976417541504, 45.904006958007898 ], [ 7.28042793273937, 45.904285430908303 ], [ 7.28086805343639, 45.904651641845803 ], [ 7.2813482284547, 45.905277252197401 ], [ 7.28173923492443, 45.905971527099702 ], [ 7.28234004974365, 45.907447814941499 ], [ 7.28290081024176, 45.909145355224602 ], [ 7.28382682800287, 45.910346984863203 ], [ 7.28451681137096, 45.912014007568402 ], [ 7.28535413742065, 45.913387298583999 ], [ 7.28560590744024, 45.9140014648438 ], [ 7.28603887557983, 45.915054321289198 ], [ 7.28697395324701, 45.916255950927798 ], [ 7.28752708435064, 45.917617797851598 ], [ 7.28783893585205, 45.918170928955099 ], [ 7.28883981704723, 45.919368743896598 ], [ 7.28945112228405, 45.919910430908303 ], [ 7.29005193710327, 45.9201889038087 ], [ 7.29132318496704, 45.920623779297003 ], [ 7.29148006439203, 45.920707702636697 ], [ 7.29161119461054, 45.920776367187599 ], [ 7.29203701019281, 45.921115875244098 ], [ 7.292809009552, 45.921962738037202 ], [ 7.29328298568731, 45.922485351562599 ], [ 7.29444217681885, 45.9240341186525 ], [ 7.29617595672607, 45.925678253173899 ], [ 7.29787492752087, 45.924484252929702 ], [ 7.2985730171203, 45.924095153808601 ], [ 7.29980278015148, 45.923511505127003 ], [ 7.30070781707775, 45.922897338867301 ], [ 7.30278396606451, 45.922027587890597 ], [ 7.30372810363781, 45.921707153320398 ], [ 7.30506992340082, 45.921474456787202 ], [ 7.3078727722168, 45.921234130859403 ], [ 7.30985593795776, 45.920944213867202 ], [ 7.31362915039057, 45.920669555664098 ], [ 7.31683111190802, 45.920162200927699 ], [ 7.31805706024181, 45.919849395751903 ], [ 7.31876993179327, 45.919490814208999 ], [ 7.31960678100597, 45.918788909912202 ], [ 7.3206782341004, 45.917320251464901 ], [ 7.32166481018078, 45.916126251220803 ], [ 7.3220820426942, 45.915729522705199 ], [ 7.32289981842047, 45.915267944336101 ], [ 7.32416820526134, 45.914718627929801 ], [ 7.32463312149059, 45.914516448974702 ], [ 7.32544612884521, 45.914279937744098 ], [ 7.3263020515443, 45.914123535156399 ], [ 7.32951021194458, 45.913646697998203 ], [ 7.3308448791505, 45.913593292236399 ], [ 7.33216619491571, 45.913684844970597 ], [ 7.33535480499268, 45.914157867431697 ], [ 7.3358030319215, 45.914249420166001 ], [ 7.33619499206549, 45.9143295288087 ], [ 7.33811187744146, 45.914943695068402 ], [ 7.34039115905767, 45.915462493896499 ], [ 7.34200906753546, 45.916183471679702 ], [ 7.3442821502685, 45.916717529296903 ], [ 7.34616708755493, 45.917293548584098 ], [ 7.34740209579479, 45.917411804199197 ], [ 7.34856700897228, 45.917282104492202 ], [ 7.34917211532593, 45.917068481445298 ], [ 7.35016679763788, 45.916599273681598 ], [ 7.35216712951671, 45.916004180908203 ], [ 7.3531289100647, 45.915561676025497 ], [ 7.35347414016735, 45.9154052734375 ], [ 7.35579395294195, 45.914951324462898 ], [ 7.35644006729132, 45.914779663085902 ], [ 7.3577232360841, 45.914352416992102 ], [ 7.35829114913952, 45.914035797119297 ], [ 7.35872411727905, 45.913631439209098 ], [ 7.35905981063837, 45.913036346435597 ], [ 7.3594851493836, 45.911087036132898 ], [ 7.35970783233637, 45.910442352294901 ], [ 7.36004590988153, 45.909866333007898 ], [ 7.36094903945923, 45.908626556396499 ], [ 7.3613109588623, 45.908222198486399 ], [ 7.36291313171392, 45.906929016113303 ], [ 7.36468076705944, 45.9058837890625 ], [ 7.36535787582403, 45.9057235717775 ], [ 7.3660778999328, 45.905696868896499 ], [ 7.36707210540771, 45.905876159667997 ], [ 7.36797285079962, 45.906295776367301 ], [ 7.36864423751825, 45.906455993652401 ], [ 7.36982822418219, 45.906494140625099 ], [ 7.37064981460577, 45.906383514404403 ], [ 7.37141609191906, 45.906150817871001 ], [ 7.373360157013, 45.905372619628999 ], [ 7.37481117248541, 45.904518127441499 ], [ 7.37506818771374, 45.904403686523601 ], [ 7.37820005416876, 45.9030380249025 ], [ 7.38103199005138, 45.901290893554702 ], [ 7.38164615631109, 45.901065826416101 ], [ 7.38296222686779, 45.900711059570398 ], [ 7.38444089889526, 45.900032043457102 ], [ 7.38564300537115, 45.899753570556598 ], [ 7.38658809661871, 45.899669647216903 ], [ 7.3894248008728, 45.899822235107401 ], [ 7.39070320129406, 45.899982452392599 ], [ 7.39144277572632, 45.900199890136797 ], [ 7.393235206604, 45.9012260437013 ], [ 7.39398908615124, 45.901813507080199 ], [ 7.39484691619879, 45.902332305908303 ], [ 7.39560222625738, 45.902919769287202 ], [ 7.39647102355957, 45.903434753418097 ], [ 7.39722919464123, 45.9040336608887 ], [ 7.39808320999157, 45.904613494873097 ], [ 7.39916896820074, 45.9058837890625 ], [ 7.39971685409546, 45.906669616699297 ], [ 7.39995288848871, 45.9072494506837 ], [ 7.4003791809082, 45.908740997314503 ], [ 7.40108585357672, 45.910160064697301 ], [ 7.4014368057251, 45.9105834960938 ], [ 7.40186977386486, 45.910930633545 ], [ 7.40349817276007, 45.911861419677798 ], [ 7.40411186218267, 45.912082672119197 ], [ 7.40528011322027, 45.912178039550803 ], [ 7.40650510787958, 45.912021636962898 ], [ 7.40888214111334, 45.911304473877003 ], [ 7.41033792495739, 45.911106109619197 ], [ 7.41183805465693, 45.911022186279297 ], [ 7.41331291198742, 45.911022186279297 ], [ 7.41424703598034, 45.911079406738402 ], [ 7.41510391235357, 45.911224365234403 ], [ 7.41548490524292, 45.911350250244297 ], [ 7.41605806350702, 45.911705017089801 ], [ 7.41683483123791, 45.912757873535199 ], [ 7.41704320907587, 45.912952423095703 ], [ 7.41752481460577, 45.913234710693402 ], [ 7.41898298263544, 45.913772583007798 ], [ 7.42067813873291, 45.914211273193501 ], [ 7.42266321182262, 45.914821624755803 ], [ 7.42364788055426, 45.9153442382812 ], [ 7.42482614517223, 45.916271209716903 ], [ 7.42537879943853, 45.9165649414063 ], [ 7.42799520492548, 45.917263031006001 ], [ 7.43053483963018, 45.9183158874512 ], [ 7.43137121200562, 45.918918609619197 ], [ 7.43224811553955, 45.9194564819337 ], [ 7.43299579620361, 45.920078277587898 ], [ 7.43386983871471, 45.920612335205099 ], [ 7.43468284606928, 45.921230316162202 ], [ 7.43601894378673, 45.921955108642599 ], [ 7.43658781051647, 45.922374725341903 ], [ 7.4370751380921, 45.922863006591797 ], [ 7.43792486190801, 45.924079895019503 ], [ 7.43942689895636, 45.9259262084962 ], [ 7.44099807739258, 45.927181243896598 ], [ 7.44185876846319, 45.927719116210902 ], [ 7.44261217117321, 45.928337097167997 ], [ 7.44346904754644, 45.928878784179702 ], [ 7.44494819641113, 45.930149078369098 ], [ 7.44525194168097, 45.930606842041101 ], [ 7.44570207595836, 45.931594848632898 ], [ 7.44648599624634, 45.932506561279403 ], [ 7.44683218002331, 45.933109283447401 ], [ 7.44714593887329, 45.9336547851562 ], [ 7.4475669860841, 45.934085845947202 ], [ 7.44786214828491, 45.934253692627102 ], [ 7.44855785369873, 45.934478759765703 ], [ 7.4511451721192, 45.934928894043097 ], [ 7.4542031288147, 45.935249328613303 ], [ 7.4564418792724, 45.935600280761797 ], [ 7.45693922042841, 45.935676574707102 ], [ 7.45775413513195, 45.935855865478501 ], [ 7.45849323272716, 45.9361381530763 ], [ 7.45911216735834, 45.936515808105497 ], [ 7.4596118927002, 45.9369506835938 ], [ 7.46034002304071, 45.937744140625099 ], [ 7.46081018447887, 45.938068389892699 ], [ 7.4614658355714, 45.938320159912102 ], [ 7.46227598190313, 45.938453674316499 ], [ 7.46312522888184, 45.938472747802699 ], [ 7.46397876739508, 45.9383964538575 ], [ 7.46589708328258, 45.938053131103601 ], [ 7.46709680557262, 45.937835693359403 ], [ 7.4679789543153, 45.937622070312401 ], [ 7.46994209289551, 45.936946868896399 ], [ 7.47084999084473, 45.936759948730497 ], [ 7.47178792953497, 45.936660766601499 ], [ 7.47320985794073, 45.936649322509801 ], [ 7.47414302825939, 45.936756134033097 ], [ 7.47504711151117, 45.937011718750099 ], [ 7.47585391998297, 45.937412261962898 ], [ 7.47655105590832, 45.937896728515703 ], [ 7.47713279724127, 45.938449859619197 ], [ 7.47753810882574, 45.939083099365199 ], [ 7.4776668548584, 45.939632415771499 ], [ 7.47757911682129, 45.940425872802699 ], [ 7.47690296173101, 45.9427909851075 ], [ 7.47630691528326, 45.944568634033303 ], [ 7.47587776184088, 45.94779586792 ], [ 7.47572803497314, 45.948440551757898 ], [ 7.47547817230236, 45.949512481689602 ], [ 7.47547817230236, 45.950065612792997 ], [ 7.47558689117426, 45.950588226318402 ], [ 7.47621011734009, 45.952114105224702 ], [ 7.47768688201916, 45.954063415527301 ], [ 7.47786903381359, 45.954208374023402 ], [ 7.47946500778204, 45.955493927002003 ], [ 7.4812002182008, 45.956565856933601 ], [ 7.48344278335566, 45.957263946533303 ], [ 7.48452806472784, 45.957931518554702 ], [ 7.48519420623779, 45.958343505859403 ], [ 7.48601293563848, 45.958961486816499 ], [ 7.4871759414674, 45.959533691406399 ], [ 7.48818922042858, 45.9601440429688 ], [ 7.49060201644897, 45.959926605224702 ], [ 7.49241113662725, 45.959899902343899 ], [ 7.49503612518322, 45.960250854492202 ], [ 7.49615716934204, 45.960536956787202 ], [ 7.49648189544689, 45.960697174072301 ], [ 7.49692916870123, 45.961063385009801 ], [ 7.49786186218262, 45.962211608886797 ], [ 7.49819803237921, 45.962726593017599 ], [ 7.49873781204229, 45.9639701843262 ], [ 7.49904823303234, 45.964405059814602 ], [ 7.50042104721075, 45.965358734131001 ], [ 7.5010170936585, 45.965564727783097 ], [ 7.50174713134766, 45.965641021728601 ], [ 7.50248622894287, 45.965591430664098 ], [ 7.50316286087042, 45.965431213378999 ], [ 7.50434684753418, 45.964878082275398 ], [ 7.50628423690807, 45.964286804199297 ], [ 7.50746202468883, 45.963706970215 ], [ 7.50836420059204, 45.963470458984403 ], [ 7.50928497314464, 45.963325500488402 ], [ 7.51263904571545, 45.963382720947301 ], [ 7.51307678222668, 45.963386535644503 ], [ 7.51493692398071, 45.963497161865199 ], [ 7.51611089706427, 45.963737487793097 ], [ 7.51705598831182, 45.964160919189503 ], [ 7.51791191101074, 45.964389801025497 ], [ 7.51881313323986, 45.964523315429702 ], [ 7.51976585388178, 45.964492797851698 ], [ 7.52110290527355, 45.964229583740199 ], [ 7.52127313613903, 45.9641723632812 ], [ 7.52184581756592, 45.963977813720803 ], [ 7.52259588241583, 45.9636039733888 ], [ 7.52472496032709, 45.962226867675703 ], [ 7.52584981918329, 45.9615669250488 ], [ 7.52667379379273, 45.961215972900398 ], [ 7.52751398086554, 45.960990905761797 ], [ 7.5311450958252, 45.960338592529403 ], [ 7.53334712982178, 45.960056304931598 ], [ 7.53580284118652, 45.959667205810497 ], [ 7.53974485397344, 45.9593925476075 ], [ 7.54120111465454, 45.959228515625 ], [ 7.54212379455578, 45.9591255187988 ], [ 7.54317617416393, 45.959175109863203 ], [ 7.54379892349249, 45.959354400634801 ], [ 7.5445032119751, 45.959793090820298 ], [ 7.54560995101934, 45.960720062255902 ], [ 7.54596376419067, 45.961105346679702 ], [ 7.54657983779913, 45.962257385253899 ], [ 7.5474090576173, 45.963085174560497 ], [ 7.5476799011231, 45.963466644287102 ], [ 7.54803323745733, 45.964260101318402 ], [ 7.5480690002442, 45.964492797851698 ], [ 7.54809713363653, 45.964672088622997 ], [ 7.54780292510986, 45.967464447021399 ], [ 7.54690408706676, 45.970550537109403 ], [ 7.54656696319586, 45.971710205078203 ], [ 7.54615783691406, 45.974136352539098 ], [ 7.54499387741089, 45.977024078369098 ], [ 7.54488182067882, 45.977928161621101 ], [ 7.5449738502503, 45.978805541992301 ], [ 7.54533576965338, 45.979572296142599 ], [ 7.54616212844849, 45.980396270752102 ], [ 7.54699707031256, 45.981700897216903 ], [ 7.54786109924328, 45.982509613037202 ], [ 7.54849720001232, 45.983634948730497 ], [ 7.54932403564464, 45.984466552734403 ], [ 7.54995393753046, 45.985561370849702 ], [ 7.55028009414667, 45.9859848022462 ], [ 7.55172204971319, 45.986919403076101 ], [ 7.55236816406261, 45.987159729003999 ], [ 7.55279207229626, 45.987236022949197 ], [ 7.5537161827088, 45.987308502197202 ], [ 7.55470323562628, 45.987316131591797 ], [ 7.56205606460571, 45.987064361572401 ], [ 7.56408500671392, 45.987167358398601 ], [ 7.56497907638555, 45.9873275756837 ], [ 7.56656503677379, 45.987728118896499 ], [ 7.56952905654919, 45.988189697265597 ], [ 7.57147693634033, 45.988712310791101 ], [ 7.57379484176636, 45.989128112792997 ], [ 7.5754852294923, 45.9897270202638 ], [ 7.5787119865418, 45.990123748779403 ], [ 7.57933378219605, 45.989822387695398 ], [ 7.58050107955933, 45.989265441894602 ], [ 7.58213520050049, 45.988582611084098 ], [ 7.58261299133295, 45.988311767578203 ], [ 7.58381319046026, 45.987472534179702 ], [ 7.58417987823498, 45.9871215820313 ] ] ] ] } }
]
}
