{
"type": "FeatureCollection",
"name": "Umbria",
"crs": { "type": "name", "properties": { "name": "urn:ogc:def:crs:OGC:1.3:CRS84" } },
"features": [
{ "type": "Feature", "properties": { "Name": null, "description": null, "timestamp": null, "begin": null, "end": null, "altitudeMode": null, "tessellate": -1, "extrude": 0, "visibility": -1, "drawOrder": null, "icon": null, "cartodb_id": 18, "ccn_1": 0.0, "id_1": 18.0, "id_0": 112.0, "varname_1": "Ombrie|Umbrien", "nl_name_1": null, "engtype_1": "Region", "type_1": "Regione", "cca_1": "10", "hasc_1": null, "name_1": "Umbria", "name_0": "Italy", "iso": "ITA" }, "geometry": { "type": "MultiPolygon", "coordinates": [ [ [ [ 12.4321851730347, 43.592323303222798 ], [ 12.431251525878899, 43.592208862304702 ], [ 12.4297733306885, 43.592323303222798 ], [ 12.4260263442994, 43.592681884765703 ], [ 12.4256296157837, 43.592895507812599 ], [ 12.423939704895, 43.594982147216797 ], [ 12.4227657318116, 43.5963554382325 ], [ 12.4221725463868, 43.597049713134801 ], [ 12.4219408035279, 43.597320556640597 ], [ 12.421233177185201, 43.598037719726698 ], [ 12.4192724227906, 43.599159240722798 ], [ 12.418944358825801, 43.599327087402401 ], [ 12.4087677001953, 43.6030883789062 ], [ 12.417217254638601, 43.608924865722798 ], [ 12.418164253235, 43.609523773193402 ], [ 12.4220657348632, 43.610286712646499 ], [ 12.425107002258301, 43.610378265380902 ], [ 12.428198814392101, 43.609848022461101 ], [ 12.4287977218629, 43.609676361083999 ], [ 12.4292306900025, 43.609413146972699 ], [ 12.4315824508668, 43.607353210449297 ], [ 12.435604095459, 43.600734710693402 ], [ 12.435769081115801, 43.600437164306797 ], [ 12.4356679916382, 43.599933624267599 ], [ 12.434380531311101, 43.593654632568402 ], [ 12.4341373443603, 43.593246459961001 ], [ 12.4334726333619, 43.592693328857401 ], [ 12.4329500198365, 43.592472076416001 ], [ 12.4321851730347, 43.592323303222798 ] ] ], [ [ [ 12.3661088943481, 43.593101501464801 ], [ 12.3744449615478, 43.585239410400398 ], [ 12.3715009689332, 43.580661773681598 ], [ 12.3712482452393, 43.580348968505902 ], [ 12.3709726333618, 43.5800590515137 ], [ 12.3675031661988, 43.577823638916101 ], [ 12.365862846374601, 43.577098846435597 ], [ 12.3642873764038, 43.576332092285199 ], [ 12.362263679504499, 43.575145721435497 ], [ 12.3556938171387, 43.565906524658303 ], [ 12.345905303955099, 43.554576873779403 ], [ 12.345627784729, 43.554267883300803 ], [ 12.344983100891101, 43.553806304931697 ], [ 12.344328880310099, 43.553607940673899 ], [ 12.343770980835099, 43.553562164306598 ], [ 12.3430862426759, 43.553512573242202 ], [ 12.342431068420399, 43.553554534912102 ], [ 12.341802597046, 43.553623199462898 ], [ 12.338823318481399, 43.554115295410199 ], [ 12.3381366729737, 43.554233551025497 ], [ 12.337673187255801, 43.554370880127003 ], [ 12.337064743041999, 43.554538726806598 ], [ 12.3354320526122, 43.554855346679702 ], [ 12.3350057601929, 43.554916381836101 ], [ 12.3345699310303, 43.554901123047003 ], [ 12.321202278137299, 43.554237365722599 ], [ 12.320749282836999, 43.554115295410199 ], [ 12.320260047912599, 43.553768157958999 ], [ 12.3162593841553, 43.550354003906399 ], [ 12.315925598144601, 43.549892425537202 ], [ 12.315651893615801, 43.549457550048899 ], [ 12.3154897689819, 43.549121856689602 ], [ 12.3138494491578, 43.545463562011697 ], [ 12.313714981079199, 43.545154571533203 ], [ 12.3137512207031, 43.544334411621101 ], [ 12.3138618469238, 43.544055938720703 ], [ 12.3276100158691, 43.530109405517599 ], [ 12.332430839538601, 43.5257377624512 ], [ 12.332750320434601, 43.525459289550803 ], [ 12.3338680267335, 43.524654388427798 ], [ 12.3341360092163, 43.524536132812599 ], [ 12.338863372802701, 43.523471832275398 ], [ 12.346755027771, 43.522022247314602 ], [ 12.347088813781699, 43.522037506103601 ], [ 12.351077079773001, 43.522785186767699 ], [ 12.3516340255737, 43.523002624511797 ], [ 12.363267898559601, 43.530998229980497 ], [ 12.364844322204601, 43.5323677062988 ], [ 12.365187644958599, 43.533096313476598 ], [ 12.367689132690399, 43.535045623779297 ], [ 12.3858699798585, 43.524074554443402 ], [ 12.386417388916099, 43.523715972900497 ], [ 12.388305664062401, 43.522300720215 ], [ 12.3884162902831, 43.522029876709098 ], [ 12.388303756713899, 43.521720886230597 ], [ 12.3878126144409, 43.521476745605497 ], [ 12.3867635726928, 43.521282196045 ], [ 12.3863973617554, 43.521007537841903 ], [ 12.386118888855, 43.520587921142599 ], [ 12.3843488693238, 43.517665863037102 ], [ 12.384355545043899, 43.517299652099602 ], [ 12.385822296142599, 43.513721466064403 ], [ 12.386019706726101, 43.513290405273501 ], [ 12.3870105743409, 43.512420654296797 ], [ 12.387880325317401, 43.511680603027301 ], [ 12.3890466690065, 43.510734558105497 ], [ 12.389188766479601, 43.510696411132898 ], [ 12.3896436691285, 43.510570526123203 ], [ 12.3903169631959, 43.510402679443501 ], [ 12.3910398483278, 43.510265350341797 ], [ 12.3918724060059, 43.510124206543097 ], [ 12.3937282562256, 43.509899139404297 ], [ 12.395023345947299, 43.509834289550803 ], [ 12.395775794982899, 43.509796142578097 ], [ 12.4002799987793, 43.510490417480597 ], [ 12.4011602401734, 43.510726928710902 ], [ 12.4005327224732, 43.512561798095703 ], [ 12.399991989135801, 43.514171600341903 ], [ 12.403928756713899, 43.520824432373097 ], [ 12.406266212463301, 43.524135589599702 ], [ 12.407265663146999, 43.525501251220703 ], [ 12.411495208740201, 43.529407501220803 ], [ 12.418079376220801, 43.535240173339901 ], [ 12.418398857116699, 43.5355033874512 ], [ 12.418888092041099, 43.535854339599602 ], [ 12.4194488525391, 43.536140441894503 ], [ 12.4207458496093, 43.536746978759702 ], [ 12.421303749084601, 43.536991119384801 ], [ 12.4216222763063, 43.537120819091697 ], [ 12.421912193298301, 43.537220001220803 ], [ 12.4389028549194, 43.53910446167 ], [ 12.445269584655801, 43.5317993164063 ], [ 12.4583387374879, 43.518264770507898 ], [ 12.460167884826699, 43.517421722412202 ], [ 12.469001770019499, 43.518886566162202 ], [ 12.474354743957599, 43.521961212158303 ], [ 12.4785013198854, 43.5263442993163 ], [ 12.4789075851441, 43.526706695556697 ], [ 12.4814853668213, 43.528411865234503 ], [ 12.4823226928712, 43.528495788574197 ], [ 12.4836835861207, 43.528507232666101 ], [ 12.4843568801881, 43.528396606445398 ], [ 12.48499584198, 43.528190612792997 ], [ 12.5007638931275, 43.522415161132898 ], [ 12.501031875610501, 43.522224426269602 ], [ 12.5017757415771, 43.520580291747997 ], [ 12.504591941833599, 43.519321441650398 ], [ 12.5051221847534, 43.5190620422363 ], [ 12.5067367553712, 43.518009185791101 ], [ 12.511828422546399, 43.514518737792898 ], [ 12.5176858901978, 43.510116577148501 ], [ 12.518083572387701, 43.509811401367202 ], [ 12.521845817566, 43.505237579345803 ], [ 12.5221452713012, 43.504856109619297 ], [ 12.522933959961099, 43.503429412841797 ], [ 12.5230598449706, 43.503082275390597 ], [ 12.523119926452701, 43.502834320068402 ], [ 12.523084640503001, 43.5024604797363 ], [ 12.523071289062599, 43.502201080322401 ], [ 12.523116111755501, 43.500213623046797 ], [ 12.5232381820679, 43.499927520751903 ], [ 12.523409843444901, 43.499633789062599 ], [ 12.5248985290528, 43.497386932373097 ], [ 12.5251340866088, 43.497112274169901 ], [ 12.5322799682618, 43.490795135497997 ], [ 12.5387315750121, 43.485103607177699 ], [ 12.543821334838899, 43.480644226074297 ], [ 12.5500917434693, 43.475673675537202 ], [ 12.552350044250501, 43.473037719726598 ], [ 12.5556726455688, 43.469474792480597 ], [ 12.56520652771, 43.4607543945312 ], [ 12.568560600280801, 43.458168029785199 ], [ 12.578581809997599, 43.450523376464901 ], [ 12.580447196960399, 43.449302673339801 ], [ 12.585644721984799, 43.4460067749025 ], [ 12.5881509780884, 43.444839477539098 ], [ 12.5888242721559, 43.444690704345803 ], [ 12.5894174575806, 43.444664001465 ], [ 12.591123580932701, 43.444637298583999 ], [ 12.591715812683001, 43.444656372070398 ], [ 12.592246055603001, 43.444694519043097 ], [ 12.592864036560099, 43.444702148437599 ], [ 12.59343624115, 43.4446029663087 ], [ 12.603814125061101, 43.439960479736399 ], [ 12.6042938232422, 43.439712524414198 ], [ 12.6057081222535, 43.438938140869098 ], [ 12.605897903442401, 43.438808441162202 ], [ 12.609608650207599, 43.436195373535099 ], [ 12.6172761917115, 43.430660247802798 ], [ 12.620531082153301, 43.427982330322401 ], [ 12.620876312256, 43.427677154541001 ], [ 12.6232299804688, 43.425331115722699 ], [ 12.6234903335572, 43.424995422363303 ], [ 12.623653411865201, 43.424610137939403 ], [ 12.6237897872925, 43.423965454101598 ], [ 12.6238260269166, 43.423347473144503 ], [ 12.6238098144532, 43.422191619873097 ], [ 12.6237497329712, 43.421833038330099 ], [ 12.6233549118043, 43.421180725097699 ], [ 12.620348930358899, 43.417526245117202 ], [ 12.6267080307006, 43.421981811523601 ], [ 12.6372842788696, 43.431774139404297 ], [ 12.6375932693481, 43.432075500488402 ], [ 12.6378593444825, 43.432250976562599 ], [ 12.638257980346699, 43.432449340820398 ], [ 12.644132614135801, 43.434524536132898 ], [ 12.644646644592401, 43.434661865234403 ], [ 12.6641206741334, 43.437778472900398 ], [ 12.666509628296, 43.437377929687599 ], [ 12.678551673889199, 43.435207366943402 ], [ 12.679102897644, 43.435024261474702 ], [ 12.6797075271606, 43.434703826904197 ], [ 12.6803150177003, 43.434383392333999 ], [ 12.680869102478001, 43.434066772460902 ], [ 12.682416915893601, 43.432998657226598 ], [ 12.6828622817993, 43.432662963867301 ], [ 12.683287620544499, 43.432193756103601 ], [ 12.6834211349488, 43.431941986083999 ], [ 12.6835613250732, 43.431533813476698 ], [ 12.6836681365968, 43.430957794189503 ], [ 12.6837081909181, 43.430568695068402 ], [ 12.683896064758301, 43.430225372314503 ], [ 12.6844882965088, 43.429908752441499 ], [ 12.7062702178956, 43.426227569580099 ], [ 12.709800720214901, 43.425632476806697 ], [ 12.710080146789601, 43.425781250000099 ], [ 12.7103281021118, 43.426063537597699 ], [ 12.713508605956999, 43.437049865722798 ], [ 12.7152147293091, 43.442916870117202 ], [ 12.7153472900391, 43.443397521972699 ], [ 12.7157888412475, 43.445117950439503 ], [ 12.716209411621101, 43.447040557861399 ], [ 12.7234859466553, 43.453884124755902 ], [ 12.723936080932701, 43.453876495361399 ], [ 12.7242431640625, 43.453975677490199 ], [ 12.7244720458985, 43.454093933105497 ], [ 12.724846839904799, 43.454322814941499 ], [ 12.725751876831101, 43.4548950195313 ], [ 12.731808662414601, 43.461147308349702 ], [ 12.7329206466675, 43.462799072265703 ], [ 12.732889175415, 43.4630546569825 ], [ 12.7329969406129, 43.463432312011697 ], [ 12.733158111572299, 43.463714599609403 ], [ 12.733733177185099, 43.464275360107401 ], [ 12.7342023849487, 43.464599609375 ], [ 12.734494209289601, 43.464759826660099 ], [ 12.734856605529901, 43.4649467468262 ], [ 12.7355604171753, 43.465301513672003 ], [ 12.7441873550416, 43.465030670166001 ], [ 12.752215385437101, 43.464206695556797 ], [ 12.7552032470704, 43.461257934570398 ], [ 12.755800247192401, 43.460479736328203 ], [ 12.756030082702701, 43.460296630859503 ], [ 12.7564706802368, 43.460079193115199 ], [ 12.7580766677856, 43.459796905517599 ], [ 12.758599281311, 43.459705352783203 ], [ 12.7593784332275, 43.459701538086001 ], [ 12.767086982726999, 43.460483551025398 ], [ 12.7683868408204, 43.460803985595803 ], [ 12.772135734558001, 43.458286285400398 ], [ 12.774001121521, 43.456306457519602 ], [ 12.777377128601101, 43.451465606689602 ], [ 12.775159835815501, 43.450313568115298 ], [ 12.774310111999499, 43.449901580810703 ], [ 12.7727603912354, 43.449367523193501 ], [ 12.7701015472413, 43.448036193847699 ], [ 12.769275665283301, 43.4476127624513 ], [ 12.767388343811, 43.446559906005902 ], [ 12.767249107361, 43.446342468261797 ], [ 12.765726089477599, 43.4339790344238 ], [ 12.766450881958001, 43.428382873535199 ], [ 12.7664985656738, 43.428070068359503 ], [ 12.766848564147899, 43.426986694335902 ], [ 12.767144203186, 43.426673889160199 ], [ 12.7673873901368, 43.426437377929702 ], [ 12.7683601379394, 43.425491333007798 ], [ 12.769188880920501, 43.424808502197301 ], [ 12.7695789337159, 43.4246215820313 ], [ 12.7703762054443, 43.424415588378999 ], [ 12.7722826004029, 43.423984527587997 ], [ 12.775693893432599, 43.421234130859503 ], [ 12.7789878845216, 43.417633056640597 ], [ 12.7806100845337, 43.4151611328125 ], [ 12.775729179382401, 43.403396606445398 ], [ 12.7756614685059, 43.403244018554702 ], [ 12.775495529174799, 43.403022766113303 ], [ 12.7753763198853, 43.402923583984503 ], [ 12.7750101089478, 43.4027709960938 ], [ 12.7641639709472, 43.398204803466903 ], [ 12.7627868652344, 43.397716522216797 ], [ 12.762385368347299, 43.397583007812599 ], [ 12.7584190368653, 43.396640777587898 ], [ 12.747756004333599, 43.391410827636797 ], [ 12.7482051849365, 43.389720916747997 ], [ 12.750547409057701, 43.381828308105497 ], [ 12.7568349838257, 43.375972747802699 ], [ 12.7572145462037, 43.375705718994297 ], [ 12.757407188415501, 43.375545501709098 ], [ 12.7582683563234, 43.374660491943402 ], [ 12.7589626312256, 43.373836517334098 ], [ 12.7591047286988, 43.373664855957102 ], [ 12.7591981887819, 43.373485565185497 ], [ 12.759296417236399, 43.373203277587898 ], [ 12.760552406311101, 43.369228363037202 ], [ 12.7605752944947, 43.368938446044901 ], [ 12.760558128356999, 43.368743896484503 ], [ 12.760443687439, 43.368480682373203 ], [ 12.7595672607422, 43.366523742675803 ], [ 12.760285377502401, 43.365310668945398 ], [ 12.7626838684082, 43.364959716797003 ], [ 12.7635192871094, 43.364730834961001 ], [ 12.7657642364503, 43.3640747070312 ], [ 12.766228675842299, 43.3638725280762 ], [ 12.768693923950099, 43.362598419189403 ], [ 12.7688713073732, 43.362487792968899 ], [ 12.771001815796, 43.360916137695398 ], [ 12.7789039611816, 43.347602844238402 ], [ 12.78342628479, 43.342121124267599 ], [ 12.790571212768601, 43.339096069335902 ], [ 12.792037010193001, 43.338249206543097 ], [ 12.792341232299901, 43.338016510009801 ], [ 12.7926712036132, 43.337753295898402 ], [ 12.793221473694, 43.337242126464901 ], [ 12.793951034545801, 43.33650970459 ], [ 12.7940921783447, 43.336334228515703 ], [ 12.794273376464901, 43.336093902587798 ], [ 12.7949333190918, 43.335212707519602 ], [ 12.7950448989868, 43.335010528564503 ], [ 12.7997522354125, 43.325443267822301 ], [ 12.8031606674194, 43.3085327148437 ], [ 12.8033256530762, 43.307418823242202 ], [ 12.8033571243287, 43.306507110595803 ], [ 12.803368568420399, 43.305850982666101 ], [ 12.803362846374601, 43.305671691894503 ], [ 12.8031787872316, 43.303607940673899 ], [ 12.8030605316163, 43.302463531494297 ], [ 12.802095413208001, 43.2967338562012 ], [ 12.8019208908081, 43.295749664306697 ], [ 12.800671577453601, 43.292125701904403 ], [ 12.800524711609, 43.291744232177798 ], [ 12.7999839782716, 43.291355133056697 ], [ 12.7990894317628, 43.290878295898501 ], [ 12.7983493804932, 43.2905464172363 ], [ 12.797447204589799, 43.290252685546903 ], [ 12.796688079834, 43.2901000976563 ], [ 12.7959203720093, 43.289878845214801 ], [ 12.7945146560668, 43.289222717285298 ], [ 12.793486595153899, 43.288665771484503 ], [ 12.7931270599366, 43.288383483886797 ], [ 12.7926120758057, 43.287967681884901 ], [ 12.790176391601699, 43.285446166992102 ], [ 12.789946556091399, 43.285007476806598 ], [ 12.789863586425801, 43.284549713134901 ], [ 12.7899141311647, 43.284191131591903 ], [ 12.7901706695557, 43.283870697021499 ], [ 12.7909755706787, 43.283130645752003 ], [ 12.792193412780801, 43.282199859619197 ], [ 12.806954383850201, 43.271633148193402 ], [ 12.8079433441162, 43.271907806396499 ], [ 12.8082494735719, 43.2719535827638 ], [ 12.8087186813356, 43.2718925476075 ], [ 12.825690269470201, 43.267520904541101 ], [ 12.8291969299316, 43.2615356445313 ], [ 12.8295164108278, 43.257072448730497 ], [ 12.8291988372804, 43.256637573242301 ], [ 12.827663421630801, 43.25443649292 ], [ 12.827594757080099, 43.254283905029297 ], [ 12.8274374008179, 43.253856658935703 ], [ 12.8272762298585, 43.253192901611399 ], [ 12.826580047607401, 43.250247955322401 ], [ 12.8265171051025, 43.249927520752003 ], [ 12.8290729522706, 43.2362480163575 ], [ 12.8292684555053, 43.235961914062599 ], [ 12.829983711242599, 43.235221862792997 ], [ 12.830760955810501, 43.234485626220703 ], [ 12.831738471984901, 43.233699798583999 ], [ 12.832029342651399, 43.233474731445398 ], [ 12.833374023437599, 43.2323608398438 ], [ 12.8339071273804, 43.231910705566399 ], [ 12.834212303161699, 43.231616973877003 ], [ 12.834454536438001, 43.231376647949297 ], [ 12.835069656371999, 43.230712890624901 ], [ 12.835351943969799, 43.230350494384801 ], [ 12.835651397705201, 43.229942321777301 ], [ 12.838136672973601, 43.226142883300803 ], [ 12.8393507003784, 43.221405029296903 ], [ 12.83939743042, 43.221164703369197 ], [ 12.8394193649293, 43.220893859863303 ], [ 12.8394012451171, 43.220703125 ], [ 12.8387546539307, 43.219806671142599 ], [ 12.8375329971313, 43.218498229980398 ], [ 12.8440971374512, 43.214588165283097 ], [ 12.8466196060182, 43.213222503662202 ], [ 12.8490867614746, 43.212032318115298 ], [ 12.8515281677246, 43.210884094238303 ], [ 12.851996421814, 43.210865020752003 ], [ 12.8632898330688, 43.212196350097798 ], [ 12.863574028015099, 43.21199798584 ], [ 12.863655090331999, 43.211910247802798 ], [ 12.8642978668213, 43.2109375 ], [ 12.8663263320922, 43.207015991211101 ], [ 12.869180679321399, 43.196170806884801 ], [ 12.869118690490801, 43.18941116333 ], [ 12.863427162170501, 43.166923522949297 ], [ 12.854567527771099, 43.156448364257898 ], [ 12.8540821075441, 43.1559448242187 ], [ 12.853808403015099, 43.155666351318402 ], [ 12.853522300720201, 43.155410766601598 ], [ 12.8531265258788, 43.155105590820398 ], [ 12.8528280258179, 43.154876708984403 ], [ 12.852456092834499, 43.154636383056697 ], [ 12.852067947387701, 43.154403686523601 ], [ 12.851708412170501, 43.154190063476698 ], [ 12.8494892120362, 43.153247833252003 ], [ 12.84840965271, 43.152835845947301 ], [ 12.844770431518601, 43.151473999023501 ], [ 12.8414716720582, 43.150447845459098 ], [ 12.8384189605713, 43.1495170593263 ], [ 12.8346872329712, 43.148616790771499 ], [ 12.8332967758179, 43.148258209228501 ], [ 12.8327884674072, 43.148086547851698 ], [ 12.832374572753899, 43.1479263305663 ], [ 12.8322296142579, 43.147869110107401 ], [ 12.8311071395875, 43.147300720215 ], [ 12.830795288086099, 43.147068023681598 ], [ 12.830581665039199, 43.146469116210902 ], [ 12.830629348755, 43.146209716796797 ], [ 12.831806182861399, 43.142505645752003 ], [ 12.831952095031699, 43.142135620117202 ], [ 12.8414592742919, 43.126380920410099 ], [ 12.841718673706101, 43.125961303711101 ], [ 12.8422651290894, 43.125087738037202 ], [ 12.842602729797401, 43.124591827392599 ], [ 12.8432149887085, 43.1239624023438 ], [ 12.8439388275146, 43.123302459716903 ], [ 12.8441257476807, 43.123233795166001 ], [ 12.8444623947144, 43.123115539550902 ], [ 12.8448085784913, 43.123050689697301 ], [ 12.8451290130615, 43.123023986816499 ], [ 12.845437049865801, 43.123016357421903 ], [ 12.84765625, 43.123172760009901 ], [ 12.8515539169313, 43.123451232910199 ], [ 12.852263450622599, 43.12357711792 ], [ 12.852933883666999, 43.1237602233888 ], [ 12.8566646575929, 43.124965667724602 ], [ 12.858955383300801, 43.125934600830099 ], [ 12.8594627380372, 43.126171112060597 ], [ 12.8724822998047, 43.125072479248097 ], [ 12.8732099533082, 43.124992370605597 ], [ 12.874484062194901, 43.1247749328613 ], [ 12.876401901245099, 43.124404907226598 ], [ 12.876823425293001, 43.124286651611399 ], [ 12.8782396316528, 43.123844146728501 ], [ 12.879246711731, 43.123508453369197 ], [ 12.879744529724199, 43.123329162597599 ], [ 12.880830764770501, 43.122867584228501 ], [ 12.881304740905801, 43.122657775878999 ], [ 12.8817434310913, 43.122447967529403 ], [ 12.8822431564331, 43.122169494628999 ], [ 12.8826513290406, 43.121765136718899 ], [ 12.882893562316999, 43.121471405029403 ], [ 12.883113861084, 43.121170043945398 ], [ 12.883559226989799, 43.120388031005902 ], [ 12.8839015960694, 43.119701385498097 ], [ 12.8840951919556, 43.1191024780275 ], [ 12.884180068969799, 43.118785858154403 ], [ 12.884279251098601, 43.118392944335902 ], [ 12.885316848754901, 43.112171173095597 ], [ 12.885088920593301, 43.109897613525398 ], [ 12.885044097900501, 43.109794616699197 ], [ 12.8849287033081, 43.109531402587898 ], [ 12.8848514556884, 43.109260559082003 ], [ 12.8848485946656, 43.108963012695398 ], [ 12.884877204895099, 43.108581542968899 ], [ 12.8859157562256, 43.1008911132813 ], [ 12.8859605789185, 43.100601196289198 ], [ 12.8862104415893, 43.100177764892599 ], [ 12.8863639831544, 43.099971771240199 ], [ 12.8871984481813, 43.098934173583999 ], [ 12.8926906585694, 43.093917846679801 ], [ 12.8931169509887, 43.093673706054702 ], [ 12.893700599670501, 43.093479156494098 ], [ 12.893937110901, 43.093410491943402 ], [ 12.8943319320679, 43.093341827392599 ], [ 12.894677162170501, 43.093318939208999 ], [ 12.898262977600201, 43.094444274902401 ], [ 12.897209167480501, 43.090412139892699 ], [ 12.895869255066, 43.078231811523501 ], [ 12.8939914703369, 43.069587707519503 ], [ 12.893055915832599, 43.065689086914198 ], [ 12.8927640914918, 43.064544677734503 ], [ 12.892404556274499, 43.063552856445398 ], [ 12.8910131454469, 43.0604667663575 ], [ 12.8908748626709, 43.059841156005902 ], [ 12.890999794006399, 43.059070587158303 ], [ 12.8915090560913, 43.0560111999512 ], [ 12.8927097320557, 43.050025939941499 ], [ 12.8928241729737, 43.0495414733887 ], [ 12.892977714538601, 43.048995971679702 ], [ 12.8930749893188, 43.048671722412102 ], [ 12.893995285034199, 43.047264099121101 ], [ 12.894547462463301, 43.046520233154403 ], [ 12.894726753234901, 43.046298980712898 ], [ 12.894920349121101, 43.046138763427798 ], [ 12.897230148315501, 43.045303344726698 ], [ 12.8984632492065, 43.045459747314403 ], [ 12.8987398147584, 43.045265197753999 ], [ 12.899029731750399, 43.0450630187988 ], [ 12.8993959426881, 43.044754028320298 ], [ 12.9048080444337, 43.039737701416001 ], [ 12.905547142028899, 43.038978576660298 ], [ 12.9076490402222, 43.036350250244197 ], [ 12.9043064117431, 43.028175354003899 ], [ 12.898644447326699, 43.025787353515703 ], [ 12.895712852478001, 43.022148132324297 ], [ 12.8953590393068, 43.0217094421388 ], [ 12.8949241638184, 43.021163940429702 ], [ 12.893079757690501, 43.018730163574297 ], [ 12.8894786834718, 43.01318359375 ], [ 12.8892612457275, 43.012718200683601 ], [ 12.8891153335572, 43.012367248535099 ], [ 12.888990402221699, 43.012027740478501 ], [ 12.888905525207599, 43.0116386413575 ], [ 12.888880729675201, 43.011272430419901 ], [ 12.888898849487401, 43.010757446289198 ], [ 12.888945579528899, 43.010471343994197 ], [ 12.8891201019288, 43.010063171386697 ], [ 12.8893423080444, 43.009639739990298 ], [ 12.8896961212159, 43.008987426757898 ], [ 12.8899021148682, 43.008678436279403 ], [ 12.890239715576101, 43.008182525634901 ], [ 12.8948411941528, 43.001674652099702 ], [ 12.8952236175538, 43.0012435913087 ], [ 12.905559539794901, 42.989784240722798 ], [ 12.906798362731999, 42.988819122314503 ], [ 12.908246994018601, 42.987674713134801 ], [ 12.9086170196534, 42.987274169922003 ], [ 12.9088621139528, 42.986930847168097 ], [ 12.9090843200685, 42.986530303955099 ], [ 12.909166336059601, 42.986270904541101 ], [ 12.909106254577599, 42.985828399658303 ], [ 12.9068183898925, 42.980281829833999 ], [ 12.905690193176399, 42.97953414917 ], [ 12.9042501449585, 42.978595733642699 ], [ 12.903431892395, 42.978179931640597 ], [ 12.9022903442384, 42.977451324462997 ], [ 12.9019193649293, 42.977184295654297 ], [ 12.901404380798301, 42.976806640625099 ], [ 12.9011917114257, 42.9765815734863 ], [ 12.900294303894199, 42.975563049316399 ], [ 12.900071144103901, 42.975276947021499 ], [ 12.899495124816999, 42.974514007568402 ], [ 12.899253845215, 42.974086761474602 ], [ 12.899035453796399, 42.973640441894503 ], [ 12.898486137390201, 42.972137451171903 ], [ 12.8974390029907, 42.968334197998203 ], [ 12.8967609405518, 42.965549468994098 ], [ 12.897536277771099, 42.964878082275497 ], [ 12.916772842407299, 42.954605102539098 ], [ 12.941899299621699, 42.943222045898601 ], [ 12.9425582885743, 42.9430122375488 ], [ 12.9432992935181, 42.942840576172003 ], [ 12.94522190094, 42.942512512207003 ], [ 12.9465970993043, 42.942436218261797 ], [ 12.947050094604499, 42.942417144775298 ], [ 12.947701454162701, 42.942413330078203 ], [ 12.948964118957599, 42.942436218261797 ], [ 12.9502782821656, 42.930923461914098 ], [ 12.9629373550416, 42.9297103881837 ], [ 12.970250129699799, 42.929405212402301 ], [ 12.972590446472299, 42.929073333740199 ], [ 12.973477363586399, 42.928932189941499 ], [ 12.973970413208001, 42.928825378417997 ], [ 12.9743766784668, 42.928703308105497 ], [ 12.975383758545, 42.928298950195398 ], [ 12.9767513275146, 42.927719116211001 ], [ 12.976942062377899, 42.927623748779403 ], [ 12.977099418640201, 42.927547454833999 ], [ 12.977288246154901, 42.927429199218899 ], [ 12.977618217468301, 42.927059173583999 ], [ 12.9776868820191, 42.926845550537202 ], [ 12.977705001831101, 42.926647186279297 ], [ 12.9776620864869, 42.926452636718899 ], [ 12.977310180664, 42.924869537353501 ], [ 12.97669506073, 42.922321319580099 ], [ 12.9766302108765, 42.922046661377003 ], [ 12.976540565490801, 42.921787261962997 ], [ 12.976417541503899, 42.921440124511797 ], [ 12.976293563842701, 42.921096801757898 ], [ 12.975899696350201, 42.920402526855497 ], [ 12.975457191467299, 42.919731140136797 ], [ 12.971359252929799, 42.909069061279297 ], [ 12.969938278198301, 42.9042167663575 ], [ 12.969311714172401, 42.901649475097798 ], [ 12.9725637435913, 42.8924751281738 ], [ 12.974328041076699, 42.879787445068402 ], [ 12.9764137268068, 42.873367309570398 ], [ 12.977093696594199, 42.8707695007325 ], [ 12.987919807434, 42.869533538818501 ], [ 12.9895992279054, 42.870246887207003 ], [ 12.9900436401368, 42.870460510253899 ], [ 12.991016387939499, 42.871833801269602 ], [ 12.9911670684815, 42.872085571289198 ], [ 12.9939689636232, 42.880443572997997 ], [ 12.995562553405801, 42.884544372558601 ], [ 12.9957790374756, 42.885059356689503 ], [ 12.996416091918899, 42.886196136474602 ], [ 12.9965667724609, 42.886425018310597 ], [ 12.9968166351319, 42.886646270752003 ], [ 13.0013103485107, 42.889892578125 ], [ 13.000464439392101, 42.894687652587997 ], [ 12.996519088745099, 42.903446197509901 ], [ 13.001765251159799, 42.909351348877003 ], [ 13.006662368774499, 42.907192230224602 ], [ 13.006940841674901, 42.906875610351598 ], [ 13.0076990127563, 42.906147003173899 ], [ 13.0091018676759, 42.904823303222699 ], [ 13.0097818374634, 42.9042358398438 ], [ 13.0101690292359, 42.904003143310597 ], [ 13.010551452636699, 42.903923034668097 ], [ 13.011080741882401, 42.903820037841903 ], [ 13.011450767517101, 42.903766632080099 ], [ 13.0118436813356, 42.903736114502003 ], [ 13.012566566467401, 42.903713226318402 ], [ 13.025875091552701, 42.903537750244098 ], [ 13.0379438400269, 42.908412933349702 ], [ 13.0432100296022, 42.914642333984503 ], [ 13.043579101562599, 42.915351867675803 ], [ 13.0438699722291, 42.9158325195312 ], [ 13.0440826416016, 42.916061401367202 ], [ 13.0456800460815, 42.917114257812599 ], [ 13.045968055725201, 42.917289733886797 ], [ 13.0535068511963, 42.920688629150398 ], [ 13.053725242614901, 42.920753479003999 ], [ 13.0552101135253, 42.921066284179702 ], [ 13.060872077941999, 42.915935516357401 ], [ 13.063941955566399, 42.912956237792997 ], [ 13.0647506713868, 42.912147521972798 ], [ 13.0670413970947, 42.9098129272462 ], [ 13.0677499771118, 42.909088134765703 ], [ 13.068359375000099, 42.908424377441399 ], [ 13.068627357483001, 42.908088684082102 ], [ 13.068856239319, 42.907783508300902 ], [ 13.0691528320313, 42.9073295593262 ], [ 13.0693311691284, 42.907100677490298 ], [ 13.0696210861207, 42.906833648681697 ], [ 13.069909095764199, 42.906642913818402 ], [ 13.0701093673706, 42.906517028808601 ], [ 13.070396423339799, 42.906341552734403 ], [ 13.0735483169556, 42.904621124267699 ], [ 13.074806213378899, 42.903968811035298 ], [ 13.078012466430801, 42.902313232421903 ], [ 13.079797744751, 42.901405334472699 ], [ 13.081650733947701, 42.900489807128999 ], [ 13.1090002059937, 42.891265869140597 ], [ 13.109642982483001, 42.891086578369297 ], [ 13.1126899719238, 42.890396118164198 ], [ 13.113157272338899, 42.890296936035199 ], [ 13.11363697052, 42.8894233703613 ], [ 13.116181373596101, 42.884277343750099 ], [ 13.1188669204712, 42.8801078796387 ], [ 13.122827529907299, 42.874637603759801 ], [ 13.126256942749, 42.871395111083999 ], [ 13.128913879394601, 42.868927001953097 ], [ 13.1424856185913, 42.853542327880902 ], [ 13.144091606140099, 42.8502006530762 ], [ 13.1447429656982, 42.848876953125 ], [ 13.1449890136719, 42.848449707031399 ], [ 13.1452941894532, 42.848033905029297 ], [ 13.1554918289185, 42.835582733154403 ], [ 13.155754089355501, 42.835422515869098 ], [ 13.1565465927125, 42.834995269775497 ], [ 13.161787033081101, 42.8328666687012 ], [ 13.1621437072754, 42.832824707031399 ], [ 13.162609100341699, 42.832820892333999 ], [ 13.1630611419678, 42.8328666687012 ], [ 13.1635351181031, 42.832954406738303 ], [ 13.1639099121094, 42.833118438720597 ], [ 13.1708936691285, 42.834999084472699 ], [ 13.1799783706666, 42.837127685546903 ], [ 13.188130378723301, 42.8354721069337 ], [ 13.188468933105501, 42.835441589355497 ], [ 13.2127485275268, 42.842487335205099 ], [ 13.213158607483001, 42.842681884765703 ], [ 13.2318115234375, 42.854965209960902 ], [ 13.2321939468384, 42.855293273925902 ], [ 13.232501029968301, 42.855705261230597 ], [ 13.232842445373601, 42.856197357177699 ], [ 13.233036041259799, 42.856685638427798 ], [ 13.2331190109254, 42.8572006225587 ], [ 13.233907699585, 42.862590789795 ], [ 13.236183166503899, 42.868656158447301 ], [ 13.2368450164794, 42.868217468261797 ], [ 13.237045288086099, 42.868057250976598 ], [ 13.2379398345947, 42.867160797119197 ], [ 13.2391242980957, 42.865966796875099 ], [ 13.239616394043001, 42.865470886230497 ], [ 13.2406911849975, 42.864231109619098 ], [ 13.244332313537701, 42.859760284423899 ], [ 13.2444458007813, 42.859619140625099 ], [ 13.248656272888301, 42.8509330749512 ], [ 13.2488670349121, 42.850437164306797 ], [ 13.250241279601999, 42.844669342041101 ], [ 13.250593185424799, 42.843025207519602 ], [ 13.250706672668599, 42.8424682617188 ], [ 13.250713348388601, 42.841819763183601 ], [ 13.2519578933716, 42.834602355957003 ], [ 13.256218910217299, 42.8235473632812 ], [ 13.256752014160201, 42.822444915771399 ], [ 13.2575120925904, 42.821060180664098 ], [ 13.257896423339799, 42.820480346679702 ], [ 13.258261680603001, 42.820102691650497 ], [ 13.2603397369385, 42.818782806396598 ], [ 13.2614107131959, 42.818122863769602 ], [ 13.261921882629499, 42.817813873291101 ], [ 13.262376785278301, 42.817554473877003 ], [ 13.263322830200201, 42.817127227783203 ], [ 13.2635755538941, 42.816852569580199 ], [ 13.263783454895, 42.816410064697301 ], [ 13.264035224914601, 42.815731048584098 ], [ 13.2641611099244, 42.815177917480497 ], [ 13.265067100525, 42.810756683349702 ], [ 13.2650918960572, 42.810260772705099 ], [ 13.265057563781699, 42.809741973877003 ], [ 13.26491355896, 42.809223175048899 ], [ 13.260313987731999, 42.799259185791101 ], [ 13.2593145370484, 42.798656463622997 ], [ 13.2556018829347, 42.796783447265597 ], [ 13.2525939941406, 42.795043945312599 ], [ 13.251681327819799, 42.789680480957102 ], [ 13.2465019226075, 42.768745422363203 ], [ 13.2462329864503, 42.768302917480497 ], [ 13.2459154129029, 42.7678833007813 ], [ 13.242240905761699, 42.763782501220803 ], [ 13.241427421569901, 42.7632064819337 ], [ 13.2394561767579, 42.761924743652301 ], [ 13.239330291748001, 42.762172698974602 ], [ 13.2376136779785, 42.766666412353601 ], [ 13.237562179565501, 42.767211914062599 ], [ 13.2375574111938, 42.768672943115199 ], [ 13.237591743469199, 42.7695922851563 ], [ 13.237607955932599, 42.769897460937401 ], [ 13.2377080917359, 42.770248413086101 ], [ 13.2377281188966, 42.770816802978501 ], [ 13.237494468689, 42.771312713623203 ], [ 13.2366800308229, 42.772880554199297 ], [ 13.2364597320557, 42.7732963562012 ], [ 13.236269950866699, 42.7735404968262 ], [ 13.2359666824341, 42.773880004882898 ], [ 13.235497474670501, 42.7740707397462 ], [ 13.2352151870728, 42.774120330810597 ], [ 13.222454071045, 42.773700714111399 ], [ 13.221940994262701, 42.7736625671387 ], [ 13.2185258865356, 42.773006439209098 ], [ 13.218077659606999, 42.772838592529403 ], [ 13.217391967773599, 42.772457122802798 ], [ 13.204216957092299, 42.7643852233887 ], [ 13.1971349716187, 42.757869720458999 ], [ 13.1994485855103, 42.755611419677798 ], [ 13.199714660644499, 42.755279541015703 ], [ 13.199844360351699, 42.755008697509801 ], [ 13.2000942230225, 42.754428863525398 ], [ 13.2001771926881, 42.754116058349702 ], [ 13.200474739074799, 42.752632141113303 ], [ 13.200504302978599, 42.752075195312599 ], [ 13.200509071350099, 42.751907348632898 ], [ 13.200496673584, 42.751655578613303 ], [ 13.2002592086793, 42.750003814697301 ], [ 13.2001962661744, 42.7496147155762 ], [ 13.200082778930801, 42.749324798583999 ], [ 13.199884414673001, 42.748992919921903 ], [ 13.1965522766113, 42.744674682617301 ], [ 13.1962757110597, 42.744518280029403 ], [ 13.1957807540894, 42.744293212890703 ], [ 13.1946935653688, 42.743862152099602 ], [ 13.1931219100953, 42.742458343505902 ], [ 13.190590858459499, 42.740024566650497 ], [ 13.190258026123001, 42.739704132080099 ], [ 13.1899633407593, 42.739364624023601 ], [ 13.1897163391113, 42.739032745361399 ], [ 13.1894941329956, 42.738674163818501 ], [ 13.1892957687378, 42.738349914550803 ], [ 13.189190864563001, 42.738162994384801 ], [ 13.188714027404799, 42.736923217773402 ], [ 13.188627243041999, 42.736591339111399 ], [ 13.1885480880737, 42.735931396484503 ], [ 13.1885213851929, 42.735599517822401 ], [ 13.1885070800781, 42.735218048095803 ], [ 13.188493728637599, 42.734859466552798 ], [ 13.188536643981999, 42.734634399414098 ], [ 13.188627243041999, 42.734535217285199 ], [ 13.1907052993776, 42.734432220458999 ], [ 13.188689231872599, 42.728565216064602 ], [ 13.188144683838001, 42.726688385009702 ], [ 13.1879663467407, 42.725299835205199 ], [ 13.1879234313966, 42.724395751953203 ], [ 13.188058853149499, 42.723114013672003 ], [ 13.1881113052368, 42.722721099853501 ], [ 13.1885747909547, 42.721290588378899 ], [ 13.189777374267599, 42.719203948974702 ], [ 13.1909198760987, 42.716178894042997 ], [ 13.1912899017334, 42.714893341064503 ], [ 13.1915807724, 42.713718414306598 ], [ 13.191724777221699, 42.712669372558501 ], [ 13.1917266845703, 42.711883544922003 ], [ 13.1916427612306, 42.711395263671903 ], [ 13.191463470459, 42.710880279541001 ], [ 13.1909513473512, 42.7099838256837 ], [ 13.190487861633301, 42.709430694580099 ], [ 13.1901607513428, 42.709041595458999 ], [ 13.1889600753784, 42.708347320556797 ], [ 13.187370300293001, 42.707176208496101 ], [ 13.1841287612915, 42.703174591064602 ], [ 13.1780118942262, 42.695270538330099 ], [ 13.177555084228599, 42.694595336914098 ], [ 13.1763353347779, 42.692489624023402 ], [ 13.1754570007325, 42.690807342529403 ], [ 13.174593925476, 42.68900680542 ], [ 13.1742620468141, 42.688270568847699 ], [ 13.1742382049562, 42.6878051757813 ], [ 13.174506187438899, 42.687080383300902 ], [ 13.174865722656399, 42.686378479003899 ], [ 13.175383567810099, 42.685638427734403 ], [ 13.1758785247803, 42.684940338134801 ], [ 13.1764268875122, 42.684425354003999 ], [ 13.1768236160279, 42.684108734131001 ], [ 13.177606582641699, 42.68408203125 ], [ 13.178470611572299, 42.684146881103601 ], [ 13.1791772842407, 42.684211730957102 ], [ 13.1750631332397, 42.667072296142599 ], [ 13.174475669861, 42.666343688964801 ], [ 13.1712169647218, 42.663875579833999 ], [ 13.1665182113647, 42.660594940185597 ], [ 13.165633201599199, 42.660003662109503 ], [ 13.1612768173218, 42.657203674316399 ], [ 13.159417152404799, 42.655212402343899 ], [ 13.1585664749147, 42.654369354248203 ], [ 13.1579675674438, 42.653884887695398 ], [ 13.1470232009888, 42.647407531738402 ], [ 13.1464462280275, 42.6471366882325 ], [ 13.1457052230834, 42.647041320800902 ], [ 13.145145416259799, 42.647285461425803 ], [ 13.134615898132401, 42.6556205749512 ], [ 13.1314153671265, 42.6602783203125 ], [ 13.130887031555201, 42.660621643066399 ], [ 13.130003929138301, 42.660530090332102 ], [ 13.1210212707519, 42.6590385437012 ], [ 13.1191177368165, 42.658611297607401 ], [ 13.1177673339844, 42.658058166503999 ], [ 13.117115020751999, 42.657501220703203 ], [ 13.1170310974121, 42.656932830810497 ], [ 13.1174631118776, 42.655166625976598 ], [ 13.1176900863647, 42.654399871826101 ], [ 13.1180677413941, 42.6535263061525 ], [ 13.1186056137084, 42.652606964111399 ], [ 13.118711471557701, 42.651824951171797 ], [ 13.1185150146484, 42.651092529296903 ], [ 13.1104583740234, 42.643215179443402 ], [ 13.1099700927735, 42.642848968505902 ], [ 13.1060495376588, 42.640621185302798 ], [ 13.102923393249499, 42.638973236083999 ], [ 13.088861465454199, 42.635555267333999 ], [ 13.0870723724366, 42.634994506836101 ], [ 13.0795612335206, 42.632190704345803 ], [ 13.0775213241578, 42.631057739257798 ], [ 13.076958656311, 42.630737304687599 ], [ 13.0763387680054, 42.630275726318402 ], [ 13.075530052185099, 42.629638671875099 ], [ 13.0722141265869, 42.627597808837898 ], [ 13.0652494430543, 42.624530792236399 ], [ 13.064233779907299, 42.624267578125099 ], [ 13.0628862380981, 42.624061584472699 ], [ 13.061401367187599, 42.623943328857401 ], [ 13.059503555298001, 42.623802185058601 ], [ 13.0581951141357, 42.623970031738402 ], [ 13.053565979004, 42.624954223632798 ], [ 13.0520067214965, 42.625305175781399 ], [ 13.037538528442401, 42.628616333007798 ], [ 13.0366621017457, 42.628959655761697 ], [ 13.03577709198, 42.629409790039098 ], [ 13.0347127914429, 42.630321502685703 ], [ 13.034228324890099, 42.630828857422003 ], [ 13.033715248108001, 42.631755828857401 ], [ 13.0333757400513, 42.632854461669901 ], [ 13.0334911346437, 42.634021759033203 ], [ 13.0335035324097, 42.634609222412102 ], [ 13.033307075500399, 42.635200500488402 ], [ 13.031908035278301, 42.638343811035199 ], [ 13.0284566879272, 42.639957427978501 ], [ 13.0268726348878, 42.640060424804702 ], [ 13.0266876220704, 42.640071868896598 ], [ 13.026542663574199, 42.640079498291101 ], [ 13.025216102600099, 42.6399955749512 ], [ 13.024310111999499, 42.639728546142599 ], [ 13.0236101150513, 42.639110565185703 ], [ 13.020165443420501, 42.635894775390703 ], [ 13.0162477493287, 42.632881164550803 ], [ 13.015743255615201, 42.632144927978501 ], [ 13.0152082443237, 42.631343841552699 ], [ 13.0145254135132, 42.628040313720803 ], [ 13.014828681945801, 42.624843597412102 ], [ 13.015105247497599, 42.6243896484375 ], [ 13.0159559249878, 42.622566223144602 ], [ 13.015987396240201, 42.621852874755902 ], [ 13.0152711868287, 42.620956420898402 ], [ 13.012144088745201, 42.618087768554702 ], [ 13.011431694030801, 42.617855072021499 ], [ 13.010110855102701, 42.617481231689503 ], [ 13.0061607360841, 42.616439819336001 ], [ 13.0052433013916, 42.616214752197401 ], [ 12.99960231781, 42.616077423095703 ], [ 12.9867343902588, 42.616615295410199 ], [ 12.983529090881399, 42.616962432861399 ], [ 12.974731445312599, 42.617931365966903 ], [ 12.969263076782299, 42.618854522705099 ], [ 12.9681816101075, 42.619125366211001 ], [ 12.965119361877401, 42.619598388671797 ], [ 12.9636011123657, 42.619750976562599 ], [ 12.961886405944901, 42.619846343994297 ], [ 12.9543151855469, 42.620002746582003 ], [ 12.953428268432599, 42.619903564453203 ], [ 12.9530410766603, 42.619834899902301 ], [ 12.9496984481812, 42.619125366211001 ], [ 12.938378334045501, 42.616336822509801 ], [ 12.9350700378418, 42.609561920166101 ], [ 12.9347114562988, 42.6082992553712 ], [ 12.932469367981, 42.604568481445298 ], [ 12.931835174560501, 42.604057312011797 ], [ 12.9314708709716, 42.603965759277301 ], [ 12.9310493469238, 42.603862762451101 ], [ 12.9235019683838, 42.605022430419901 ], [ 12.9196367263793, 42.6064262390137 ], [ 12.906675338745099, 42.613204956054702 ], [ 12.897254943847701, 42.617408752441499 ], [ 12.8814964294434, 42.608646392822301 ], [ 12.8810176849366, 42.603332519531399 ], [ 12.8825082778932, 42.599254608154403 ], [ 12.886095046997101, 42.591964721679702 ], [ 12.886905670166099, 42.590320587158097 ], [ 12.8878774642944, 42.5886459350587 ], [ 12.8907022476197, 42.585060119628999 ], [ 12.894370079040501, 42.580390930175803 ], [ 12.8951129913331, 42.578567504882898 ], [ 12.895016670226999, 42.573459625244197 ], [ 12.894748687744199, 42.570926666259801 ], [ 12.8942394256593, 42.566890716552699 ], [ 12.893663406372101, 42.564464569091903 ], [ 12.8726453781129, 42.5620918273925 ], [ 12.8645181655884, 42.559230804443303 ], [ 12.8487558364869, 42.553775787353601 ], [ 12.847614288330099, 42.553222656249901 ], [ 12.846820831298899, 42.552509307861399 ], [ 12.8464345932006, 42.552082061767599 ], [ 12.8439378738403, 42.548919677734403 ], [ 12.8387517929078, 42.5460014343262 ], [ 12.835371017456101, 42.544120788574197 ], [ 12.8239498138428, 42.538455963134801 ], [ 12.818969726562599, 42.533901214599602 ], [ 12.813796043396099, 42.536018371582102 ], [ 12.810065269470201, 42.536758422851698 ], [ 12.809555053711, 42.536861419677798 ], [ 12.8068542480469, 42.536735534667997 ], [ 12.8060150146484, 42.536670684814602 ], [ 12.8043212890625, 42.536376953125099 ], [ 12.801964759826699, 42.5358657836913 ], [ 12.801206588745099, 42.535598754882898 ], [ 12.799055099487401, 42.535160064697401 ], [ 12.7979660034181, 42.534969329834098 ], [ 12.796592712402401, 42.534835815429702 ], [ 12.7883920669556, 42.5340385437013 ], [ 12.787428855896099, 42.534023284912202 ], [ 12.7854795455934, 42.534778594970803 ], [ 12.7741384506225, 42.532249450683601 ], [ 12.7738952636719, 42.531890869140597 ], [ 12.773359298706, 42.522201538086001 ], [ 12.7736549377443, 42.521892547607401 ], [ 12.7743606567382, 42.521083831787003 ], [ 12.7745723724365, 42.520790100097599 ], [ 12.775045394897599, 42.517139434814503 ], [ 12.774477958679199, 42.514064788818402 ], [ 12.774111747741699, 42.513973236084098 ], [ 12.7724323272706, 42.513393402099702 ], [ 12.771524429321399, 42.513271331787102 ], [ 12.7673997879029, 42.512821197509901 ], [ 12.766146659851101, 42.512809753417997 ], [ 12.758765220642101, 42.513343811035298 ], [ 12.7523746490479, 42.512355804443402 ], [ 12.746710777282701, 42.508842468261697 ], [ 12.7463006973268, 42.510070800781399 ], [ 12.728519439697299, 42.5101127624512 ], [ 12.728260040283301, 42.509902954101698 ], [ 12.724787712097299, 42.507099151611399 ], [ 12.7217512130738, 42.505180358886697 ], [ 12.720560073852599, 42.504608154296903 ], [ 12.7190446853638, 42.504093170166101 ], [ 12.712067604064901, 42.501766204834098 ], [ 12.7164154052734, 42.493076324462898 ], [ 12.717704772949199, 42.490940093994098 ], [ 12.721351623535201, 42.486476898193402 ], [ 12.725279808044499, 42.483547210693402 ], [ 12.7256326675416, 42.483348846435497 ], [ 12.7283115386963, 42.481925964355497 ], [ 12.732364654541, 42.479778289795 ], [ 12.734081268310501, 42.478858947753899 ], [ 12.7342996597291, 42.478687286377102 ], [ 12.739729881286699, 42.474357604980497 ], [ 12.7400169372559, 42.474094390869197 ], [ 12.741967201232899, 42.472263336181598 ], [ 12.7423429489137, 42.471828460693501 ], [ 12.7425031661988, 42.471508026122997 ], [ 12.7342481613159, 42.468910217285099 ], [ 12.727484703064, 42.463939666748097 ], [ 12.7256259918213, 42.46138381958 ], [ 12.7159166336059, 42.460971832275497 ], [ 12.715250015258899, 42.461326599121101 ], [ 12.7134933471681, 42.462776184082102 ], [ 12.7001371383668, 42.456817626953203 ], [ 12.6957149505616, 42.453407287597798 ], [ 12.691571235656699, 42.450366973876903 ], [ 12.680394172668599, 42.445487976074197 ], [ 12.675583839416401, 42.443389892578097 ], [ 12.6746110916138, 42.443077087402401 ], [ 12.669581413269, 42.4423217773438 ], [ 12.666907310486, 42.441944122314503 ], [ 12.6648359298707, 42.442039489746101 ], [ 12.6615428924562, 42.442333221435497 ], [ 12.6567506790162, 42.442733764648601 ], [ 12.6507787704468, 42.4440727233887 ], [ 12.650438308715801, 42.444286346435597 ], [ 12.6464853286744, 42.452865600586101 ], [ 12.6436262130737, 42.465488433837898 ], [ 12.642135620117299, 42.468544006347699 ], [ 12.642011642456101, 42.468772888183601 ], [ 12.639966964721699, 42.4693832397462 ], [ 12.636724472046, 42.469944000244297 ], [ 12.6321458816529, 42.470081329345803 ], [ 12.6259078979493, 42.470088958740298 ], [ 12.6233587265015, 42.469913482666101 ], [ 12.622791290283301, 42.469764709472699 ], [ 12.622310638427701, 42.469638824462898 ], [ 12.621906280517599, 42.469432830810497 ], [ 12.615743637085, 42.466079711914098 ], [ 12.615085601806699, 42.465488433837898 ], [ 12.614978790283301, 42.465072631836001 ], [ 12.6152811050416, 42.464847564697301 ], [ 12.6172552108765, 42.463474273681598 ], [ 12.6195287704468, 42.462451934814503 ], [ 12.619911193847701, 42.462089538574197 ], [ 12.6201829910278, 42.4583930969238 ], [ 12.6204509735107, 42.452880859375099 ], [ 12.620345115661699, 42.452186584472699 ], [ 12.6200017929078, 42.451606750488303 ], [ 12.617241859436, 42.446804046630902 ], [ 12.6128997802735, 42.437221527099602 ], [ 12.611912727356, 42.428951263427699 ], [ 12.615309715271, 42.414516448974602 ], [ 12.615278244018601, 42.414478302002003 ], [ 12.6070041656494, 42.404510498046903 ], [ 12.6019096374512, 42.402702331543097 ], [ 12.6006307601929, 42.402595520019503 ], [ 12.599826812744199, 42.402313232422003 ], [ 12.5986928939819, 42.401767730712898 ], [ 12.578040122986, 42.389797210693501 ], [ 12.5770826339722, 42.389217376708999 ], [ 12.5759582519532, 42.388534545898501 ], [ 12.5680017471313, 42.384326934814403 ], [ 12.564359664916999, 42.385147094726698 ], [ 12.549878120422401, 42.383312225341903 ], [ 12.538939476013301, 42.375690460205199 ], [ 12.5384111404419, 42.3751831054688 ], [ 12.5348920822144, 42.371417999267599 ], [ 12.534030914306699, 42.370426177978501 ], [ 12.5331239700318, 42.367916107177699 ], [ 12.5321216583253, 42.365955352783303 ], [ 12.5313320159912, 42.365615844726598 ], [ 12.529661178588899, 42.365425109863303 ], [ 12.527682304382299, 42.3656845092775 ], [ 12.5267782211304, 42.365940093994197 ], [ 12.522890090942401, 42.3671875 ], [ 12.519695281982401, 42.3685722351075 ], [ 12.518720626831, 42.369953155517599 ], [ 12.5180749893188, 42.371383666992202 ], [ 12.515531539916999, 42.378089904785298 ], [ 12.514532089233301, 42.386936187744297 ], [ 12.514128684997701, 42.394721984863203 ], [ 12.5141830444337, 42.395221710205099 ], [ 12.5143165588379, 42.395500183105497 ], [ 12.5154027938843, 42.395969390869098 ], [ 12.515765190124601, 42.396045684814503 ], [ 12.5167331695556, 42.396186828613402 ], [ 12.5174646377563, 42.396232604980597 ], [ 12.517820358276399, 42.396324157714901 ], [ 12.5191736221313, 42.398239135742202 ], [ 12.519026756286699, 42.398551940917997 ], [ 12.518964767456101, 42.398670196533203 ], [ 12.518806457519499, 42.398979187011697 ], [ 12.518726348876999, 42.3990669250488 ], [ 12.5185451507568, 42.399261474609503 ], [ 12.5141334533691, 42.403175354003899 ], [ 12.5126285552979, 42.404083251953097 ], [ 12.5100269317628, 42.404247283935597 ], [ 12.5073146820068, 42.403877258300703 ], [ 12.5028476715088, 42.403266906738402 ], [ 12.4985952377319, 42.401050567627102 ], [ 12.4956560134888, 42.399166107177798 ], [ 12.492518424987701, 42.398399353027301 ], [ 12.4912452697754, 42.398593902587997 ], [ 12.4902868270875, 42.398845672607401 ], [ 12.489906311035201, 42.3989868164063 ], [ 12.488986015319901, 42.399646759033203 ], [ 12.482295989990201, 42.405143737792997 ], [ 12.481257438659799, 42.405029296875 ], [ 12.479303359985501, 42.404624938965 ], [ 12.4764947891235, 42.403743743896598 ], [ 12.475261688232401, 42.403285980224702 ], [ 12.4745216369629, 42.402950286865298 ], [ 12.4721183776857, 42.401405334472599 ], [ 12.4712905883788, 42.400829315185597 ], [ 12.469944000244199, 42.3996200561525 ], [ 12.4675741195679, 42.3968925476075 ], [ 12.467354774475099, 42.396629333496001 ], [ 12.467261314391999, 42.396240234374901 ], [ 12.4671907424928, 42.395866394042898 ], [ 12.464221000671399, 42.398761749267699 ], [ 12.460549354553301, 42.398780822753899 ], [ 12.4573936462403, 42.397998809814602 ], [ 12.4543132781982, 42.3969116210938 ], [ 12.452368736266999, 42.397190093994197 ], [ 12.4484300613404, 42.398490905761797 ], [ 12.447029113769601, 42.399002075195398 ], [ 12.446336746215801, 42.399383544921903 ], [ 12.4456338882447, 42.399791717529297 ], [ 12.4546518325806, 42.402458190917997 ], [ 12.4550838470459, 42.402603149414098 ], [ 12.455492019653301, 42.402740478515597 ], [ 12.4571647644044, 42.4034233093262 ], [ 12.458869934082101, 42.404533386230497 ], [ 12.4591960906984, 42.404884338378899 ], [ 12.464467048645099, 42.414478302002003 ], [ 12.4682550430297, 42.421375274658203 ], [ 12.4685430526735, 42.422920227050902 ], [ 12.4681549072266, 42.4247436523438 ], [ 12.4652318954468, 42.4294052124025 ], [ 12.464536666870201, 42.430065155029403 ], [ 12.4640560150146, 42.430221557617202 ], [ 12.463493347168001, 42.430324554443402 ], [ 12.463077545166099, 42.430385589599702 ], [ 12.462516784667899, 42.430412292480497 ], [ 12.462080955505501, 42.430358886718899 ], [ 12.460777282715, 42.430152893066499 ], [ 12.4601173400878, 42.4299545288087 ], [ 12.4568996429444, 42.428939819336001 ], [ 12.4562940597534, 42.428604125976598 ], [ 12.4552402496338, 42.4279174804688 ], [ 12.454120635986399, 42.427001953125 ], [ 12.4485015869141, 42.425331115722699 ], [ 12.447222709655801, 42.425960540771499 ], [ 12.4454870224, 42.426643371582102 ], [ 12.4427242279053, 42.42724609375 ], [ 12.4422903060913, 42.427318572998097 ], [ 12.440386772155801, 42.4274101257325 ], [ 12.439934730529799, 42.427398681640597 ], [ 12.439162254333599, 42.427288055419901 ], [ 12.436994552612401, 42.426578521728601 ], [ 12.4355478286744, 42.426078796386797 ], [ 12.4354057312012, 42.426029205322301 ], [ 12.4352769851685, 42.4259872436525 ], [ 12.4321613311768, 42.424911499023402 ], [ 12.424877166748001, 42.422916412353501 ], [ 12.423205375671399, 42.422584533691399 ], [ 12.4216108322144, 42.422561645507798 ], [ 12.419935226440399, 42.422821044921903 ], [ 12.4179725646972, 42.423397064209098 ], [ 12.4145860671997, 42.426578521728601 ], [ 12.413928985595801, 42.4278793334962 ], [ 12.4144592285156, 42.428966522216797 ], [ 12.414608001709, 42.429210662841797 ], [ 12.415867805481099, 42.430046081542997 ], [ 12.416812896728599, 42.4307632446288 ], [ 12.418393135070801, 42.432376861572401 ], [ 12.4186010360719, 42.432590484619098 ], [ 12.420023918151999, 42.435276031494098 ], [ 12.420290946960399, 42.436454772949297 ], [ 12.420399665832599, 42.437446594238203 ], [ 12.420389175415201, 42.437702178955199 ], [ 12.4202213287353, 42.438884735107401 ], [ 12.420168876648001, 42.439155578613203 ], [ 12.420027732849199, 42.439807891845803 ], [ 12.419314384460399, 42.440803527832102 ], [ 12.4190950393678, 42.441108703613303 ], [ 12.418500900268601, 42.441940307617202 ], [ 12.4174547195435, 42.442619323730497 ], [ 12.4163312911988, 42.443172454833999 ], [ 12.415160179138301, 42.443355560302798 ], [ 12.4144830703735, 42.443408966064602 ], [ 12.413709640503001, 42.443763732910199 ], [ 12.413646697998001, 42.443843841552699 ], [ 12.412824630737401, 42.444862365722798 ], [ 12.412345886230399, 42.446079254150497 ], [ 12.412306785583599, 42.446731567382898 ], [ 12.4123182296753, 42.446983337402301 ], [ 12.413724899291999, 42.453880310058601 ], [ 12.4138479232788, 42.454330444336001 ], [ 12.4146127700807, 42.456146240234403 ], [ 12.415271759033301, 42.456798553466697 ], [ 12.416309356689499, 42.457740783691499 ], [ 12.418346405029199, 42.459156036376903 ], [ 12.4188346862794, 42.459434509277301 ], [ 12.4195156097413, 42.459430694580199 ], [ 12.420734405517599, 42.459007263183601 ], [ 12.422215461731, 42.458511352539098 ], [ 12.423054695129499, 42.458301544189602 ], [ 12.423789024353001, 42.458133697509702 ], [ 12.425485610961999, 42.457832336425902 ], [ 12.426592826843301, 42.457805633544901 ], [ 12.4273109436035, 42.457820892333999 ], [ 12.428153038024799, 42.457874298095803 ], [ 12.4292802810669, 42.458011627197301 ], [ 12.4302835464479, 42.458358764648501 ], [ 12.4313182830812, 42.458999633788999 ], [ 12.431256294250501, 42.4592895507813 ], [ 12.4311838150025, 42.459625244140597 ], [ 12.428428649902299, 42.466331481933601 ], [ 12.4244537353516, 42.467090606689602 ], [ 12.423475265503001, 42.467231750488303 ], [ 12.422287940978901, 42.467288970947202 ], [ 12.4203701019287, 42.4673843383788 ], [ 12.416049957275501, 42.467800140380902 ], [ 12.415154457092299, 42.467895507812599 ], [ 12.4145498275757, 42.467960357666101 ], [ 12.414140701293899, 42.468048095703203 ], [ 12.413782119751, 42.468158721923899 ], [ 12.4133768081665, 42.468540191650398 ], [ 12.413330078125, 42.469223022461001 ], [ 12.413311958313001, 42.469493865966903 ], [ 12.4134950637818, 42.478816986083999 ], [ 12.4135150909425, 42.479190826416101 ], [ 12.4137887954712, 42.4797554016113 ], [ 12.419137001037701, 42.482486724853601 ], [ 12.4204597473144, 42.482879638671903 ], [ 12.4221038818359, 42.483318328857401 ], [ 12.422586441040099, 42.483455657959098 ], [ 12.424176216125501, 42.484237670898402 ], [ 12.425428390503001, 42.484874725341797 ], [ 12.427277565002401, 42.486404418945398 ], [ 12.428340911865201, 42.487361907958999 ], [ 12.428760528564499, 42.487918853759801 ], [ 12.422327041626, 42.493503570556697 ], [ 12.411026954650801, 42.497329711913999 ], [ 12.406208038330099, 42.498725891113303 ], [ 12.405811309814499, 42.498821258544901 ], [ 12.395854949951101, 42.500289916992202 ], [ 12.395341873169, 42.500274658203203 ], [ 12.3927822113038, 42.4997367858887 ], [ 12.3911046981813, 42.4991683959962 ], [ 12.3872728347779, 42.495941162109503 ], [ 12.3850011825563, 42.490047454833999 ], [ 12.3758592605591, 42.482650756835902 ], [ 12.3751106262207, 42.482105255127003 ], [ 12.362685203552401, 42.477416992187599 ], [ 12.361609458923301, 42.477081298828203 ], [ 12.353573799133301, 42.474971771240199 ], [ 12.352352142333901, 42.474678039550803 ], [ 12.3521633148194, 42.474632263183501 ], [ 12.349912643432701, 42.47709274292 ], [ 12.3489627838135, 42.4783325195313 ], [ 12.348148345947401, 42.479610443115298 ], [ 12.3473291397094, 42.4814643859863 ], [ 12.3361148834229, 42.491096496582003 ], [ 12.3316049575806, 42.493362426757798 ], [ 12.330430984497101, 42.493946075439602 ], [ 12.3267946243287, 42.495571136474602 ], [ 12.3263053894044, 42.495735168457102 ], [ 12.325860023498601, 42.495857238769503 ], [ 12.3254098892212, 42.495845794677798 ], [ 12.325116157531699, 42.495822906494197 ], [ 12.3248453140259, 42.495769500732401 ], [ 12.3243322372437, 42.495510101318501 ], [ 12.323933601379499, 42.494903564453097 ], [ 12.3232936859131, 42.494091033935597 ], [ 12.3214559555054, 42.492271423339901 ], [ 12.317380905151399, 42.489356994628899 ], [ 12.3167743682862, 42.489151000976598 ], [ 12.3160696029663, 42.488979339599702 ], [ 12.315089225769199, 42.488861083984403 ], [ 12.3137006759644, 42.4888305664063 ], [ 12.306277275085501, 42.488891601562599 ], [ 12.300805091857899, 42.488487243652401 ], [ 12.3005018234253, 42.488510131836101 ], [ 12.298551559448301, 42.488880157470703 ], [ 12.296790122985801, 42.489387512207003 ], [ 12.2947797775269, 42.49027633667 ], [ 12.294441223144601, 42.490474700927798 ], [ 12.294036865234499, 42.490707397460902 ], [ 12.2924289703369, 42.491714477539098 ], [ 12.2913494110109, 42.492618560791101 ], [ 12.2905368804932, 42.493709564208999 ], [ 12.290495872497599, 42.493907928466903 ], [ 12.290460586548001, 42.494083404541101 ], [ 12.290178298950201, 42.495491027832003 ], [ 12.2904453277588, 42.495689392089901 ], [ 12.2931871414185, 42.495758056640703 ], [ 12.293830871582101, 42.495735168457102 ], [ 12.2978401184082, 42.4955863952637 ], [ 12.3005571365356, 42.494571685791001 ], [ 12.3039207458496, 42.492298126220703 ], [ 12.308291435241699, 42.498279571533303 ], [ 12.3080701828004, 42.499042510986399 ], [ 12.307764053344799, 42.499374389648601 ], [ 12.307574272155801, 42.4994125366212 ], [ 12.3063697814943, 42.499645233154403 ], [ 12.3055171966553, 42.499847412109403 ], [ 12.3043880462646, 42.500511169433601 ], [ 12.301450729370201, 42.504581451416101 ], [ 12.2988996505738, 42.505504608154297 ], [ 12.2918348312379, 42.511207580566499 ], [ 12.291287422180201, 42.511585235595703 ], [ 12.290719032287599, 42.5115776062012 ], [ 12.289157867431699, 42.511192321777401 ], [ 12.286487579345801, 42.510055541992301 ], [ 12.285728454589799, 42.509510040283203 ], [ 12.2838048934937, 42.508594512939503 ], [ 12.2801666259765, 42.507480621337997 ], [ 12.280071258544901, 42.5074882507325 ], [ 12.2796726226807, 42.507522583007898 ], [ 12.2791261672975, 42.507820129394503 ], [ 12.279063224792599, 42.507858276367202 ], [ 12.278943061828601, 42.507923126220597 ], [ 12.275938034057599, 42.5099296569825 ], [ 12.2757053375244, 42.510181427002102 ], [ 12.275565147399799, 42.510490417480398 ], [ 12.275512695312599, 42.510807037353501 ], [ 12.2754373550415, 42.511276245117202 ], [ 12.2753582000732, 42.513217926025497 ], [ 12.2764444351196, 42.516975402832003 ], [ 12.277091026306101, 42.517097473144602 ], [ 12.284441947936999, 42.518512725830099 ], [ 12.286078453064, 42.518821716308601 ], [ 12.288130760193001, 42.519214630127003 ], [ 12.291207313537701, 42.520023345947301 ], [ 12.289418220520099, 42.522270202636797 ], [ 12.289299964904901, 42.522411346435497 ], [ 12.289195060729901, 42.52250289917 ], [ 12.2887306213379, 42.522903442382798 ], [ 12.288522720336999, 42.522956848144503 ], [ 12.287936210632299, 42.523094177246101 ], [ 12.2788705825806, 42.524349212646499 ], [ 12.2775697708131, 42.524391174316499 ], [ 12.276085853576699, 42.524654388427798 ], [ 12.275390624999901, 42.524856567382798 ], [ 12.271477699279799, 42.528297424316399 ], [ 12.2699508666993, 42.530448913574297 ], [ 12.2681102752685, 42.533596038818402 ], [ 12.267698287964, 42.5344467163087 ], [ 12.2674646377563, 42.535224914550803 ], [ 12.2673015594484, 42.535861968994197 ], [ 12.2671747207643, 42.536670684814602 ], [ 12.2671213150025, 42.537063598632798 ], [ 12.267139434814499, 42.537220001220803 ], [ 12.267554283141999, 42.537506103515703 ], [ 12.2746381759644, 42.537532806396499 ], [ 12.2743749618531, 42.539276123047003 ], [ 12.2741022109985, 42.541084289550803 ], [ 12.27405834198, 42.541370391845803 ], [ 12.278523445129499, 42.5426025390625 ], [ 12.279494285583599, 42.542533874511697 ], [ 12.280008316040201, 42.550502777099602 ], [ 12.2797527313232, 42.551864624023601 ], [ 12.2790021896363, 42.554149627685597 ], [ 12.2768659591675, 42.5592231750488 ], [ 12.2767944335938, 42.559394836425803 ], [ 12.276073455810501, 42.560737609863303 ], [ 12.275983810424799, 42.560890197753899 ], [ 12.273510932922401, 42.561359405517599 ], [ 12.2721662521363, 42.561298370361399 ], [ 12.2708301544191, 42.561107635498203 ], [ 12.267346382141101, 42.560409545898601 ], [ 12.262758255004901, 42.560966491699297 ], [ 12.243146896362299, 42.570468902587997 ], [ 12.2405233383179, 42.5719413757325 ], [ 12.2398471832275, 42.572700500488303 ], [ 12.239662170410201, 42.572982788086001 ], [ 12.2395992279053, 42.573154449462798 ], [ 12.239555358886699, 42.573478698730497 ], [ 12.239600181579601, 42.573936462402401 ], [ 12.238868713379, 42.580394744872997 ], [ 12.2367963790894, 42.584289550781399 ], [ 12.241009712219199, 42.588855743408203 ], [ 12.2412986755372, 42.5892753601075 ], [ 12.2416801452638, 42.590042114257798 ], [ 12.2433500289918, 42.593791961669901 ], [ 12.2407836914063, 42.595752716064503 ], [ 12.2408657073975, 42.596019744873203 ], [ 12.241504669189601, 42.597972869872997 ], [ 12.2417421340944, 42.598312377929702 ], [ 12.2431907653809, 42.598758697509801 ], [ 12.2439231872559, 42.598976135253999 ], [ 12.244462966919, 42.598915100097699 ], [ 12.2484979629518, 42.597671508789098 ], [ 12.2468910217285, 42.600925445556697 ], [ 12.2400026321412, 42.607936859130902 ], [ 12.239657402038601, 42.60795211792 ], [ 12.237779617309601, 42.608306884765703 ], [ 12.2342538833618, 42.609130859375 ], [ 12.232654571533301, 42.609840393066499 ], [ 12.2322540283204, 42.610042572021499 ], [ 12.2320404052735, 42.610187530517599 ], [ 12.2307939529419, 42.611244201660199 ], [ 12.2300777435303, 42.612071990966797 ], [ 12.231195449829, 42.614349365234403 ], [ 12.2314605712891, 42.6147651672363 ], [ 12.2369441986085, 42.622371673583999 ], [ 12.2375955581666, 42.622936248779197 ], [ 12.238261222839499, 42.623287200927798 ], [ 12.239653587341399, 42.623809814453097 ], [ 12.2399311065675, 42.623882293701101 ], [ 12.2405805587769, 42.624061584472699 ], [ 12.2442827224731, 42.629070281982401 ], [ 12.2265949249269, 42.636524200439503 ], [ 12.227755546569901, 42.637477874755902 ], [ 12.228860855102701, 42.638580322265703 ], [ 12.228960037231399, 42.639083862304702 ], [ 12.227862358093301, 42.644454956054702 ], [ 12.2230129241944, 42.647590637207102 ], [ 12.209877014160201, 42.657169342041101 ], [ 12.2052793502807, 42.661434173584098 ], [ 12.1986074447632, 42.664661407470803 ], [ 12.177166938781699, 42.673633575439602 ], [ 12.174243927001999, 42.674774169921903 ], [ 12.165946960449199, 42.6777572631837 ], [ 12.1635551452637, 42.677982330322301 ], [ 12.162911415100099, 42.677974700927798 ], [ 12.1619567871094, 42.677883148193402 ], [ 12.1554250717163, 42.6723022460938 ], [ 12.149971008300801, 42.666347503662202 ], [ 12.1502590179443, 42.665309906005902 ], [ 12.150432586669901, 42.664413452148402 ], [ 12.1504936218262, 42.663452148437599 ], [ 12.149809837341399, 42.662246704101598 ], [ 12.149651527404799, 42.6619873046875 ], [ 12.148807525634901, 42.6610107421875 ], [ 12.1479797363281, 42.660312652587798 ], [ 12.1417198181153, 42.657283782958999 ], [ 12.1394710540772, 42.658798217773501 ], [ 12.1332721710206, 42.662647247314503 ], [ 12.131306648254499, 42.661418914795 ], [ 12.129936218261699, 42.659660339355497 ], [ 12.1280021667482, 42.657131195068402 ], [ 12.1271286010743, 42.655776977539198 ], [ 12.1269721984863, 42.654857635498097 ], [ 12.126747131347701, 42.653533935547003 ], [ 12.126713752746699, 42.6519165039063 ], [ 12.126651763916099, 42.651420593261797 ], [ 12.126490592956699, 42.651126861572401 ], [ 12.1262922286988, 42.650829315185497 ], [ 12.125719070434499, 42.6505737304688 ], [ 12.125281333923301, 42.650375366211001 ], [ 12.125007629394601, 42.650268554687599 ], [ 12.1204891204834, 42.650802612304702 ], [ 12.1187963485718, 42.6515312194825 ], [ 12.118144989013601, 42.651954650878999 ], [ 12.110899925231999, 42.659683227539098 ], [ 12.109357833862401, 42.6613578796387 ], [ 12.1090621948243, 42.6617851257325 ], [ 12.1083621978759, 42.663631439208999 ], [ 12.107760429382401, 42.665218353271598 ], [ 12.107608795166099, 42.665618896484403 ], [ 12.103665351867599, 42.663890838623203 ], [ 12.1024017333984, 42.663101196289098 ], [ 12.0988588333131, 42.660194396972798 ], [ 12.0981349945069, 42.659114837646598 ], [ 12.0978298187256, 42.658615112304702 ], [ 12.0975818634034, 42.65828704834 ], [ 12.095455169677701, 42.656467437744297 ], [ 12.0932731628419, 42.656467437744297 ], [ 12.0802774429322, 42.656497955322202 ], [ 12.0797691345216, 42.656589508056697 ], [ 12.0746622085572, 42.657649993896399 ], [ 12.0706148147584, 42.655117034912202 ], [ 12.067168235778899, 42.653396606445298 ], [ 12.0662498474121, 42.6531791687012 ], [ 12.049056053161699, 42.650424957275398 ], [ 12.030946731567401, 42.644214630127003 ], [ 12.0308856964112, 42.650699615478601 ], [ 12.030880928039601, 42.651271820068402 ], [ 12.030738830566399, 42.651397705078203 ], [ 12.0080299377443, 42.6634330749512 ], [ 11.996520996093899, 42.668617248535099 ], [ 11.9896707534791, 42.6716918945312 ], [ 11.9789285659791, 42.676506042480497 ], [ 11.9735116958618, 42.6777954101562 ], [ 11.9694690704347, 42.678482055664198 ], [ 11.9608840942382, 42.680145263671903 ], [ 11.9530353546143, 42.681667327881001 ], [ 11.944889068603599, 42.683593750000099 ], [ 11.942287445068301, 42.684280395507798 ], [ 11.942151069641101, 42.684448242187401 ], [ 11.9420003890991, 42.684658050537202 ], [ 11.942010879516699, 42.684886932373203 ], [ 11.942020416259799, 42.685062408447401 ], [ 11.9424028396607, 42.686157226562401 ], [ 11.946598052978599, 42.692428588867301 ], [ 11.9481105804443, 42.693763732910298 ], [ 11.948280334472599, 42.693962097168097 ], [ 11.948733329772899, 42.694496154785298 ], [ 11.949667930603001, 42.696521759033303 ], [ 11.949707031250099, 42.696910858154403 ], [ 11.9497137069703, 42.696987152099602 ], [ 11.9450426101685, 42.698646545410199 ], [ 11.943996429443301, 42.698963165283303 ], [ 11.942046165466399, 42.699542999267599 ], [ 11.9398756027222, 42.700141906738303 ], [ 11.939419746399, 42.700176239013601 ], [ 11.938708305358899, 42.700233459472798 ], [ 11.9363298416138, 42.700531005859403 ], [ 11.933490753173899, 42.701423645019503 ], [ 11.927494049072299, 42.704551696777401 ], [ 11.927218437194799, 42.704784393310497 ], [ 11.927152633666999, 42.704837799072301 ], [ 11.9270639419556, 42.705280303955199 ], [ 11.9272441864015, 42.705718994140703 ], [ 11.932031631469799, 42.712947845459098 ], [ 11.9443788528444, 42.719989776611399 ], [ 11.944501876831101, 42.720184326171903 ], [ 11.9447221755982, 42.720733642578097 ], [ 11.946312904358001, 42.725002288818402 ], [ 11.946540832519601, 42.725563049316499 ], [ 11.948341369628899, 42.727184295654403 ], [ 11.950097084045399, 42.728378295898402 ], [ 11.9603433609009, 42.730457305908303 ], [ 11.9696760177613, 42.735553741455099 ], [ 11.970900535583599, 42.739700317382898 ], [ 11.9802160263062, 42.7528266906738 ], [ 11.982430458069, 42.753822326660298 ], [ 11.982821464538601, 42.754558563232401 ], [ 11.982938766479601, 42.754978179931598 ], [ 11.982894897461, 42.755821228027301 ], [ 11.980431556701699, 42.765560150146598 ], [ 11.9779567718507, 42.765922546386697 ], [ 11.9673881530762, 42.767761230468899 ], [ 11.9663438796997, 42.768112182617202 ], [ 11.9647836685181, 42.768993377685703 ], [ 11.963433265686, 42.769908905029403 ], [ 11.962042808532701, 42.7714653015138 ], [ 11.943133354187101, 42.776931762695398 ], [ 11.9322595596315, 42.779415130615298 ], [ 11.9307985305787, 42.780082702636797 ], [ 11.929471969604499, 42.780975341796903 ], [ 11.9283771514893, 42.781890869140703 ], [ 11.9256134033203, 42.785572052002102 ], [ 11.921313285827599, 42.795497894287202 ], [ 11.913953781127899, 42.811519622802798 ], [ 11.911548614502101, 42.814010620117202 ], [ 11.911012649536101, 42.814586639404403 ], [ 11.9093742370606, 42.816741943359403 ], [ 11.909301757812599, 42.8168754577638 ], [ 11.909126281738301, 42.817203521728601 ], [ 11.908873558044499, 42.817821502685703 ], [ 11.9058790206909, 42.828868865966903 ], [ 11.9027824401857, 42.8325424194337 ], [ 11.8959140777588, 42.835647583007898 ], [ 11.8938865661621, 42.840705871582003 ], [ 11.8928470611572, 42.843856811523501 ], [ 11.893149375915501, 42.844089508056697 ], [ 11.893323898315399, 42.8442192077637 ], [ 11.893928527831999, 42.844680786132798 ], [ 11.894250869751, 42.844879150390597 ], [ 11.9057216644287, 42.848941802978601 ], [ 11.910498619079499, 42.8501167297363 ], [ 11.911459922790501, 42.8502197265625 ], [ 11.912365913391101, 42.850502014160199 ], [ 11.91273021698, 42.850624084472599 ], [ 11.914161682128899, 42.851524353027301 ], [ 11.9150733947754, 42.852237701416001 ], [ 11.9217138290406, 42.858184814453203 ], [ 11.923409461975201, 42.860889434814503 ], [ 11.9237089157106, 42.861518859863303 ], [ 11.924156188964901, 42.862659454345803 ], [ 11.9249610900879, 42.864429473877003 ], [ 11.9263172149659, 42.867202758789098 ], [ 11.926969528198301, 42.8681640625 ], [ 11.9299659729004, 42.870258331298899 ], [ 11.9314622879028, 42.870689392089901 ], [ 11.932518005371101, 42.8707695007325 ], [ 11.9342489242554, 42.870319366455 ], [ 11.934692382812599, 42.870689392089901 ], [ 11.937702178955, 42.871402740478601 ], [ 11.9438991546631, 42.872753143310703 ], [ 11.945004463195801, 42.872756958007798 ], [ 11.947257995605501, 42.871791839599702 ], [ 11.9506988525391, 42.870857238769503 ], [ 11.951910972595201, 42.870819091796903 ], [ 11.9582929611206, 42.871070861816499 ], [ 11.959611892700201, 42.872035980224602 ], [ 11.959547042846699, 42.875301361083999 ], [ 11.9599914550781, 42.882701873779403 ], [ 11.959771156311, 42.892623901367202 ], [ 11.9575634002687, 42.895149230957102 ], [ 11.953027725219799, 42.901954650878999 ], [ 11.951108932495099, 42.902561187744098 ], [ 11.9421730041504, 42.903900146484403 ], [ 11.940339088439901, 42.903964996337898 ], [ 11.9387369155885, 42.904102325439503 ], [ 11.9376764297485, 42.904434204101598 ], [ 11.9365539550782, 42.904972076416101 ], [ 11.934446334838899, 42.9063911437988 ], [ 11.933808326721101, 42.908588409423899 ], [ 11.933669090271099, 42.909465789794901 ], [ 11.939502716064499, 42.929153442382798 ], [ 11.9435129165651, 42.939250946045 ], [ 11.944660186767599, 42.939907073974702 ], [ 11.9523725509643, 42.949050903320298 ], [ 11.9526176452637, 42.949371337890597 ], [ 11.953036308288601, 42.950668334961101 ], [ 11.9535064697266, 42.955513000488303 ], [ 11.951376914978001, 42.973499298095597 ], [ 11.9508991241456, 42.976112365722699 ], [ 11.950469017028899, 42.977500915527401 ], [ 11.9547233581543, 42.979412078857401 ], [ 11.955242156982401, 42.9797172546387 ], [ 11.955415725708001, 42.980094909667997 ], [ 11.955595970153899, 42.980484008789098 ], [ 11.957015991211099, 42.983737945556697 ], [ 11.9603700637819, 42.992362976074297 ], [ 11.9606218338012, 42.993152618408097 ], [ 11.961573600769, 42.996391296386797 ], [ 11.9617156982422, 42.998279571533303 ], [ 11.962992668151999, 43.002155303955099 ], [ 11.965045928955099, 43.0074272155763 ], [ 11.9675064086915, 43.013149261474702 ], [ 11.9691467285156, 43.016471862793097 ], [ 11.970317840576101, 43.018180847168097 ], [ 11.970897674560501, 43.019058227539098 ], [ 11.971069335937599, 43.019348144531399 ], [ 11.971419334411699, 43.019947052002003 ], [ 11.9719696044922, 43.020969390869297 ], [ 11.9723157882691, 43.021640777587898 ], [ 11.9729061126709, 43.022926330566499 ], [ 11.9728851318359, 43.023269653320398 ], [ 11.9726867675782, 43.023796081542997 ], [ 11.972460746765099, 43.024116516113402 ], [ 11.9722614288331, 43.024570465087997 ], [ 11.972120285034199, 43.024955749511697 ], [ 11.9721012115479, 43.025325775146598 ], [ 11.9721460342407, 43.025772094726598 ], [ 11.973334312439, 43.036308288574297 ], [ 11.9743719100953, 43.038692474365298 ], [ 11.9746437072754, 43.039264678955199 ], [ 11.9763355255128, 43.042266845703097 ], [ 11.976597785949799, 43.042686462402301 ], [ 11.9769306182862, 43.043140411377003 ], [ 11.977063179016101, 43.043281555175803 ], [ 11.977298736572299, 43.043533325195398 ], [ 11.9774808883668, 43.043701171875099 ], [ 11.977749824524, 43.043945312500099 ], [ 11.9786186218262, 43.04451751709 ], [ 11.9792737960815, 43.044795989990298 ], [ 11.9799518585206, 43.045097351074297 ], [ 11.980450630187899, 43.0453300476075 ], [ 11.980862617492701, 43.045604705810497 ], [ 11.9810781478881, 43.045875549316499 ], [ 11.9815530776978, 43.046474456787202 ], [ 11.9817628860475, 43.046745300292997 ], [ 11.9819841384887, 43.047134399414098 ], [ 11.9823055267335, 43.047824859619197 ], [ 11.9831638336182, 43.049846649169901 ], [ 11.9833631515503, 43.050933837890703 ], [ 11.983380317688001, 43.051528930664098 ], [ 11.983349800109901, 43.051918029785199 ], [ 11.983224868774499, 43.052383422851598 ], [ 11.981768608093301, 43.057338714599702 ], [ 11.9815492630006, 43.057785034179702 ], [ 11.981318473816, 43.0580863952637 ], [ 11.9796638488769, 43.059940338134801 ], [ 11.979266166686999, 43.060337066650398 ], [ 11.9787607192994, 43.060821533203097 ], [ 11.977124214172401, 43.062267303466903 ], [ 11.9746389389038, 43.064205169677798 ], [ 11.9740686416625, 43.064605712890597 ], [ 11.9734859466553, 43.06498336792 ], [ 11.9678344726563, 43.067199707031399 ], [ 11.966326713561999, 43.067787170410298 ], [ 11.9654560089112, 43.068069458007798 ], [ 11.9638576507569, 43.068519592285199 ], [ 11.9632272720337, 43.068687438964901 ], [ 11.9624595642091, 43.068843841552798 ], [ 11.958087921142701, 43.069587707519503 ], [ 11.957537651061999, 43.069644927978501 ], [ 11.956976890564, 43.069469451904297 ], [ 11.9565477371216, 43.069328308105597 ], [ 11.953030586242701, 43.067146301269602 ], [ 11.9524450302125, 43.066688537597699 ], [ 11.952161788940501, 43.06640625 ], [ 11.951951980590801, 43.066173553466903 ], [ 11.9513254165651, 43.065376281738303 ], [ 11.950963020324799, 43.064651489257898 ], [ 11.9511251449584, 43.063968658447301 ], [ 11.951398849487401, 43.063034057617301 ], [ 11.951754570007401, 43.062015533447301 ], [ 11.952197074890099, 43.061237335205 ], [ 11.9520864486694, 43.060848236084098 ], [ 11.949653625488301, 43.057216644287202 ], [ 11.9490261077881, 43.056564331054602 ], [ 11.948052406311101, 43.056110382080099 ], [ 11.946316719055099, 43.055309295654403 ], [ 11.944451332092401, 43.054485321045 ], [ 11.9440870285035, 43.054355621337997 ], [ 11.9434509277344, 43.054176330566499 ], [ 11.942985534668001, 43.054092407226499 ], [ 11.941779136657701, 43.053951263427798 ], [ 11.9410200119019, 43.054252624511797 ], [ 11.9373273849487, 43.056606292724702 ], [ 11.9370279312135, 43.056896209716797 ], [ 11.9369144439697, 43.057174682617202 ], [ 11.936779975891101, 43.058174133300803 ], [ 11.936766624450801, 43.058540344238303 ], [ 11.936710357666099, 43.058872222900398 ], [ 11.9365463256837, 43.059543609619098 ], [ 11.9362449645996, 43.060695648193402 ], [ 11.935721397399901, 43.062328338623203 ], [ 11.933386802673301, 43.067993164062599 ], [ 11.933051109314, 43.068653106689602 ], [ 11.9268026351929, 43.075668334960902 ], [ 11.9248161315919, 43.0767631530762 ], [ 11.923455238342299, 43.082477569580099 ], [ 11.9238996505738, 43.083438873291101 ], [ 11.9243936538697, 43.084098815917997 ], [ 11.9246158599854, 43.084358215332102 ], [ 11.925097465515099, 43.084884643554702 ], [ 11.926491737365801, 43.086051940917997 ], [ 11.9272136688234, 43.086559295654403 ], [ 11.9290065765381, 43.087722778320298 ], [ 11.931013107299901, 43.089042663574197 ], [ 11.931529045105099, 43.089885711669901 ], [ 11.9317846298218, 43.090454101562599 ], [ 11.9319620132446, 43.090877532958999 ], [ 11.932014465332101, 43.091156005859403 ], [ 11.932142257690501, 43.091831207275398 ], [ 11.9320125579835, 43.092601776123097 ], [ 11.931851387023899, 43.093456268310703 ], [ 11.9316320419313, 43.094448089599602 ], [ 11.931314468383899, 43.095352172851598 ], [ 11.922038078308001, 43.117805480957003 ], [ 11.9163770675659, 43.126640319824297 ], [ 11.9249868392944, 43.148746490478601 ], [ 11.9259386062622, 43.150222778320298 ], [ 11.926669120788601, 43.150928497314503 ], [ 11.9277124404907, 43.151897430419901 ], [ 11.928721427917401, 43.152805328369098 ], [ 11.9289808273316, 43.1530151367188 ], [ 11.9297027587891, 43.153591156005902 ], [ 11.9347124099731, 43.156444549560497 ], [ 11.948778152465801, 43.1633110046387 ], [ 11.962201118469199, 43.167873382568402 ], [ 11.962594032287701, 43.167892456054702 ], [ 11.963153839111399, 43.167926788330099 ], [ 11.965690612793001, 43.168338775634801 ], [ 11.971117973327599, 43.170139312744297 ], [ 11.9720258712769, 43.170562744140703 ], [ 11.973217010498001, 43.171321868896499 ], [ 11.9741163253784, 43.1718978881837 ], [ 11.9748964309694, 43.172943115234403 ], [ 11.975125312805201, 43.173355102539098 ], [ 11.975254058838001, 43.173625946044901 ], [ 11.9756517410279, 43.174312591552798 ], [ 11.976088523864901, 43.174781799316499 ], [ 11.9763450622559, 43.175018310546797 ], [ 11.9768333435059, 43.175445556640597 ], [ 11.9775896072387, 43.176078796386797 ], [ 11.989748954772899, 43.182575225830099 ], [ 11.990460395813001, 43.182544708251903 ], [ 11.993444442749, 43.1816635131837 ], [ 11.9941158294678, 43.181331634521499 ], [ 11.994957923889199, 43.181182861328097 ], [ 11.9969329833984, 43.181030273437599 ], [ 12.0028190612794, 43.181114196777301 ], [ 12.004544258117701, 43.181167602539098 ], [ 12.0059041976929, 43.181301116943402 ], [ 12.0073890686035, 43.181491851806697 ], [ 12.0113182067871, 43.182628631591903 ], [ 12.0197305679322, 43.185050964355497 ], [ 12.0198059082031, 43.185108184814503 ], [ 12.0206241607665, 43.186054229736399 ], [ 12.020721435546999, 43.186164855957102 ], [ 12.025027275085399, 43.189125061035099 ], [ 12.028185844421399, 43.192207336425803 ], [ 12.0284471511841, 43.192581176757798 ], [ 12.030000686645501, 43.197578430175803 ], [ 12.029597282409799, 43.198684692382798 ], [ 12.0293312072754, 43.199275970459098 ], [ 12.0309257507325, 43.205280303955099 ], [ 12.0372314453125, 43.216846466064602 ], [ 12.0406093597412, 43.229957580566399 ], [ 12.037981986999601, 43.23876953125 ], [ 12.0369205474854, 43.240161895752003 ], [ 12.0367641448975, 43.240432739257798 ], [ 12.0366296768188, 43.240737915039098 ], [ 12.0363426208496, 43.241390228271499 ], [ 12.036187171936101, 43.241748809814503 ], [ 12.034549713134901, 43.247360229492202 ], [ 12.034917831421, 43.247665405273601 ], [ 12.0449447631837, 43.251983642578203 ], [ 12.049853324890099, 43.254070281982401 ], [ 12.0550088882447, 43.251987457275398 ], [ 12.068195343017599, 43.2461128234863 ], [ 12.083924293518001, 43.238567352295 ], [ 12.084314346313599, 43.23823928833 ], [ 12.0853128433228, 43.237789154052798 ], [ 12.0858793258666, 43.237541198730597 ], [ 12.0862541198732, 43.237403869628899 ], [ 12.086876869201699, 43.237297058105497 ], [ 12.0924673080444, 43.2367973327637 ], [ 12.0933198928834, 43.236873626709098 ], [ 12.0939598083496, 43.237106323242202 ], [ 12.0947008132934, 43.237392425537202 ], [ 12.0955972671509, 43.237808227539098 ], [ 12.095787048339799, 43.238174438476598 ], [ 12.099002838134799, 43.241340637207102 ], [ 12.1195859909059, 43.254844665527401 ], [ 12.1220102310181, 43.255916595458999 ], [ 12.1227731704712, 43.256156921386797 ], [ 12.125256538391101, 43.2560005187988 ], [ 12.1270503997803, 43.255664825439503 ], [ 12.128589630127101, 43.255138397216903 ], [ 12.132042884826699, 43.2547416687012 ], [ 12.133139610290501, 43.254615783691399 ], [ 12.1400136947632, 43.2538452148438 ], [ 12.141516685485801, 43.253841400146598 ], [ 12.1430778503419, 43.253978729248097 ], [ 12.145378112793001, 43.254428863525497 ], [ 12.1495370864868, 43.255580902099702 ], [ 12.151609420776399, 43.2570610046387 ], [ 12.152825355529799, 43.257934570312599 ], [ 12.1550807952881, 43.260082244873097 ], [ 12.1553564071656, 43.260326385498203 ], [ 12.1611757278443, 43.265113830566499 ], [ 12.163064002990801, 43.2666625976563 ], [ 12.1671047210694, 43.269504547119297 ], [ 12.1673851013184, 43.269687652587997 ], [ 12.1732177734375, 43.272762298583899 ], [ 12.1756610870362, 43.274051666259901 ], [ 12.1766901016235, 43.274509429931598 ], [ 12.177049636840801, 43.2745780944825 ], [ 12.1781978607178, 43.274806976318501 ], [ 12.1814622879029, 43.2747802734375 ], [ 12.2004508972169, 43.2802543640137 ], [ 12.208023071289199, 43.282562255859503 ], [ 12.209236145019499, 43.2828369140625 ], [ 12.209598541259799, 43.2829208374025 ], [ 12.211018562316999, 43.283695220947301 ], [ 12.2238597869872, 43.295326232910298 ], [ 12.224425315856999, 43.295978546142699 ], [ 12.224846839904901, 43.2967529296875 ], [ 12.224661827087401, 43.2972221374512 ], [ 12.222251892089799, 43.298946380615199 ], [ 12.2217359542847, 43.299289703369098 ], [ 12.2209701538087, 43.299793243408303 ], [ 12.2208013534547, 43.299800872802798 ], [ 12.2202348709106, 43.299819946289098 ], [ 12.2191085815431, 43.299991607666101 ], [ 12.218118667602599, 43.3002128601075 ], [ 12.215991020202599, 43.301162719726598 ], [ 12.2067785263062, 43.305847167968899 ], [ 12.206291198730501, 43.306182861328203 ], [ 12.204105377197401, 43.308692932128999 ], [ 12.2030258178712, 43.3104667663575 ], [ 12.1960620880128, 43.315380096435597 ], [ 12.1957216262818, 43.315242767334098 ], [ 12.195096969604499, 43.314540863037003 ], [ 12.1947784423828, 43.314041137695398 ], [ 12.1841230392456, 43.301803588867301 ], [ 12.1859788894654, 43.297237396240199 ], [ 12.186166763305801, 43.295742034912202 ], [ 12.1861791610718, 43.295349121093899 ], [ 12.180991172790501, 43.286949157715 ], [ 12.1791200637818, 43.284034729003999 ], [ 12.1782636642456, 43.282981872558601 ], [ 12.1780004501343, 43.282741546630902 ], [ 12.1772422790528, 43.282558441162102 ], [ 12.176469802856399, 43.282405853271499 ], [ 12.1749668121338, 43.282386779785298 ], [ 12.165632247924901, 43.283229827881001 ], [ 12.152912139892599, 43.286769866943402 ], [ 12.1457176208497, 43.289615631103501 ], [ 12.1362390518188, 43.293483734130902 ], [ 12.132705688476699, 43.295394897460902 ], [ 12.127051353454601, 43.306430816650398 ], [ 12.126834869384799, 43.307033538818402 ], [ 12.126787185669, 43.307758331298899 ], [ 12.126844406128001, 43.308063507080099 ], [ 12.1271619796753, 43.308639526367202 ], [ 12.1277885437012, 43.309139251709098 ], [ 12.128779411316, 43.309730529785099 ], [ 12.129108428955099, 43.309848785400398 ], [ 12.130090713501099, 43.3104858398438 ], [ 12.1308965682984, 43.311214447021499 ], [ 12.131496429443301, 43.311855316162202 ], [ 12.1320896148682, 43.312728881835902 ], [ 12.1348037719728, 43.316886901855597 ], [ 12.1377525329591, 43.330467224121001 ], [ 12.136375427246101, 43.3420600891113 ], [ 12.1350708007812, 43.345413208007898 ], [ 12.13161277771, 43.351417541503999 ], [ 12.1310110092163, 43.352325439453203 ], [ 12.129611015319799, 43.354274749755902 ], [ 12.1295499801635, 43.354358673095803 ], [ 12.1288671493531, 43.355262756347599 ], [ 12.126528739929199, 43.358062744140703 ], [ 12.1258296966553, 43.358882904052798 ], [ 12.124974250793599, 43.3598251342775 ], [ 12.123419761657701, 43.361511230468899 ], [ 12.1232767105103, 43.361663818359403 ], [ 12.122389793396099, 43.362621307372997 ], [ 12.1197261810303, 43.36531829834 ], [ 12.1134042739869, 43.369350433349702 ], [ 12.112231254577599, 43.370059967041001 ], [ 12.110564231872701, 43.370750427246101 ], [ 12.109159469604499, 43.371307373046903 ], [ 12.1045837402344, 43.373058319091903 ], [ 12.1045083999635, 43.373085021972699 ], [ 12.1042995452881, 43.373153686523601 ], [ 12.103528976440399, 43.373409271240298 ], [ 12.1020183563232, 43.37357711792 ], [ 12.1007127761841, 43.372718811035199 ], [ 12.0976810455322, 43.370105743408203 ], [ 12.0974779129029, 43.369884490966797 ], [ 12.0966529846191, 43.368793487548899 ], [ 12.0964212417603, 43.3685531616212 ], [ 12.0956516265869, 43.367794036865199 ], [ 12.094663619995201, 43.367477416992202 ], [ 12.094372749328601, 43.367385864257898 ], [ 12.0815744400025, 43.3663139343262 ], [ 12.078356742858899, 43.3665580749513 ], [ 12.0779561996459, 43.366794586181598 ], [ 12.077488899231099, 43.367137908935703 ], [ 12.07688331604, 43.367584228515703 ], [ 12.0768146514893, 43.367633819580099 ], [ 12.0763902664184, 43.367992401122997 ], [ 12.0746870040894, 43.369556427002003 ], [ 12.0742740631104, 43.370334625244197 ], [ 12.0739860534669, 43.371379852294901 ], [ 12.073734283447299, 43.382221221923899 ], [ 12.0737600326538, 43.383193969726598 ], [ 12.073900222778301, 43.387088775634801 ], [ 12.073983192444, 43.388526916503999 ], [ 12.0741930007935, 43.390068054199297 ], [ 12.0742340087891, 43.390369415283303 ], [ 12.074604034423899, 43.391643524169901 ], [ 12.0746994018556, 43.391937255859403 ], [ 12.0750093460084, 43.392833709716903 ], [ 12.075126647949199, 43.393119812011797 ], [ 12.0755262374879, 43.393955230712898 ], [ 12.0767126083375, 43.396114349365298 ], [ 12.0775032043456, 43.397228240966797 ], [ 12.0783128738403, 43.397754669189503 ], [ 12.078589439392101, 43.398429870605497 ], [ 12.07874584198, 43.398963928222699 ], [ 12.078791618347299, 43.399269104003999 ], [ 12.0787906646728, 43.399650573730597 ], [ 12.078726768493601, 43.400405883789198 ], [ 12.078651428222701, 43.401195526122997 ], [ 12.078577041626099, 43.4018783569337 ], [ 12.0784931182862, 43.402397155761697 ], [ 12.0784101486207, 43.402748107910099 ], [ 12.0782718658447, 43.403102874755902 ], [ 12.074715614319, 43.404739379882898 ], [ 12.073088645935099, 43.405506134033303 ], [ 12.071917533874601, 43.405956268310497 ], [ 12.071187019348301, 43.405853271484403 ], [ 12.069834709167599, 43.405448913574197 ], [ 12.0684614181519, 43.404987335205099 ], [ 12.0669527053834, 43.404457092285298 ], [ 12.058685302734499, 43.4013481140137 ], [ 12.0530643463135, 43.399276733398601 ], [ 12.0338945388794, 43.401184082031399 ], [ 12.0330696105956, 43.401477813720803 ], [ 12.032603263855, 43.401870727539098 ], [ 12.0323953628541, 43.402042388916101 ], [ 12.027661323547401, 43.411216735839901 ], [ 12.026182174682701, 43.416030883789098 ], [ 12.0261697769165, 43.416526794433601 ], [ 12.0268774032593, 43.417495727539098 ], [ 12.0274991989137, 43.418346405029297 ], [ 12.0305824279785, 43.422290802002102 ], [ 12.0330972671509, 43.424667358398601 ], [ 12.034605026245201, 43.425460815429702 ], [ 12.0365047454835, 43.425895690917997 ], [ 12.0419578552247, 43.427040100097599 ], [ 12.0521583557129, 43.431201934814503 ], [ 12.052873611450201, 43.431686401367301 ], [ 12.053595542907701, 43.432289123535298 ], [ 12.0538082122803, 43.432975769042997 ], [ 12.0545854568482, 43.4358940124512 ], [ 12.0578393936157, 43.439216613769503 ], [ 12.0588359832765, 43.439453125000099 ], [ 12.0602531433106, 43.439502716064503 ], [ 12.060663223266699, 43.439456939697401 ], [ 12.0614652633666, 43.439365386962898 ], [ 12.063033103943001, 43.43900680542 ], [ 12.0672922134401, 43.4379081726075 ], [ 12.0704593658447, 43.437042236328203 ], [ 12.073092460632299, 43.436290740966797 ], [ 12.075896263122599, 43.435306549072301 ], [ 12.0767726898194, 43.434970855712898 ], [ 12.0779266357422, 43.434806823730497 ], [ 12.0785789489747, 43.4347152709962 ], [ 12.081266403198301, 43.434806823730497 ], [ 12.0823287963868, 43.435005187988303 ], [ 12.083232879638601, 43.435535430908303 ], [ 12.0884923934937, 43.439018249511697 ], [ 12.0886087417603, 43.439117431640703 ], [ 12.097409248352101, 43.446567535400398 ], [ 12.101099014282299, 43.452102661132898 ], [ 12.1005678176881, 43.453239440918097 ], [ 12.1003971099854, 43.454044342041101 ], [ 12.1003322601319, 43.454772949218899 ], [ 12.100460052490201, 43.455318450927699 ], [ 12.1021404266359, 43.457950592041101 ], [ 12.102679252624499, 43.458732604980497 ], [ 12.1049842834472, 43.461406707763601 ], [ 12.109398841858001, 43.463138580322301 ], [ 12.110444068908601, 43.463512420654297 ], [ 12.124835014343301, 43.467994689941399 ], [ 12.136901855468899, 43.469524383545 ], [ 12.1379976272582, 43.469184875488303 ], [ 12.1421918869019, 43.469882965087898 ], [ 12.144200325012299, 43.471248626708999 ], [ 12.1444921493531, 43.472122192382898 ], [ 12.1452865600587, 43.474678039550803 ], [ 12.145901679992701, 43.478420257568402 ], [ 12.145957946777299, 43.479125976562599 ], [ 12.145898818969799, 43.479644775390597 ], [ 12.145825386047299, 43.480228424072401 ], [ 12.145783424377401, 43.480529785156399 ], [ 12.145263671875099, 43.480796813964801 ], [ 12.141630172729601, 43.483425140380902 ], [ 12.1306762695312, 43.484603881835902 ], [ 12.121102333069, 43.488788604736399 ], [ 12.1198091506959, 43.491287231445298 ], [ 12.1197500228882, 43.491683959960902 ], [ 12.1196613311768, 43.492202758788999 ], [ 12.119069099426399, 43.492599487304702 ], [ 12.1181707382203, 43.493198394775497 ], [ 12.1093072891235, 43.496665954589901 ], [ 12.1004238128663, 43.499011993408203 ], [ 12.098458290100099, 43.499263763427798 ], [ 12.096880912780801, 43.499698638916101 ], [ 12.096054077148599, 43.5001220703125 ], [ 12.0951337814332, 43.500778198242301 ], [ 12.093873977661101, 43.501678466796903 ], [ 12.093458175659199, 43.502025604247997 ], [ 12.0930633544921, 43.502479553222798 ], [ 12.0928373336793, 43.502742767334098 ], [ 12.0921716690063, 43.503921508789098 ], [ 12.092136383056699, 43.504341125488303 ], [ 12.092095375061101, 43.508636474609403 ], [ 12.0920181274415, 43.508857727050803 ], [ 12.091944694519199, 43.509181976318402 ], [ 12.0918731689454, 43.5096435546875 ], [ 12.091855049133301, 43.512191772461001 ], [ 12.092017173767101, 43.512882232666101 ], [ 12.0923519134522, 43.5137748718262 ], [ 12.0963554382325, 43.523567199707102 ], [ 12.096716880798301, 43.524131774902401 ], [ 12.103686332702599, 43.530891418457102 ], [ 12.108018875122101, 43.530776977539098 ], [ 12.1163597106934, 43.5287094116212 ], [ 12.1169462203981, 43.528568267822301 ], [ 12.1266641616821, 43.530841827392599 ], [ 12.132176399231, 43.5337944030762 ], [ 12.1430568695069, 43.5367240905763 ], [ 12.143258094787599, 43.5363998413087 ], [ 12.1436338424684, 43.5357055664062 ], [ 12.143931388855, 43.535133361816399 ], [ 12.1446695327759, 43.534305572509801 ], [ 12.145634651184, 43.533500671386797 ], [ 12.1481924057007, 43.531768798828203 ], [ 12.1491947174072, 43.531284332275398 ], [ 12.1504688262941, 43.530693054199297 ], [ 12.154195785522599, 43.529666900634901 ], [ 12.1543216705322, 43.530002593994197 ], [ 12.1541996002197, 43.534393310546903 ], [ 12.159104347229, 43.549232482910099 ], [ 12.1636209487916, 43.562324523925803 ], [ 12.164981842041099, 43.563480377197301 ], [ 12.1691551208497, 43.566230773925803 ], [ 12.179700851440501, 43.575916290283303 ], [ 12.189777374267599, 43.587329864502003 ], [ 12.1972160339356, 43.597728729248203 ], [ 12.197834968566999, 43.600555419921903 ], [ 12.2007665634156, 43.604202270507798 ], [ 12.2021131515503, 43.6054916381837 ], [ 12.204142570495501, 43.607131958007898 ], [ 12.214758872985801, 43.611820220947301 ], [ 12.215166091918899, 43.611362457275398 ], [ 12.2204751968385, 43.601856231689503 ], [ 12.2223100662231, 43.5995063781738 ], [ 12.2264261245728, 43.594272613525398 ], [ 12.2543601989746, 43.591266632080199 ], [ 12.256264686584499, 43.591140747070398 ], [ 12.2576742172241, 43.590492248535199 ], [ 12.258345603943001, 43.590267181396499 ], [ 12.259204864501999, 43.590141296386797 ], [ 12.2596845626831, 43.590076446533303 ], [ 12.2624206542968, 43.589851379394602 ], [ 12.263140678405801, 43.589866638183501 ], [ 12.2635421752931, 43.589900970459098 ], [ 12.2637023925782, 43.589916229248203 ], [ 12.2641401290894, 43.590030670166101 ], [ 12.2648029327393, 43.590362548828203 ], [ 12.2652893066406, 43.590644836425803 ], [ 12.2656297683716, 43.5910034179687 ], [ 12.2658987045288, 43.591384887695298 ], [ 12.2662658691406, 43.59232711792 ], [ 12.266261100769199, 43.592433929443303 ], [ 12.266209602356, 43.592536926269503 ], [ 12.266160964965801, 43.592655181884801 ], [ 12.2661285400391, 43.592777252197401 ], [ 12.266711235046399, 43.593860626220803 ], [ 12.2674617767335, 43.594421386718899 ], [ 12.267737388610801, 43.594512939453203 ], [ 12.268837928771999, 43.594818115234297 ], [ 12.2713537216188, 43.595138549804702 ], [ 12.285911560058601, 43.595657348632898 ], [ 12.2866926193238, 43.595664978027401 ], [ 12.2884254455568, 43.595596313476598 ], [ 12.288744926452701, 43.595584869384801 ], [ 12.295330047607401, 43.594314575195298 ], [ 12.295536041259799, 43.594203948974602 ], [ 12.2955493927003, 43.594005584716797 ], [ 12.295515060424901, 43.591827392578097 ], [ 12.2951164245607, 43.5916938781738 ], [ 12.2946329116822, 43.591480255126903 ], [ 12.294402122497701, 43.591102600097699 ], [ 12.294259071350201, 43.590705871582102 ], [ 12.2933158874512, 43.587638854980497 ], [ 12.2933645248413, 43.587448120117202 ], [ 12.293959617614799, 43.587188720703097 ], [ 12.2942371368409, 43.5870780944825 ], [ 12.2983856201172, 43.586769104003999 ], [ 12.2987575531007, 43.586761474609503 ], [ 12.3004961013793, 43.586830139160199 ], [ 12.306777000427299, 43.590038299560597 ], [ 12.307139396667401, 43.590301513671903 ], [ 12.3079843521119, 43.591236114502102 ], [ 12.308092117309601, 43.591438293457003 ], [ 12.308445930481, 43.592731475830099 ], [ 12.312328338623001, 43.599098205566499 ], [ 12.3527431488038, 43.615512847900298 ], [ 12.3549242019653, 43.617694854736399 ], [ 12.355252265930099, 43.618007659912102 ], [ 12.355686187744199, 43.618236541747997 ], [ 12.356358528137299, 43.618289947509801 ], [ 12.3569440841675, 43.618293762207003 ], [ 12.3570766448975, 43.618297576904403 ], [ 12.357744216919, 43.618232727050902 ], [ 12.3722400665284, 43.612117767333999 ], [ 12.369295120239199, 43.610458374023402 ], [ 12.3689479827882, 43.610187530517599 ], [ 12.368683815002401, 43.609947204589801 ], [ 12.3684101104737, 43.609683990478601 ], [ 12.362654685974199, 43.602905273437599 ], [ 12.3625917434693, 43.602256774902301 ], [ 12.362266540527401, 43.597488403320298 ], [ 12.3624944686891, 43.596683502197301 ], [ 12.3627490997316, 43.596145629882898 ], [ 12.363026618957599, 43.595878601074297 ], [ 12.363343238830501, 43.595596313476598 ], [ 12.3661088943481, 43.593101501464801 ] ] ] ] } }
]
}
