{
"type": "FeatureCollection",
"name": "Riviera del Brenta DOC",
"crs": { "type": "name", "properties": { "name": "urn:ogc:def:crs:OGC:1.3:CRS84" } },
"features": [
{ "type": "Feature", "properties": { "denominazi": "RIVIERA DEL BRENTA", "codice": "B370", "zona": "X", "atto": "D. M. 18\/10\/2007", "GU": "n. 251 del 27\/10\/2007", "id": 36 }, "geometry": { "type": "MultiPolygon", "coordinates": [ [ [ [ 11.859710700325474, 45.455381532662955 ], [ 11.859872705584937, 45.455843466000587 ], [ 11.859997129318664, 45.455994462170644 ], [ 11.860227125058984, 45.456273574157017 ], [ 11.86081734052356, 45.4568441312 ], [ 11.861640401209629, 45.457496609608029 ], [ 11.862956639226246, 45.45844392426595 ], [ 11.863800002230162, 45.459271491129705 ], [ 11.864011324394795, 45.45974910330213 ], [ 11.864033210833517, 45.459975339314894 ], [ 11.864055097491796, 45.460201575311288 ], [ 11.863894122143108, 45.460717782376669 ], [ 11.863072417064739, 45.462009715765198 ], [ 11.862753169281504, 45.462480957834345 ], [ 11.862563323208981, 45.462770402330328 ], [ 11.861922363521556, 45.464074185310537 ], [ 11.861805578874563, 45.464517948448872 ], [ 11.861747931803116, 45.464736995800862 ], [ 11.86188730372348, 45.465230997343227 ], [ 11.862295905585974, 45.465908532995982 ], [ 11.862780183614037, 45.466847453972051 ], [ 11.862854085625244, 45.467249624129643 ], [ 11.8630079550109, 45.467867042987002 ], [ 11.863075989068852, 45.468171580531347 ], [ 11.863041069669732, 45.469123611804257 ], [ 11.862824376624747, 45.469772901581628 ], [ 11.862563559797337, 45.470271435062777 ], [ 11.862483100775771, 45.470425225155644 ], [ 11.862049150852222, 45.470889766349423 ], [ 11.86148530517867, 45.471255038758493 ], [ 11.860879950845026, 45.471401989873428 ], [ 11.860157374566556, 45.471507859268364 ], [ 11.859343610655888, 45.47145506719783 ], [ 11.858954967725145, 45.471376995431598 ], [ 11.858815652605765, 45.471349009010908 ], [ 11.858566325809321, 45.471298922314453 ], [ 11.857426892720095, 45.471145464949764 ], [ 11.857100476580074, 45.47110150138343 ], [ 11.855608741939569, 45.471040367685703 ], [ 11.854662168065799, 45.471001565353156 ], [ 11.853470259859026, 45.471057653226573 ], [ 11.853097061228542, 45.471075212335506 ], [ 11.852670401634988, 45.471095285293408 ], [ 11.851481775414374, 45.471252889417542 ], [ 11.851038421300803, 45.47131167192024 ], [ 11.850161515817971, 45.471655453218901 ], [ 11.84963542783685, 45.471946634510267 ], [ 11.849474350693923, 45.472243284018468 ], [ 11.849409726065455, 45.472610795227631 ], [ 11.849430357764867, 45.473019923911565 ], [ 11.849570416653478, 45.473323727839563 ], [ 11.849819519321731, 45.473727242646426 ], [ 11.850627908665503, 45.474497180839876 ], [ 11.851575775232105, 45.47535808764318 ], [ 11.851728907566139, 45.47550130495781 ], [ 11.852829945975696, 45.47650541734783 ], [ 11.853105077374918, 45.477010617671176 ], [ 11.85313980249928, 45.47728779602101 ], [ 11.852984750899711, 45.477511120121818 ], [ 11.852703508753638, 45.477708433951207 ], [ 11.85165376008085, 45.4781150534712 ], [ 11.850770857524465, 45.478341973631387 ], [ 11.84938557228344, 45.47891798253513 ], [ 11.848481617647817, 45.479555053769623 ], [ 11.847813768076495, 45.480048509625227 ], [ 11.847318803121311, 45.480418203664179 ], [ 11.846779886173929, 45.48087054227674 ], [ 11.846411036173196, 45.481391907138352 ], [ 11.846200666574862, 45.481843700756293 ], [ 11.846200556898419, 45.48184406353775 ], [ 11.845995151007465, 45.482221743375518 ], [ 11.845911259773271, 45.482618896234413 ], [ 11.845918411946121, 45.482890373162689 ], [ 11.845879603836636, 45.483643928301433 ], [ 11.846051552723386, 45.48416647951003 ], [ 11.846345280022902, 45.484594181993792 ], [ 11.846345832003214, 45.484594978334783 ], [ 11.846642173625524, 45.484927202491306 ], [ 11.847038351588003, 45.485356308692879 ], [ 11.847089521924199, 45.485333159581401 ], [ 11.851683749391874, 45.488398498704655 ], [ 11.8519686281146, 45.488657275739634 ], [ 11.852344775604172, 45.489101445670599 ], [ 11.852533816682076, 45.489550380244566 ], [ 11.85256115019379, 45.489650022305618 ], [ 11.852649421653156, 45.48997180594575 ], [ 11.85264393066787, 45.490688975547293 ], [ 11.852547362696757, 45.491247390390164 ], [ 11.852110792251841, 45.492077674786351 ], [ 11.851830913663749, 45.492713938375722 ], [ 11.851683928095209, 45.493330002550259 ], [ 11.851638912221727, 45.493518676214521 ], [ 11.851521858486162, 45.494009274591164 ], [ 11.851572786555318, 45.495017661860231 ], [ 11.851606357313747, 45.495133743674714 ], [ 11.851799652845219, 45.495802115493724 ], [ 11.852394452315638, 45.497279825018097 ], [ 11.85293963996803, 45.498188008219508 ], [ 11.853072371542828, 45.498755363673098 ], [ 11.85300109713355, 45.49899126500393 ], [ 11.852748787052228, 45.499119806487016 ], [ 11.851998393755775, 45.499120465569703 ], [ 11.851680782182527, 45.498954858012659 ], [ 11.851588919106161, 45.498826366207368 ], [ 11.851588713390719, 45.498827361472841 ], [ 11.85158864073462, 45.498825923103972 ], [ 11.851092663595342, 45.498017497317846 ], [ 11.850494384308861, 45.497096499278889 ], [ 11.850045297384925, 45.49624018185542 ], [ 11.8494324180355, 45.495673287900082 ], [ 11.84874183499004, 45.49549645957066 ], [ 11.847639018982937, 45.495512635049501 ], [ 11.847079644929842, 45.49568635865937 ], [ 11.84663780278899, 45.495937078811714 ], [ 11.84654109064247, 45.496270552936103 ], [ 11.846627166987288, 45.496690740445153 ], [ 11.846830207456536, 45.497176509651567 ], [ 11.847127516901645, 45.497922400770811 ], [ 11.847421388546509, 45.498599968069293 ], [ 11.84747274542781, 45.499008883622963 ], [ 11.84748641368601, 45.499117712303487 ], [ 11.847487098203105, 45.499118595342871 ], [ 11.847487472637164, 45.499118405979537 ], [ 11.847486605003718, 45.499118967691814 ], [ 11.847391717974107, 45.499866719704016 ], [ 11.847353620455932, 45.500283793059793 ], [ 11.846869323370417, 45.500850703060017 ], [ 11.846339354752159, 45.501293903897086 ], [ 11.845561340530997, 45.501826546461011 ], [ 11.845208458980098, 45.502050380011845 ], [ 11.844688239054641, 45.502351938259935 ], [ 11.844110540828657, 45.502608358033257 ], [ 11.842529526905587, 45.503192038083235 ], [ 11.841113591992794, 45.503671134803909 ], [ 11.84074939085143, 45.503756836831343 ], [ 11.838537625566246, 45.504277268330064 ], [ 11.838535598097994, 45.504277678792015 ], [ 11.837114634205742, 45.5045611659625 ], [ 11.834924112305528, 45.504934678886862 ], [ 11.834016053522326, 45.505158765297232 ], [ 11.833774099579026, 45.505218472031316 ], [ 11.833112069381889, 45.505381837328713 ], [ 11.83234732632485, 45.505720805412963 ], [ 11.832345148346525, 45.505720769442185 ], [ 11.832345092757315, 45.505714560035862 ], [ 11.832345092693185, 45.505720825644843 ], [ 11.832342955303799, 45.505722984129818 ], [ 11.831308535089693, 45.506267111288508 ], [ 11.8306027468109, 45.506753394123862 ], [ 11.829999337105008, 45.507382232775548 ], [ 11.829805403936563, 45.507632591528406 ], [ 11.829756102114718, 45.507886959841791 ], [ 11.829742347431026, 45.50795792553177 ], [ 11.829836710598215, 45.508256944300015 ], [ 11.830124809130902, 45.508618128356787 ], [ 11.83063921923002, 45.509062991245592 ], [ 11.831803484256076, 45.509804251766262 ], [ 11.832344120791602, 45.510051871544427 ], [ 11.832344787168473, 45.510052395078162 ], [ 11.832344802225586, 45.510050144421207 ], [ 11.832344906004975, 45.510052212106899 ], [ 11.83293173429556, 45.510434420052377 ], [ 11.8331183641543, 45.510520525370403 ], [ 11.83455923667475, 45.511185280459507 ], [ 11.836348536762792, 45.512083371036717 ], [ 11.837791269565981, 45.512921343719938 ], [ 11.839335634071727, 45.513905558868522 ], [ 11.83982875171122, 45.514115710168262 ], [ 11.842154457190858, 45.515105469448713 ], [ 11.843318426068738, 45.515619340851977 ], [ 11.843784964637244, 45.516007729302807 ], [ 11.844006248789801, 45.516364151694219 ], [ 11.844093077397813, 45.516743006092916 ], [ 11.844075430763294, 45.51720061298699 ], [ 11.844000942284776, 45.517602478892137 ], [ 11.843824984130714, 45.517740214318088 ], [ 11.843649025120191, 45.517877949490412 ], [ 11.843262618104893, 45.518053465459353 ], [ 11.842699468306577, 45.51831952242501 ], [ 11.842111773691565, 45.518403464876798 ], [ 11.841379820246182, 45.518366239593 ], [ 11.840242015236118, 45.518103278996279 ], [ 11.83844895373908, 45.517759480142033 ], [ 11.83652224239114, 45.517502234590573 ], [ 11.835373836585406, 45.517419871354008 ], [ 11.834449708542367, 45.517484406886503 ], [ 11.83373641383222, 45.5175519373634 ], [ 11.833023117201309, 45.517619463421106 ], [ 11.832346259389299, 45.517636259672457 ], [ 11.832345281498924, 45.517637184048361 ], [ 11.832342459156793, 45.517637074053958 ], [ 11.831928348929535, 45.517730698628263 ], [ 11.831849110873355, 45.517753997034085 ], [ 11.831769872749494, 45.517777295386303 ], [ 11.831570170554858, 45.517878786279546 ], [ 11.831370467633251, 45.517980276838827 ], [ 11.830947073377333, 45.518238533636293 ], [ 11.830523675224184, 45.518496788945129 ], [ 11.830400546337998, 45.518573225240573 ], [ 11.829791180734748, 45.518951504014247 ], [ 11.829575636123934, 45.519004057965958 ], [ 11.829360091093976, 45.519056611519638 ], [ 11.828771131702183, 45.519023951956399 ], [ 11.828033140401221, 45.518866265544965 ], [ 11.826655347726991, 45.518499210897772 ], [ 11.824894377693818, 45.518188878489077 ], [ 11.823428110992925, 45.518144585726489 ], [ 11.822961403221298, 45.518130483514824 ], [ 11.8219348197245, 45.518226964245663 ], [ 11.821257537961166, 45.518290611562904 ], [ 11.820927759238311, 45.518376018756626 ], [ 11.819998443641429, 45.518616689557149 ], [ 11.819617630692807, 45.518726370969176 ], [ 11.818923024270308, 45.518926426578638 ], [ 11.818052871014585, 45.519313626564141 ], [ 11.817515263236876, 45.519975787737764 ], [ 11.817590240721296, 45.520469448740364 ], [ 11.817713842461263, 45.520926535055949 ], [ 11.818011726895101, 45.521178774057653 ], [ 11.818446186671641, 45.521392805982757 ], [ 11.818880649706166, 45.521606836167813 ], [ 11.819546781561534, 45.521838095635822 ], [ 11.819955076977367, 45.521916581140459 ], [ 11.820363373464735, 45.521995065155942 ], [ 11.820866487628093, 45.522057001304248 ], [ 11.822437451610236, 45.522250380451261 ], [ 11.823735908057133, 45.522371647727631 ], [ 11.824236472010558, 45.522648335353651 ], [ 11.824737040836743, 45.522925020654355 ], [ 11.825127818949621, 45.523249981874145 ], [ 11.825770423794131, 45.523784344479239 ], [ 11.826198161459017, 45.524281058240987 ], [ 11.826238349435314, 45.524580925540782 ], [ 11.826278537915593, 45.5248807928023 ], [ 11.826280676944787, 45.525258246588351 ], [ 11.826282820629771, 45.525635790251329 ], [ 11.8261687301984, 45.526039704549831 ], [ 11.826000436584915, 45.526327946120887 ], [ 11.825831232822786, 45.526738625092591 ], [ 11.8256620267277, 45.527149303846215 ], [ 11.825243628075073, 45.527844014305749 ], [ 11.825081801398845, 45.528117107538769 ], [ 11.824919973207388, 45.528390200568168 ], [ 11.824846642307852, 45.528783608539825 ], [ 11.824773310515074, 45.529177016464864 ], [ 11.82451439660735, 45.530431088781164 ], [ 11.824381570990475, 45.531074421962856 ], [ 11.824156661103515, 45.531610961731374 ], [ 11.823987674229647, 45.531756729733239 ], [ 11.823818686487769, 45.531902497502386 ], [ 11.823205797841599, 45.532054473668445 ], [ 11.823189030529688, 45.532057228636894 ], [ 11.822205982579883, 45.532213672814009 ], [ 11.821471135984392, 45.532290885166042 ], [ 11.820509606702018, 45.532196642121953 ], [ 11.819693588537875, 45.531992673792608 ], [ 11.818962206454199, 45.531742308346701 ], [ 11.81860050647534, 45.531618489243876 ], [ 11.817278218522945, 45.531190903885857 ], [ 11.816095685744088, 45.531043120424862 ], [ 11.815455151872419, 45.531059730188367 ], [ 11.815453123262541, 45.531060140265382 ], [ 11.814129648195285, 45.531339404491256 ], [ 11.812439897513567, 45.532157789098413 ], [ 11.812179148599206, 45.532284071437751 ], [ 11.811392813718088, 45.533011376723081 ], [ 11.810147948614921, 45.533631915586952 ], [ 11.808903055773238, 45.534252441459621 ], [ 11.808223519062581, 45.534764760740828 ], [ 11.808062225822521, 45.534981154416116 ], [ 11.80790093137273, 45.535197547885559 ], [ 11.807733096207604, 45.536546710266123 ], [ 11.807763418016938, 45.537831951265929 ], [ 11.807875776142017, 45.538516601376124 ], [ 11.807876067819072, 45.538517314289436 ], [ 11.807876505334658, 45.53851838365938 ], [ 11.807876577683182, 45.538518570210435 ], [ 11.807881391202118, 45.538635353974534 ], [ 11.807886204752625, 45.538752137735813 ], [ 11.8081093139907, 45.539513096666624 ], [ 11.808236747798592, 45.53979918710823 ], [ 11.808404275536038, 45.541096579293153 ], [ 11.808483765533861, 45.542279000783687 ], [ 11.808603651797426, 45.544482293873685 ], [ 11.808523855904262, 45.546196686147283 ], [ 11.808572971643883, 45.547182301120557 ], [ 11.808727721405052, 45.548629704304901 ], [ 11.808473586560385, 45.549332537786107 ], [ 11.807636666301564, 45.55077531053751 ], [ 11.806403814083085, 45.551734399698518 ], [ 11.805706717000376, 45.551838607423377 ], [ 11.805024903259783, 45.551419999830337 ], [ 11.804687025693598, 45.550441478815451 ], [ 11.804673460186217, 45.549338892425233 ], [ 11.804750487907603, 45.54756652326769 ], [ 11.804709515353428, 45.545913149715609 ], [ 11.804525163459303, 45.544698661680961 ], [ 11.803194345523163, 45.543686476626227 ], [ 11.801693327431908, 45.543404058900087 ], [ 11.801022252660772, 45.544030035548396 ], [ 11.801112489278143, 45.545014644926461 ], [ 11.801700688483068, 45.546045082325307 ], [ 11.80216081458074, 45.546991587763941 ], [ 11.801966597399321, 45.548070250741823 ], [ 11.800685240800517, 45.548885347858942 ], [ 11.799062254781598, 45.549476613897312 ], [ 11.797824961727333, 45.550348646610608 ], [ 11.79713264871555, 45.551381458884862 ], [ 11.79657560450115, 45.552643146623019 ], [ 11.796159130318152, 45.553407977272997 ], [ 11.796283374375067, 45.554246635292941 ], [ 11.79661440299693, 45.555921928624116 ], [ 11.796810614656549, 45.558210031170503 ], [ 11.796912798066485, 45.560268243191494 ], [ 11.796926224531584, 45.561370832162225 ], [ 11.795567186173459, 45.563958246084852 ], [ 11.794771814049467, 45.565159691722492 ], [ 11.794340472466999, 45.566716548664786 ], [ 11.793290832260753, 45.568048322309565 ], [ 11.792404190731704, 45.568694664150648 ], [ 11.790780755892511, 45.569096532344332 ], [ 11.789862693951884, 45.568926545359155 ], [ 11.788149343456652, 45.568191370737885 ], [ 11.785949659013239, 45.567078123380512 ], [ 11.782806895179396, 45.566261702262665 ], [ 11.780437246223233, 45.566330415290693 ], [ 11.778175468307758, 45.565603638488781 ], [ 11.776291360607619, 45.565386297956586 ], [ 11.774598393780288, 45.566006444760866 ], [ 11.773030208702831, 45.566517418850268 ], [ 11.771619830211325, 45.567365441505899 ], [ 11.769679304984788, 45.568073397546307 ], [ 11.769129620744923, 45.569086801339324 ], [ 11.768509815118446, 45.569937503799132 ], [ 11.767150528647354, 45.570078092383298 ], [ 11.766085915884481, 45.570278037159696 ], [ 11.76480888949617, 45.571139027106462 ], [ 11.762813618380404, 45.571713683837267 ], [ 11.761430042917448, 45.572536686967219 ], [ 11.759675112330273, 45.573538766358297 ], [ 11.759453016489203, 45.574066568507021 ], [ 11.759610950636008, 45.574759328956581 ], [ 11.759986654435515, 45.575679017178444 ], [ 11.760239951707163, 45.576630687772173 ], [ 11.760312500051624, 45.577267463319778 ], [ 11.760351150364164, 45.577683997359593 ], [ 11.760019998819759, 45.578390934685629 ], [ 11.760861626147806, 45.580814153709028 ], [ 11.759497091735858, 45.582798062131381 ], [ 11.758901756705677, 45.585177612153259 ], [ 11.759399300884128, 45.586331340970098 ], [ 11.759644953020931, 45.586757325106184 ], [ 11.76026545196326, 45.588704131528807 ], [ 11.762421730459318, 45.58822029704605 ], [ 11.762905378813969, 45.588226454539068 ], [ 11.763318707834928, 45.588363197906517 ], [ 11.763779117473282, 45.588599457509936 ], [ 11.764004977988352, 45.588688049497613 ], [ 11.76452952007538, 45.588836101347631 ], [ 11.765096702526117, 45.588816411465778 ], [ 11.7657257976187, 45.588676142764022 ], [ 11.766655414013858, 45.588439280980168 ], [ 11.767053252429763, 45.588341792174901 ], [ 11.767379411175828, 45.588159765672856 ], [ 11.767488921125041, 45.587972543035207 ], [ 11.768122774362489, 45.585170793715143 ], [ 11.768427853679194, 45.58378806603983 ], [ 11.768676324734507, 45.583150936494974 ], [ 11.769064627109225, 45.582807721168322 ], [ 11.769428252457844, 45.582578993792076 ], [ 11.769849058673438, 45.582515200499863 ], [ 11.770279210621922, 45.582469040300971 ], [ 11.770612127051995, 45.582514545504687 ], [ 11.77371090207969, 45.582939419039299 ], [ 11.777714168501481, 45.583479142046379 ], [ 11.778178782387632, 45.583444021150385 ], [ 11.778758143223895, 45.583328705866819 ], [ 11.779256584285109, 45.583120096666732 ], [ 11.77955994612034, 45.582910281344354 ], [ 11.780443437090856, 45.582257662957808 ], [ 11.781812066528667, 45.581248916777696 ], [ 11.782528631846006, 45.580873204069349 ], [ 11.782980636114784, 45.580755017513397 ], [ 11.783479096949657, 45.580719049858729 ], [ 11.78399065855557, 45.580758377857222 ], [ 11.785551468340667, 45.581305560459462 ], [ 11.786420325704647, 45.581558232269991 ], [ 11.788750569221518, 45.582043129294192 ], [ 11.791226586849842, 45.582560137479092 ], [ 11.792248808279643, 45.582826876444763 ], [ 11.793255783171846, 45.582957041593701 ], [ 11.794181322463123, 45.583154683028731 ], [ 11.796073972878464, 45.58421575216834 ], [ 11.797850093940138, 45.585148661904242 ], [ 11.799162408110149, 45.585449905550483 ], [ 11.801280001111969, 45.585915945053372 ], [ 11.801587847600006, 45.585967928776292 ], [ 11.802023735352408, 45.586207290975729 ], [ 11.803063248017263, 45.586818829559142 ], [ 11.804058955365678, 45.587401665555781 ], [ 11.804566471385467, 45.587716658150072 ], [ 11.805169697340741, 45.587910220507425 ], [ 11.805752431016515, 45.58803283759589 ], [ 11.806149897631673, 45.588011160615089 ], [ 11.807367703237091, 45.587945496590606 ], [ 11.808825910749622, 45.587939396800024 ], [ 11.810122012483642, 45.587913453566422 ], [ 11.810782915083939, 45.587903136899243 ], [ 11.811791214539863, 45.587890206815743 ], [ 11.813659903722296, 45.587857433439723 ], [ 11.816410123823312, 45.587822858710702 ], [ 11.819658857275444, 45.58778395132979 ], [ 11.822155192013364, 45.587753551121381 ], [ 11.824189288065805, 45.587733016600659 ], [ 11.825214356273138, 45.587713606522478 ], [ 11.82685826883438, 45.587690772373357 ], [ 11.828188223187281, 45.58766378538234 ], [ 11.830857791371484, 45.587633340555605 ], [ 11.832256690018445, 45.58762841165926 ], [ 11.833853930453914, 45.587639955975625 ], [ 11.835369374764838, 45.587622758985717 ], [ 11.836442213134843, 45.587560215224215 ], [ 11.837200231332041, 45.5874580251038 ], [ 11.838427113141003, 45.587237004392989 ], [ 11.839595002046854, 45.587023391696007 ], [ 11.840854838986028, 45.586783663632104 ], [ 11.842686042046633, 45.586440387980311 ], [ 11.844147299432466, 45.586159884739359 ], [ 11.84499723654624, 45.586031537311456 ], [ 11.84628939684246, 45.585761174452934 ], [ 11.84741094472159, 45.58555459078859 ], [ 11.848822695475938, 45.585302054525101 ], [ 11.850553829503923, 45.584993895493348 ], [ 11.851932128173249, 45.584751086701331 ], [ 11.853512753218709, 45.584485342493792 ], [ 11.854363394346704, 45.58437179208449 ], [ 11.855586803858088, 45.584168534689496 ], [ 11.857188563831604, 45.583902210758382 ], [ 11.858510853442345, 45.583642862676555 ], [ 11.859374927632754, 45.583543823002216 ], [ 11.859135356109112, 45.584169020708593 ], [ 11.858840677346434, 45.585629132442591 ], [ 11.858578362191498, 45.586891956763772 ], [ 11.858337800647609, 45.588332850041951 ], [ 11.857913287611536, 45.590242745398207 ], [ 11.857749411902665, 45.591273880729013 ], [ 11.857670289925228, 45.591552713705909 ], [ 11.857501733642673, 45.592408328205899 ], [ 11.857217729071529, 45.593746113753419 ], [ 11.856885586042997, 45.59538874736208 ], [ 11.856668285040442, 45.596453963352687 ], [ 11.856089901742626, 45.599177417826709 ], [ 11.855535240494, 45.60170082249828 ], [ 11.854963410826805, 45.604471735742912 ], [ 11.854333392088062, 45.607601327972738 ], [ 11.853941248360401, 45.609807242682137 ], [ 11.857542924484502, 45.609164282820927 ], [ 11.859616489007328, 45.60890397686147 ], [ 11.860346533777214, 45.608441351339543 ], [ 11.861105769041927, 45.607997406546843 ], [ 11.862083206655218, 45.607631722952448 ], [ 11.862736756344823, 45.607292669247457 ], [ 11.863327508987746, 45.607066493491004 ], [ 11.863764106067846, 45.606978142441363 ], [ 11.864694941314355, 45.606933949410823 ], [ 11.866723919393797, 45.606799662622798 ], [ 11.868123563815779, 45.606716875785509 ], [ 11.86845214072296, 45.606672897250398 ], [ 11.868965122580331, 45.606585583803437 ], [ 11.869936597804678, 45.606257520971774 ], [ 11.871251586886178, 45.605763034605893 ], [ 11.871666040800337, 45.605490642279051 ], [ 11.872455448615483, 45.604920054862504 ], [ 11.873382929101929, 45.604229887462246 ], [ 11.874778352391932, 45.603236192853544 ], [ 11.876536848721106, 45.601962434578205 ], [ 11.877268686723024, 45.601428986937243 ], [ 11.877546984642514, 45.6013148036741 ], [ 11.877831646315565, 45.601242135952766 ], [ 11.88232031285605, 45.600450156078693 ], [ 11.882629996476542, 45.600276542123375 ], [ 11.882727633919746, 45.599957612407692 ], [ 11.883287227836144, 45.59896110131438 ], [ 11.885141493604914, 45.595592025443246 ], [ 11.886185560867172, 45.593791396687038 ], [ 11.887141502865726, 45.592588368258234 ], [ 11.888098015228419, 45.591397224781154 ], [ 11.890615154943935, 45.588231574655723 ], [ 11.893992778133228, 45.583996183130239 ], [ 11.894433848778299, 45.583669447754779 ], [ 11.894963264249915, 45.583411916114557 ], [ 11.89548308017684, 45.583297517252269 ], [ 11.897610171121347, 45.582945852866537 ], [ 11.899560327787546, 45.582616504587925 ], [ 11.900331709740383, 45.582448062764584 ], [ 11.900906182557968, 45.582242943055881 ], [ 11.901219070281369, 45.582062330458641 ], [ 11.901608242413367, 45.581552317593143 ], [ 11.902886665736268, 45.579543144335496 ], [ 11.903375573511513, 45.578994865956233 ], [ 11.903686901894318, 45.578784517002617 ], [ 11.904743831955455, 45.578400397352922 ], [ 11.905846946013574, 45.577925784791894 ], [ 11.906218961122956, 45.577689413622615 ], [ 11.906821224778028, 45.576680444491309 ], [ 11.907189364726442, 45.576294634318835 ], [ 11.90762088530038, 45.576076603398263 ], [ 11.913856068748029, 45.574923323302002 ], [ 11.929067077808627, 45.572107839920179 ], [ 11.929378042386332, 45.572218936905216 ], [ 11.929561594484804, 45.572488102765739 ], [ 11.929537403509865, 45.573000753417119 ], [ 11.929419660756176, 45.573670604570644 ], [ 11.929682312170909, 45.573830571231142 ], [ 11.930140111231717, 45.573830728475713 ], [ 11.930434994717531, 45.573632635966113 ], [ 11.930993985923902, 45.573296777208775 ], [ 11.93156112699306, 45.572954752550636 ], [ 11.933368130296607, 45.572491562807173 ], [ 11.934431793367594, 45.573869329389488 ], [ 11.936166494926731, 45.576408686321045 ], [ 11.936349566526966, 45.576505192354986 ], [ 11.936871051856402, 45.575938070169926 ], [ 11.937151780228477, 45.575793909005824 ], [ 11.938426279690383, 45.57552295474386 ], [ 11.940117213887268, 45.575164594119812 ], [ 11.940780637572219, 45.575071805526264 ], [ 11.942068990984149, 45.574853634884484 ], [ 11.942982559606973, 45.574728372873636 ], [ 11.943166891620091, 45.574692116535616 ], [ 11.943451079497549, 45.57461935100973 ], [ 11.944587053040888, 45.57437726771451 ], [ 11.945338116391456, 45.574235296175154 ], [ 11.94630849995443, 45.574038828159829 ], [ 11.947278876360414, 45.573842352053155 ], [ 11.949189496261068, 45.573491108436627 ], [ 11.951345621741027, 45.573095230798046 ], [ 11.951348669949239, 45.573094701931687 ], [ 11.952876850730954, 45.572820161870453 ], [ 11.953718533275804, 45.57267669088067 ], [ 11.953718912527469, 45.5726765910563 ], [ 11.954272520066615, 45.57258026464018 ], [ 11.954287504833932, 45.572577626548266 ], [ 11.954858334609517, 45.572470050256022 ], [ 11.955429162068858, 45.572362471160247 ], [ 11.95640741457669, 45.572142625517529 ], [ 11.956410453239657, 45.572141916741245 ], [ 11.956657048338855, 45.572088454063433 ], [ 11.956663888856264, 45.572086926718399 ], [ 11.956955589008832, 45.572023564024875 ], [ 11.956964079181446, 45.572021723895759 ], [ 11.957411571770727, 45.571932991615469 ], [ 11.959388405539704, 45.571546737257393 ], [ 11.96037071420613, 45.571348534987024 ], [ 11.961525362061694, 45.571157104420493 ], [ 11.962443158028744, 45.570985040945196 ], [ 11.963308795721318, 45.570871571004396 ], [ 11.96331528505468, 45.570870682451996 ], [ 11.963663009045089, 45.570800627516945 ], [ 11.964003334520386, 45.570762897493012 ], [ 11.964307605557433, 45.570678126997969 ], [ 11.965731016845929, 45.570475353365154 ], [ 11.97088970000558, 45.569770741287478 ], [ 11.971708958477596, 45.569713692478217 ], [ 11.97362870942008, 45.569627974149903 ], [ 11.974912612156889, 45.569540935370455 ], [ 11.976011530752158, 45.56948252053143 ], [ 11.976976259426255, 45.569451410266161 ], [ 11.977342152773959, 45.569477590090003 ], [ 11.97930077664439, 45.569486023701394 ], [ 11.981063124609491, 45.569469780591248 ], [ 11.981711485682435, 45.569387353699256 ], [ 11.982145416827171, 45.569417694641466 ], [ 11.982399332368677, 45.573251288512353 ], [ 11.982541491894056, 45.574414526691996 ], [ 11.982672318273771, 45.575363722476993 ], [ 11.98574472774097, 45.575268513559109 ], [ 11.987060887996947, 45.575228124996549 ], [ 11.990465789977035, 45.575088364295972 ], [ 11.992821045795267, 45.574979004624772 ], [ 11.993696326874046, 45.574938190431638 ], [ 11.99484764583959, 45.574892745700517 ], [ 11.99634897497879, 45.574787656160602 ], [ 11.997152731486965, 45.574731386825896 ], [ 11.997690674736257, 45.574803591261293 ], [ 11.998883029539583, 45.574906232687191 ], [ 11.999659043866208, 45.57483225758331 ], [ 12.000803956228983, 45.5747604873483 ], [ 12.002241254844821, 45.574686969460927 ], [ 12.003123400938666, 45.574616133058363 ], [ 12.003483358364756, 45.574609639002226 ], [ 12.003713310222894, 45.574600450462256 ], [ 12.003743320837962, 45.574713301173944 ], [ 12.003820545681807, 45.575050281126963 ], [ 12.003860477306661, 45.57548088375529 ], [ 12.003916290279351, 45.575732453185068 ], [ 12.004041577218926, 45.576014940319567 ], [ 12.004005533636915, 45.576292742478479 ], [ 12.003876788182467, 45.576501538150055 ], [ 12.003801535425096, 45.576759533622898 ], [ 12.004837581474826, 45.576791803026673 ], [ 12.005756371707134, 45.576850966111884 ], [ 12.006401917944043, 45.57695304200179 ], [ 12.007377543900015, 45.577123817992678 ], [ 12.008198923758876, 45.577105150982831 ], [ 12.009013686151283, 45.577041998695307 ], [ 12.009548167529742, 45.57704874617648 ], [ 12.009849352374721, 45.577052712375689 ], [ 12.010807738650987, 45.57721795975003 ], [ 12.012151404181921, 45.577453409429559 ], [ 12.014756960672104, 45.577584075290233 ], [ 12.015428816760691, 45.577622889827097 ], [ 12.015801556297793, 45.577696396042946 ], [ 12.01649863021029, 45.577889337840283 ], [ 12.017446897760497, 45.578102427512185 ], [ 12.017879314868056, 45.578102903228078 ], [ 12.018907168308623, 45.578060838311899 ], [ 12.019788455323754, 45.578052410981265 ], [ 12.020219668962051, 45.578109471138745 ], [ 12.020322613469601, 45.578210939411818 ], [ 12.0204151657256, 45.578434736315124 ], [ 12.020520993997902, 45.578817343736063 ], [ 12.020692753072447, 45.579025751538104 ], [ 12.021146960722948, 45.579353099387774 ], [ 12.021607246427592, 45.579635630723679 ], [ 12.022293821270779, 45.579790115032999 ], [ 12.023280006441851, 45.579761021664702 ], [ 12.024936238110325, 45.57965760323647 ], [ 12.027177876391962, 45.579558023906365 ], [ 12.027497652799195, 45.579595647800772 ], [ 12.029458871929021, 45.580118157813935 ], [ 12.031301575781471, 45.580486004782507 ], [ 12.034584666671234, 45.581247921892952 ], [ 12.035460570137035, 45.581354885052711 ], [ 12.036641806889032, 45.581456167377802 ], [ 12.037070864587612, 45.581499596239325 ], [ 12.037980841917447, 45.581707580005613 ], [ 12.038253218914715, 45.581727122473495 ], [ 12.041375761378278, 45.582554901279174 ], [ 12.041766709745136, 45.582595037531426 ], [ 12.05202109358674, 45.582086185466295 ], [ 12.054113830949404, 45.581979601142983 ], [ 12.055795894546561, 45.581961373613304 ], [ 12.056456571845183, 45.582027037816864 ], [ 12.056757583153365, 45.58210530769805 ], [ 12.057731252023165, 45.582781781537626 ], [ 12.057886559048667, 45.582831205484716 ], [ 12.059378954318438, 45.583222867405247 ], [ 12.059831115045293, 45.583195862439979 ], [ 12.064400506483684, 45.582090893262574 ], [ 12.065550100611105, 45.581714700790336 ], [ 12.065862185971199, 45.581439534510558 ], [ 12.066352413586312, 45.58072267324858 ], [ 12.066655668278358, 45.580375156889538 ], [ 12.067039974221958, 45.580114769488105 ], [ 12.068000703180124, 45.579541196206705 ], [ 12.068787801744785, 45.579204483108377 ], [ 12.069756891187806, 45.578940270103693 ], [ 12.071008590641991, 45.578727983841496 ], [ 12.073545147815178, 45.578445369442235 ], [ 12.074155340239292, 45.578440844291272 ], [ 12.076651468721851, 45.578349772647961 ], [ 12.078447537184397, 45.578170360492834 ], [ 12.080222106622909, 45.577908146326081 ], [ 12.081950744100983, 45.577891252495462 ], [ 12.083659842217971, 45.57782722953992 ], [ 12.08718643411825, 45.577511605585116 ], [ 12.088312347076339, 45.577326346605226 ], [ 12.09032839958976, 45.576831194416009 ], [ 12.091389828252543, 45.576707189385573 ], [ 12.09219666060995, 45.576732964581254 ], [ 12.093632581309674, 45.5769441156881 ], [ 12.094792320245674, 45.576757875776515 ], [ 12.096788126383023, 45.576358419717273 ], [ 12.097694208022919, 45.576184986026632 ], [ 12.099830653046464, 45.575876921181262 ], [ 12.102974323086986, 45.57523183761927 ], [ 12.105091472417376, 45.574882521608011 ], [ 12.106480993790395, 45.574713726515448 ], [ 12.107678368163564, 45.574442976982688 ], [ 12.108470068999496, 45.574195171638543 ], [ 12.108838844907687, 45.573964834989575 ], [ 12.109556314362173, 45.573251386220768 ], [ 12.110383814106104, 45.57216040194195 ], [ 12.112278602476952, 45.570245193482847 ], [ 12.112838976535018, 45.569801234042401 ], [ 12.113768072558305, 45.569740167797505 ], [ 12.115056852273792, 45.569591877705129 ], [ 12.117535875926299, 45.569506330251819 ], [ 12.119622573617509, 45.569377868096311 ], [ 12.121322217463254, 45.569301630351283 ], [ 12.125331890216835, 45.569150227929576 ], [ 12.129257294140023, 45.569031961230394 ], [ 12.132506015032956, 45.56919766271897 ], [ 12.133985370410361, 45.569276128259162 ], [ 12.134688019155959, 45.569080131831051 ], [ 12.136169640500169, 45.568769590449016 ], [ 12.137867092570303, 45.568502642452863 ], [ 12.138857695945264, 45.568481357488231 ], [ 12.140268994457529, 45.568555659199795 ], [ 12.140911410828833, 45.568674920783742 ], [ 12.14140262923684, 45.568692535208548 ], [ 12.144673838555359, 45.56849987185128 ], [ 12.146166125514272, 45.568506376549024 ], [ 12.149253743886492, 45.568391452942912 ], [ 12.151696105788485, 45.568258542568785 ], [ 12.152402398251773, 45.568155682539071 ], [ 12.152795970711502, 45.568082346061914 ], [ 12.153217907051515, 45.568078790737033 ], [ 12.153982060578725, 45.568044084720839 ], [ 12.154319666527352, 45.568029109426988 ], [ 12.154972526150988, 45.568000147475765 ], [ 12.155883280250139, 45.56796308633028 ], [ 12.157015663200825, 45.567915567104379 ], [ 12.158208214078968, 45.567864661486091 ], [ 12.159451182725611, 45.567810187437246 ], [ 12.160114286941898, 45.567781297890583 ], [ 12.160517403946656, 45.567763138554611 ], [ 12.161218856025959, 45.567731536610452 ], [ 12.161983061429728, 45.567686514190768 ], [ 12.162768347046441, 45.567647203261423 ], [ 12.16313317429541, 45.56761260971939 ], [ 12.163548487201385, 45.567541421268373 ], [ 12.163975272620537, 45.567464602599749 ], [ 12.164202614132684, 45.56743440201533 ], [ 12.164278394577259, 45.567424335054568 ], [ 12.168957553894346, 45.566649337398992 ], [ 12.169514460836178, 45.56660410369286 ], [ 12.171210230497977, 45.566461736366286 ], [ 12.173371469120886, 45.566306402527601 ], [ 12.175860411695236, 45.566100232206651 ], [ 12.17922998005937, 45.56557774056035 ], [ 12.182180026578882, 45.565132339564947 ], [ 12.184415381080354, 45.564790159584078 ], [ 12.186348061260698, 45.564492109558678 ], [ 12.187011581128106, 45.564384275013069 ], [ 12.188811519710235, 45.564137520758912 ], [ 12.189731606909628, 45.564070132458504 ], [ 12.1910869565396, 45.564204906822305 ], [ 12.19214409195602, 45.56431228314586 ], [ 12.193660244935966, 45.564442529185108 ], [ 12.197203712684454, 45.564748180910925 ], [ 12.197040295202482, 45.564258587519902 ], [ 12.196970307684238, 45.563772330623848 ], [ 12.19704890750692, 45.563584039545177 ], [ 12.196916716425001, 45.563136708848745 ], [ 12.197072815264187, 45.562144052212567 ], [ 12.197089244735924, 45.56108975654103 ], [ 12.197084726971138, 45.559815754201125 ], [ 12.197110425003656, 45.558028871982266 ], [ 12.197190350675854, 45.556803017431029 ], [ 12.197131738184352, 45.556164711810538 ], [ 12.19709239503351, 45.554724975719111 ], [ 12.197032046407907, 45.551571110596797 ], [ 12.196391190548322, 45.548526983007683 ], [ 12.199171428969921, 45.548206756438532 ], [ 12.199214427396505, 45.548120976946379 ], [ 12.199139566809778, 45.547397301562306 ], [ 12.200370038593773, 45.547343522273387 ], [ 12.201236595891203, 45.547227327113603 ], [ 12.20109727677724, 45.545711663288408 ], [ 12.199015610324395, 45.545936640547623 ], [ 12.198970164641604, 45.545408118940706 ], [ 12.198868134380664, 45.544357141186907 ], [ 12.198129945952525, 45.544659230524367 ], [ 12.197914152168432, 45.544663567191407 ], [ 12.197787192097293, 45.541285459139154 ], [ 12.197777437163088, 45.540964222549945 ], [ 12.197798456774764, 45.540737385860652 ], [ 12.197688176813578, 45.540585674740051 ], [ 12.197339017249627, 45.540404932809935 ], [ 12.197412844718778, 45.540063492844048 ], [ 12.197203418659422, 45.539956236129441 ], [ 12.197020411230138, 45.539717253428002 ], [ 12.196874672200618, 45.539239070942649 ], [ 12.196684154629116, 45.537672580748328 ], [ 12.19753916344043, 45.537660536525486 ], [ 12.198568094366102, 45.537578118790947 ], [ 12.201200798723669, 45.537391178842519 ], [ 12.202225098880422, 45.537231368469747 ], [ 12.202895952366294, 45.536956614832938 ], [ 12.204754059227541, 45.535648539981864 ], [ 12.205743523774407, 45.535185758087323 ], [ 12.206645523461793, 45.534957985348839 ], [ 12.206988654116277, 45.53495324896592 ], [ 12.207372540366787, 45.534833797254514 ], [ 12.210849257838456, 45.534542098529187 ], [ 12.213045330197694, 45.534426707009935 ], [ 12.214465262811466, 45.534220012705077 ], [ 12.216866973410028, 45.533848691652821 ], [ 12.217938765824568, 45.533776798393895 ], [ 12.221148756371491, 45.533763642550966 ], [ 12.223691242444671, 45.533781161134122 ], [ 12.225300972656612, 45.533783310474696 ], [ 12.226819657275547, 45.533674887364477 ], [ 12.228010467799754, 45.53346259441723 ], [ 12.229180913071406, 45.532960338486824 ], [ 12.229466036817456, 45.532857504588925 ], [ 12.227853368818565, 45.52438203580855 ], [ 12.22680923497435, 45.518892952032004 ], [ 12.225093844513683, 45.509872330884953 ], [ 12.224972174437395, 45.509521511409609 ], [ 12.224344216023534, 45.509646425593509 ], [ 12.223716443077441, 45.509848731935371 ], [ 12.222860958371671, 45.510289668299322 ], [ 12.222280860557371, 45.510511459014026 ], [ 12.221793402160531, 45.510650253681405 ], [ 12.221409262480421, 45.51081887636947 ], [ 12.220770000821556, 45.511191177191066 ], [ 12.219519699724902, 45.511985580058408 ], [ 12.218796567286798, 45.512520991354435 ], [ 12.217982429345343, 45.512945839893604 ], [ 12.216903303955535, 45.5134019680089 ], [ 12.215795245876444, 45.513870808952149 ], [ 12.2143592889883, 45.51445604539412 ], [ 12.214186272019532, 45.514169176894598 ], [ 12.213261363195002, 45.512873454673404 ], [ 12.212495894008127, 45.511845061443644 ], [ 12.211910575152146, 45.512202964354898 ], [ 12.211379088448885, 45.511717792983028 ], [ 12.209849615137127, 45.510361652539629 ], [ 12.210360430507714, 45.509665561280286 ], [ 12.210295667400361, 45.509494719661198 ], [ 12.209720089208499, 45.508978034202471 ], [ 12.209213338691912, 45.508554672948648 ], [ 12.20892200456424, 45.508494395088867 ], [ 12.208690355423203, 45.508590217062562 ], [ 12.208443483764251, 45.508865083882654 ], [ 12.208231107151487, 45.509002040470158 ], [ 12.206899943376577, 45.507780201996979 ], [ 12.206033272739344, 45.506982912502501 ], [ 12.204681576874687, 45.505770555564155 ], [ 12.204341930198709, 45.505455604346245 ], [ 12.204905651429621, 45.505243295670518 ], [ 12.205308408445658, 45.505029551302492 ], [ 12.205750242459551, 45.504780806646544 ], [ 12.203838988895775, 45.503308453817027 ], [ 12.203576962534299, 45.503018113757584 ], [ 12.203393608746415, 45.502451651083206 ], [ 12.203306272550694, 45.501680127045823 ], [ 12.203018915743828, 45.501241648734343 ], [ 12.202641951851376, 45.500865223535044 ], [ 12.202357640348524, 45.500480243314627 ], [ 12.201597398020885, 45.499167896097845 ], [ 12.200571842251833, 45.499446726916936 ], [ 12.199963872819637, 45.499624531533463 ], [ 12.199179117001988, 45.499521500796448 ], [ 12.198768684989977, 45.499300802790707 ], [ 12.198020409897254, 45.499393220823656 ], [ 12.197798273752907, 45.499357768001637 ], [ 12.197498443995837, 45.498997026118886 ], [ 12.196990430820447, 45.498249156977124 ], [ 12.196278293156949, 45.497185491050786 ], [ 12.195518199406418, 45.496021946735638 ], [ 12.194728070861062, 45.494775883115196 ], [ 12.194475972427528, 45.494360211641649 ], [ 12.194199064954079, 45.494403685887093 ], [ 12.191800140016118, 45.494947117929179 ], [ 12.191222289946408, 45.493111608432791 ], [ 12.19055156310627, 45.491129844166927 ], [ 12.1897514997587, 45.488793841579358 ], [ 12.18859783652424, 45.485165030095281 ], [ 12.188344753269002, 45.484601292333998 ], [ 12.185986680911485, 45.484791411526309 ], [ 12.184462641440021, 45.485080571539434 ], [ 12.183835047653941, 45.48522086622426 ], [ 12.182608465058722, 45.483272157332138 ], [ 12.181098883632544, 45.480664747641818 ], [ 12.179856836669439, 45.478597624770899 ], [ 12.178732090747637, 45.476658207226137 ], [ 12.178593387895583, 45.476298880651804 ], [ 12.17859737642183, 45.475950436179495 ], [ 12.17870215547757, 45.475825490494593 ], [ 12.178776874952572, 45.47519824632603 ], [ 12.178887656753128, 45.47415917611918 ], [ 12.179143247704028, 45.472836236837203 ], [ 12.178980346121795, 45.472394898049643 ], [ 12.178959166429021, 45.472357782133329 ], [ 12.178919180636745, 45.472138275932622 ], [ 12.178533144217962, 45.471179956502823 ], [ 12.178262090651122, 45.470482439484002 ], [ 12.178036230079853, 45.469885467141566 ], [ 12.177960536300484, 45.469608716976481 ], [ 12.177928323230899, 45.469481796572758 ], [ 12.177893205499375, 45.469257743779032 ], [ 12.177889022991071, 45.468949118115411 ], [ 12.177958132199587, 45.468592545244988 ], [ 12.178042248012892, 45.468129789972977 ], [ 12.178110748700389, 45.467651841130831 ], [ 12.178111530783726, 45.467651245474016 ], [ 12.178304759237101, 45.46755684205629 ], [ 12.178363378371714, 45.467514163887643 ], [ 12.17841566073121, 45.46746572136226 ], [ 12.178435701571924, 45.467399004160875 ], [ 12.17845788343103, 45.467288481345527 ], [ 12.178473753550293, 45.467181734808193 ], [ 12.178492359515904, 45.467096334998189 ], [ 12.178525942007663, 45.467006557517792 ], [ 12.17856081382677, 45.466973811918884 ], [ 12.178640418869179, 45.466918757484102 ], [ 12.17868515209665, 45.466896448641286 ], [ 12.17883339629074, 45.466841552501037 ], [ 12.178969098121833, 45.466786555484831 ], [ 12.179088760066309, 45.466719313393483 ], [ 12.179298508514368, 45.466513912956806 ], [ 12.179556005999213, 45.4662659561588 ], [ 12.179754575630076, 45.466118834254083 ], [ 12.179958451235724, 45.466027371789409 ], [ 12.180233472662954, 45.465931766064656 ], [ 12.180400227099051, 45.46586717079159 ], [ 12.180509197555605, 45.465855492717935 ], [ 12.180580542323041, 45.465825330501637 ], [ 12.180694617455902, 45.465783895928318 ], [ 12.180809610267893, 45.465717862298249 ], [ 12.180872217575292, 45.465652928634611 ], [ 12.180942240002711, 45.465583377648898 ], [ 12.181018182213224, 45.465459924252748 ], [ 12.181093657649688, 45.465348635479387 ], [ 12.181188600845795, 45.465267318164287 ], [ 12.181337976360213, 45.465214457494476 ], [ 12.181546200973459, 45.465175348125385 ], [ 12.181785447066009, 45.465141944381017 ], [ 12.181955129347863, 45.465106699223881 ], [ 12.18210355454001, 45.465071056400511 ], [ 12.182238743306089, 45.465025251033765 ], [ 12.182397283502761, 45.464930727743265 ], [ 12.182604986611675, 45.464830152552253 ], [ 12.182753533285663, 45.464794415479311 ], [ 12.18296855853222, 45.46475799423601 ], [ 12.183311980621967, 45.464736893741943 ], [ 12.183874533876644, 45.464740913166473 ], [ 12.18408303462269, 45.464765790223325 ], [ 12.184179270432763, 45.464786958394626 ], [ 12.184269921724214, 45.464820253947664 ], [ 12.184368870782865, 45.464850977572688 ], [ 12.184476280115566, 45.46487066355359 ], [ 12.184596688902669, 45.464873604434217 ], [ 12.184742531580357, 45.464848921727246 ], [ 12.185017899294378, 45.464725660969634 ], [ 12.185685219249754, 45.464391631507603 ], [ 12.186105348250651, 45.46418151566062 ], [ 12.186401657045312, 45.464041824720312 ], [ 12.186529286247076, 45.463980023097719 ], [ 12.186618694900414, 45.463959524095493 ], [ 12.186746303444105, 45.463976753650833 ], [ 12.186881472620248, 45.464005563547808 ], [ 12.18698929357309, 45.46401668449176 ], [ 12.187134843016359, 45.464000468065628 ], [ 12.187294398009564, 45.463942274585733 ], [ 12.187630764266443, 45.463800741567226 ], [ 12.187856067171452, 45.463713077015385 ], [ 12.188031306240543, 45.463660835257308 ], [ 12.188180504537733, 45.463650366363503 ], [ 12.188396592325752, 45.463666922453768 ], [ 12.188628729750802, 45.463686810215179 ], [ 12.188893098016035, 45.463629556411639 ], [ 12.188882895682511, 45.463618769975696 ], [ 12.202962474915642, 45.461368697915908 ], [ 12.203198436145399, 45.461162923992092 ], [ 12.203381199580212, 45.460850769386681 ], [ 12.203636006364526, 45.460561485933354 ], [ 12.204028764316957, 45.460417692146585 ], [ 12.205033202012753, 45.460455870745676 ], [ 12.205653840767237, 45.460587801779525 ], [ 12.206050139468589, 45.460815403948814 ], [ 12.206661572335648, 45.460683959217 ], [ 12.206961101292633, 45.460351921831673 ], [ 12.208899442999348, 45.458770609385354 ], [ 12.209322775384715, 45.458750407007528 ], [ 12.209967428138521, 45.458682488100877 ], [ 12.210684137551002, 45.458222534002566 ], [ 12.211519019581804, 45.458182445981365 ], [ 12.211958832111153, 45.45762240234545 ], [ 12.212675041934281, 45.457569049965677 ], [ 12.213104010468976, 45.457233352187643 ], [ 12.213719906221634, 45.456660045793562 ], [ 12.213002765702194, 45.45648938589553 ], [ 12.212085038633134, 45.456316069580282 ], [ 12.211076432013403, 45.456410837979028 ], [ 12.209637449687742, 45.456401531225666 ], [ 12.207986053615315, 45.457012227022751 ], [ 12.207009451221261, 45.457047973952513 ], [ 12.205906174713347, 45.457137058967724 ], [ 12.204403584384547, 45.457253942416095 ], [ 12.203638368733325, 45.457482875741789 ], [ 12.20290189043587, 45.457594825883497 ], [ 12.201589162467277, 45.457108889939612 ], [ 12.200852343799724, 45.456590191140215 ], [ 12.199894125543297, 45.456534083805082 ], [ 12.199257082443737, 45.456319601609962 ], [ 12.198716512267392, 45.4563513507265 ], [ 12.198206985498658, 45.456514994709607 ], [ 12.197235948224611, 45.456857526508969 ], [ 12.196381801667464, 45.4567652819971 ], [ 12.19571741510304, 45.456692611251384 ], [ 12.195124066466761, 45.456833694778794 ], [ 12.194507572580148, 45.457191170135808 ], [ 12.194250257128976, 45.457853911765554 ], [ 12.193664850572947, 45.458135830702275 ], [ 12.193180311912988, 45.458116197683893 ], [ 12.192104030098077, 45.457640132206294 ], [ 12.190707726378859, 45.457969608856772 ], [ 12.189418844596082, 45.458113511062791 ], [ 12.188578330421377, 45.458054018876481 ], [ 12.187535350933139, 45.457958685975477 ], [ 12.186130699958076, 45.457931527305789 ], [ 12.185441830909138, 45.457842884220369 ], [ 12.18496346588295, 45.457723468390569 ], [ 12.184465989449228, 45.457721357533337 ], [ 12.183743850623827, 45.457829133120001 ], [ 12.183130686385701, 45.457856363904725 ], [ 12.182537028788339, 45.457883632480716 ], [ 12.181986125365297, 45.457998998186476 ], [ 12.181541783641658, 45.458101042276326 ], [ 12.181108353979624, 45.457964196121665 ], [ 12.18066362622662, 45.45800105131633 ], [ 12.180067772468609, 45.458308085341194 ], [ 12.179703289747657, 45.458326539276804 ], [ 12.17928261830529, 45.458603794148651 ], [ 12.178812398738996, 45.459048386785597 ], [ 12.178592910712394, 45.459129181962417 ], [ 12.178373422041178, 45.459209976732836 ], [ 12.177302438133818, 45.459455546352523 ], [ 12.176614826867603, 45.459599157688942 ], [ 12.175005119494964, 45.460057827987839 ], [ 12.174987272696011, 45.460019979433817 ], [ 12.17463799122838, 45.459374762429334 ], [ 12.174638758571815, 45.459237800364654 ], [ 12.173721342417105, 45.457364008908627 ], [ 12.173570940609652, 45.456945461329987 ], [ 12.173508321882327, 45.456131512026069 ], [ 12.17315201148392, 45.454003952734432 ], [ 12.173212012048277, 45.45371649489136 ], [ 12.173668425888742, 45.45325725700021 ], [ 12.173975034065885, 45.452992710147782 ], [ 12.173432009559878, 45.452662482565593 ], [ 12.173754173250739, 45.452373687928507 ], [ 12.175638395378524, 45.44917163159689 ], [ 12.175773820508855, 45.448721316653327 ], [ 12.176264689293427, 45.446617818157669 ], [ 12.176710624356769, 45.444506279565168 ], [ 12.176045417493025, 45.4425633234478 ], [ 12.175676850557897, 45.442150573886124 ], [ 12.175574445986028, 45.441707152217923 ], [ 12.175538764537393, 45.441523572429332 ], [ 12.175796289007353, 45.441358834029309 ], [ 12.176389521821077, 45.441160520314064 ], [ 12.177102490258083, 45.440784046352015 ], [ 12.177958177655199, 45.440027273667454 ], [ 12.178604839583603, 45.439193571540478 ], [ 12.179886212120147, 45.438217148383565 ], [ 12.180789408821045, 45.437322055071228 ], [ 12.181174869074956, 45.436940042633964 ], [ 12.183114775156083, 45.435474650657547 ], [ 12.183093451926888, 45.435156563512308 ], [ 12.182840802992892, 45.434653433363721 ], [ 12.182754445993526, 45.434481457988902 ], [ 12.183552813191016, 45.434542544440639 ], [ 12.185288998707605, 45.434738209805751 ], [ 12.188388949324752, 45.434973155905197 ], [ 12.18949229802101, 45.435043541269849 ], [ 12.190918512893363, 45.435140612393354 ], [ 12.192184305564499, 45.435242153182308 ], [ 12.192435400756604, 45.43524974380216 ], [ 12.190947724754537, 45.434309217667213 ], [ 12.188974642250693, 45.432911603991784 ], [ 12.185922644189208, 45.430740655251391 ], [ 12.181982856745597, 45.427980405778122 ], [ 12.179067387650072, 45.426055173387617 ], [ 12.175036190181554, 45.423529792627519 ], [ 12.169986841868061, 45.420329986558798 ], [ 12.168795535873551, 45.419589055828901 ], [ 12.166226569393453, 45.417796766784043 ], [ 12.16438553951776, 45.416168810312037 ], [ 12.163526987792062, 45.415393394112165 ], [ 12.160164834210693, 45.412390562039647 ], [ 12.147342436496217, 45.400963292321762 ], [ 12.145572986759285, 45.399386640911679 ], [ 12.144095299937728, 45.398040083290624 ], [ 12.141515303881947, 45.395711678393717 ], [ 12.140876650021866, 45.395014779046896 ], [ 12.140132613464331, 45.393636067100516 ], [ 12.13996802507859, 45.392801083283629 ], [ 12.139886312352203, 45.391326741926342 ], [ 12.139729403356704, 45.389562723503694 ], [ 12.139536199045823, 45.387448417387901 ], [ 12.139334806037501, 45.384423374332165 ], [ 12.13910645756126, 45.382131413030109 ], [ 12.138850433368086, 45.378881617914331 ], [ 12.138642918522091, 45.376202070994196 ], [ 12.138304643141341, 45.372228145908778 ], [ 12.138135243333664, 45.370083408310883 ], [ 12.137997774627673, 45.368515330627908 ], [ 12.137776577285898, 45.366044545329309 ], [ 12.137471139469167, 45.362813961471808 ], [ 12.137097161198204, 45.358954134215537 ], [ 12.13685175245103, 45.356501871879864 ], [ 12.136487640508307, 45.353124044002982 ], [ 12.136157861375079, 45.350060833176251 ], [ 12.13584608530576, 45.347169792223674 ], [ 12.135559311678895, 45.344272108399394 ], [ 12.135285713749768, 45.341153761829517 ], [ 12.135048490326646, 45.338998966896519 ], [ 12.13448244749924, 45.333149391935088 ], [ 12.134389731882079, 45.331961535207164 ], [ 12.134028420442112, 45.328321634902366 ], [ 12.133917599305693, 45.326925479617714 ], [ 12.133665530228061, 45.32495643525737 ], [ 12.133606150649795, 45.323575954354503 ], [ 12.133258839097534, 45.320668844545864 ], [ 12.132811326502093, 45.315899199714458 ], [ 12.13264641367549, 45.314439031536978 ], [ 12.132451815907599, 45.312134202856548 ], [ 12.132100559133981, 45.308517827882973 ], [ 12.131951771380974, 45.306401324268215 ], [ 12.131675176420631, 45.303861525017673 ], [ 12.131404920304252, 45.300607999209511 ], [ 12.131194469543118, 45.30064568614052 ], [ 12.130766704580257, 45.30064851139263 ], [ 12.130520679234367, 45.300613580368683 ], [ 12.130274654163594, 45.300578648805669 ], [ 12.129980350191316, 45.300536861663623 ], [ 12.129680796320454, 45.300524990880412 ], [ 12.129185657327341, 45.300505367669544 ], [ 12.128859808424307, 45.300492068949538 ], [ 12.128671600270666, 45.300541651135461 ], [ 12.128483391774049, 45.300591233019247 ], [ 12.128237928943031, 45.300650350368855 ], [ 12.127941719465765, 45.300718332483932 ], [ 12.127645509242393, 45.300786313848036 ], [ 12.127394776220815, 45.300843857301992 ], [ 12.126770302831741, 45.301013093486986 ], [ 12.125896975703686, 45.301286628484505 ], [ 12.125361250751554, 45.30141002218695 ], [ 12.125207255337454, 45.301445491441854 ], [ 12.124898938351675, 45.301484359483368 ], [ 12.124391908187519, 45.301516425570618 ], [ 12.123875890968513, 45.301542794489734 ], [ 12.123593090049578, 45.301574839539107 ], [ 12.123174559779009, 45.301663824334099 ], [ 12.122457468758983, 45.301816282719827 ], [ 12.122139677906192, 45.301883845511114 ], [ 12.121706223066488, 45.301999219964792 ], [ 12.121430328920077, 45.302128630782654 ], [ 12.12121020301309, 45.302231882082431 ], [ 12.120574371698941, 45.302431819649371 ], [ 12.119897019182583, 45.302586791697038 ], [ 12.119305357002652, 45.302722154639255 ], [ 12.118687796510438, 45.302884902834379 ], [ 12.118455146321029, 45.302946212976465 ], [ 12.118107492367065, 45.303072345965454 ], [ 12.11729255646522, 45.303368008145966 ], [ 12.1167811855848, 45.303637615953946 ], [ 12.116215692070194, 45.304018246503354 ], [ 12.115654049028723, 45.304292545573389 ], [ 12.114829790163981, 45.304695093123705 ], [ 12.114233150933252, 45.304983028046962 ], [ 12.113828205053636, 45.305177284144683 ], [ 12.112885785099607, 45.30570948840893 ], [ 12.112611611466757, 45.30592048872397 ], [ 12.112409720205203, 45.306111598764126 ], [ 12.112375738281116, 45.306143765857925 ], [ 12.112116116031203, 45.306226908257742 ], [ 12.111097825401012, 45.306532457152102 ], [ 12.110856742730221, 45.30666072833916 ], [ 12.110826587948226, 45.306897477067295 ], [ 12.110662961788684, 45.307156767045903 ], [ 12.110465590404772, 45.307327678106716 ], [ 12.109937094300442, 45.307785315534701 ], [ 12.109747075989731, 45.308057234700932 ], [ 12.109617139596649, 45.308243174089618 ], [ 12.109487202377363, 45.308429113347792 ], [ 12.10949404327293, 45.308752257167328 ], [ 12.109558447230166, 45.308899638705974 ], [ 12.109666558718082, 45.30914703830959 ], [ 12.109644519757166, 45.309334057807483 ], [ 12.109587092415119, 45.309417656722552 ], [ 12.109529664909024, 45.309501255612155 ], [ 12.109324912560078, 45.309799317406409 ], [ 12.109035100859726, 45.310119111885726 ], [ 12.108720902660052, 45.310470218404255 ], [ 12.108054469106317, 45.311214920058134 ], [ 12.107074625981785, 45.3123258204851 ], [ 12.106932000312398, 45.312487793918855 ], [ 12.105252081006716, 45.314395520922382 ], [ 12.104414820372883, 45.315350230636284 ], [ 12.10423691747471, 45.315553084590746 ], [ 12.102987546523789, 45.31696427575703 ], [ 12.102861252205717, 45.317105943810319 ], [ 12.102096420860184, 45.31796386011262 ], [ 12.101920474858598, 45.318161215632209 ], [ 12.101764060561292, 45.318357601731904 ], [ 12.101607645206615, 45.318553987640094 ], [ 12.10199150570709, 45.319361419984261 ], [ 12.099472093129757, 45.319935933460108 ], [ 12.098456135713606, 45.320191707620211 ], [ 12.098240529717192, 45.32029270602235 ], [ 12.098130953487699, 45.320459236041778 ], [ 12.098053826429704, 45.320577402736347 ], [ 12.095344031090196, 45.319648577011279 ], [ 12.094217735480202, 45.319268292207987 ], [ 12.092896660242493, 45.318857856641678 ], [ 12.092506766571779, 45.318689496361408 ], [ 12.092242629707568, 45.318488262464498 ], [ 12.091818396589645, 45.318136560470435 ], [ 12.091105745350379, 45.317447335123113 ], [ 12.090695453055986, 45.317196470016384 ], [ 12.090283206337741, 45.31706473719948 ], [ 12.089221800740772, 45.316789818471101 ], [ 12.088658203026718, 45.316668130817519 ], [ 12.088161051383571, 45.316526780174136 ], [ 12.087875538027149, 45.316397563088046 ], [ 12.087165210170614, 45.315897120766238 ], [ 12.086228310872077, 45.315435889263952 ], [ 12.08556038499562, 45.315257467236115 ], [ 12.08478062626375, 45.315195191153293 ], [ 12.083389320318258, 45.315060124140068 ], [ 12.082010679979271, 45.314847295507555 ], [ 12.081172954180914, 45.314649617222138 ], [ 12.080761801301296, 45.314226072241333 ], [ 12.080317961454305, 45.313666465033229 ], [ 12.079830294965552, 45.313387878951318 ], [ 12.078905484387194, 45.31298414259907 ], [ 12.078058725606258, 45.312774776999596 ], [ 12.07736487874182, 45.312739903102994 ], [ 12.076861718781656, 45.313265518125078 ], [ 12.076640970490304, 45.313396504601855 ], [ 12.077326718894559, 45.312502770324791 ], [ 12.077608430161037, 45.312251057545531 ], [ 12.076281709723414, 45.311418883449072 ], [ 12.074257030455311, 45.309263148009151 ], [ 12.073308685515, 45.309982337922499 ], [ 12.073058289798134, 45.310111138907232 ], [ 12.071383710904303, 45.310742693861833 ], [ 12.07048658679007, 45.311018222391638 ], [ 12.06946657973443, 45.311258690339855 ], [ 12.068635734196206, 45.311420954493961 ], [ 12.067927143453765, 45.311737708226673 ], [ 12.066922542894563, 45.312276758638497 ], [ 12.06623098639122, 45.312518618431419 ], [ 12.06587623928608, 45.312590666835455 ], [ 12.064237675965135, 45.312875814321082 ], [ 12.062809754411926, 45.313155285127721 ], [ 12.061435900654883, 45.313498782064976 ], [ 12.060813527098766, 45.313694097637921 ], [ 12.0604492175065, 45.313745546442171 ], [ 12.059781342827041, 45.31387955913771 ], [ 12.058755549122807, 45.313948736156199 ], [ 12.058533769660119, 45.313999410897914 ], [ 12.058276464749557, 45.314062794656735 ], [ 12.057775245473069, 45.314314387205663 ], [ 12.057279834792579, 45.314595592138758 ], [ 12.056903566728923, 45.314817040155503 ], [ 12.056711243592899, 45.315006766954816 ], [ 12.056253857913399, 45.315630984393813 ], [ 12.055879953675541, 45.316103734327733 ], [ 12.05539240934759, 45.31645640865321 ], [ 12.054780296050296, 45.316843652262214 ], [ 12.054318531314511, 45.317234429927325 ], [ 12.054130384688214, 45.317527059476987 ], [ 12.05404039526654, 45.317754615043349 ], [ 12.053975561535257, 45.31851594573827 ], [ 12.053761918686995, 45.31869685127127 ], [ 12.053427426861051, 45.31891121573608 ], [ 12.052856807286675, 45.319128919065065 ], [ 12.052641051445105, 45.319197207926941 ], [ 12.05214591418761, 45.319249152526311 ], [ 12.050153229680712, 45.319285215447387 ], [ 12.049826949464633, 45.319284355645273 ], [ 12.048459084834219, 45.319743639339201 ], [ 12.048078816795773, 45.31870405811619 ], [ 12.047931262193989, 45.318400216720832 ], [ 12.047429352046105, 45.317853940792361 ], [ 12.047321662244695, 45.317576976562307 ], [ 12.04644920325817, 45.316415415976948 ], [ 12.046347490528268, 45.315855631391514 ], [ 12.04623079000778, 45.315647220971044 ], [ 12.045761608390345, 45.315236884344131 ], [ 12.045209431426075, 45.314698016535566 ], [ 12.045224168467296, 45.31454528641477 ], [ 12.044764479546748, 45.313953725380635 ], [ 12.044364253426318, 45.313571435895902 ], [ 12.04356193423293, 45.31308674245718 ], [ 12.04292595936742, 45.3127252376757 ], [ 12.042417603945729, 45.312045527550751 ], [ 12.042173368841233, 45.311581669001377 ], [ 12.041988571474302, 45.310651810129357 ], [ 12.041698229183794, 45.309956971745194 ], [ 12.041399967840169, 45.309744621266432 ], [ 12.04091712599878, 45.309394291435311 ], [ 12.040685827831963, 45.309960134642083 ], [ 12.040072337452813, 45.31095294219238 ], [ 12.038820491295681, 45.312790358020223 ], [ 12.037456127470872, 45.314719230079206 ], [ 12.037580507317038, 45.314774805724504 ], [ 12.037491946680943, 45.31492474059413 ], [ 12.037403385594239, 45.315074675403736 ], [ 12.037386687003661, 45.315192196364187 ], [ 12.037175516058669, 45.315168132378751 ], [ 12.037023987259722, 45.315332924048626 ], [ 12.036360134163754, 45.316333005137473 ], [ 12.035614997118364, 45.317549589758677 ], [ 12.034842136046583, 45.319195597268319 ], [ 12.034580228224678, 45.319506217712117 ], [ 12.033901384185262, 45.319911278841111 ], [ 12.033206482677357, 45.320173865802545 ], [ 12.032208002337683, 45.320599319821604 ], [ 12.030934562391883, 45.321091608230496 ], [ 12.029909948831468, 45.321660632937053 ], [ 12.028047662176458, 45.322823464770302 ], [ 12.027584880885847, 45.323008409806583 ], [ 12.026649296632463, 45.323348789833588 ], [ 12.026149559527267, 45.323790732552709 ], [ 12.025875426136864, 45.324379389356523 ], [ 12.025768864354244, 45.325991910554841 ], [ 12.025648386559375, 45.326423794990049 ], [ 12.025234486325779, 45.326893227926142 ], [ 12.024692247545458, 45.327330336634809 ], [ 12.021913171432276, 45.329633622458338 ], [ 12.0214341206892, 45.330185265452151 ], [ 12.020825986770811, 45.331130192442053 ], [ 12.020518654507329, 45.331858764260097 ], [ 12.020337442328996, 45.332578043427887 ], [ 12.020369042762972, 45.333336140930228 ], [ 12.020453179127493, 45.333801509728026 ], [ 12.020784080742329, 45.334626315076278 ], [ 12.020943796727728, 45.334911857891406 ], [ 12.020403131408646, 45.33524259088761 ], [ 12.020163539128848, 45.335389151027414 ], [ 12.020024054047131, 45.335474474380689 ], [ 12.019873772447609, 45.335566401520701 ], [ 12.019473387906245, 45.335797123087012 ], [ 12.018946672938599, 45.336100637649551 ], [ 12.018354729300013, 45.336441732972489 ], [ 12.018087201359249, 45.336599347021469 ], [ 12.017882875488786, 45.336719724586516 ], [ 12.017678548745522, 45.336840101805755 ], [ 12.017450993243207, 45.337013093735969 ], [ 12.017138402100056, 45.337348478929954 ], [ 12.016931638717589, 45.337746910437296 ], [ 12.016617373821255, 45.338505424438942 ], [ 12.016513687956257, 45.338776033946679 ], [ 12.016382005356759, 45.338918276981801 ], [ 12.016235132511346, 45.339076927471126 ], [ 12.016076632999631, 45.339248135789887 ], [ 12.015940637545391, 45.339395034661131 ], [ 12.015759156487025, 45.339591064543335 ], [ 12.015599854980731, 45.339753163782454 ], [ 12.015213418365274, 45.340146382551588 ], [ 12.014944642759083, 45.34041987142826 ], [ 12.01483881945151, 45.340527549589709 ], [ 12.014531743268142, 45.340840005365521 ], [ 12.014298673024973, 45.341077155939637 ], [ 12.013973198741105, 45.341343671994238 ], [ 12.013642916059887, 45.341614122000493 ], [ 12.013082954654859, 45.341972218676894 ], [ 12.012799651051072, 45.342139748858109 ], [ 12.012584004611268, 45.342267269197741 ], [ 12.012318637661663, 45.342424189937084 ], [ 12.01233280301779, 45.342432699183242 ], [ 12.009994750086378, 45.343884125671863 ], [ 12.009354959308535, 45.344359428351936 ], [ 12.008045697600208, 45.345086918773042 ], [ 12.005938082011786, 45.346488921644223 ], [ 12.004587057277023, 45.347277484697777 ], [ 12.003725875933554, 45.347597854216289 ], [ 12.002932154156838, 45.347816991852291 ], [ 12.002729458006472, 45.347915821398551 ], [ 12.000159252422044, 45.347830447483176 ], [ 11.999794487598665, 45.347981095769434 ], [ 11.999644130114127, 45.348491138886573 ], [ 11.999086617640755, 45.350244362394221 ], [ 11.998754398935938, 45.351467710362876 ], [ 11.998312389098327, 45.352211666790609 ], [ 11.998090841990507, 45.35249418601024 ], [ 11.997384152095815, 45.353464279632981 ], [ 11.996694273594587, 45.354229044495966 ], [ 11.996684923940531, 45.354225611866369 ], [ 11.995897354314643, 45.355091334087014 ], [ 11.99502895245341, 45.355917917591931 ], [ 11.994007352245733, 45.357522534228977 ], [ 11.993421677719386, 45.358485162332158 ], [ 11.992803363213181, 45.359512980561171 ], [ 11.991978131536335, 45.361160060651663 ], [ 11.991739189070048, 45.361273496522692 ], [ 11.991419321561585, 45.361293788993528 ], [ 11.9911158782326, 45.361230467795799 ], [ 11.990648028088223, 45.361081796571085 ], [ 11.990136321382879, 45.360840402892848 ], [ 11.989955467151345, 45.360921322338669 ], [ 11.988761743917273, 45.36198858574074 ], [ 11.988103691885966, 45.362643551383442 ], [ 11.987945620093688, 45.362849469345917 ], [ 11.987935264687909, 45.363071016680202 ], [ 11.988001597433838, 45.363270737908998 ], [ 11.988722371973905, 45.364031127214609 ], [ 11.988015543533189, 45.364657654905777 ], [ 11.987538596023803, 45.365223862830973 ], [ 11.987304325375474, 45.365426477021217 ], [ 11.986554025780357, 45.366095099323687 ], [ 11.98590181490307, 45.366862368392312 ], [ 11.985137474095488, 45.368067208333933 ], [ 11.984303755367252, 45.369398890996116 ], [ 11.983818008819485, 45.370280874791831 ], [ 11.982570246134237, 45.371450702531298 ], [ 11.98209760388063, 45.371764398880309 ], [ 11.981725449595912, 45.371931234074736 ], [ 11.979166662127179, 45.372703610971847 ], [ 11.979149731778101, 45.373070216044084 ], [ 11.979291892401784, 45.373524962579104 ], [ 11.979525915328363, 45.37412020657694 ], [ 11.979939653889614, 45.374952544344353 ], [ 11.979935622928437, 45.375394934355981 ], [ 11.97984525140275, 45.375534873451521 ], [ 11.97948857470092, 45.375714282194565 ], [ 11.977779060715147, 45.376412710019807 ], [ 11.977439624278643, 45.376699145008494 ], [ 11.97724014698373, 45.377061351845775 ], [ 11.976688112383895, 45.377460346317143 ], [ 11.975381963612666, 45.378217487939303 ], [ 11.975606986211726, 45.379020998777243 ], [ 11.973578574213814, 45.380079733367893 ], [ 11.971027063045723, 45.381376886286624 ], [ 11.967475434584676, 45.38324011049005 ], [ 11.965731480761228, 45.384142814274547 ], [ 11.965898605350915, 45.384430216598844 ], [ 11.966113521746591, 45.384823548341352 ], [ 11.966345557983503, 45.385543903754375 ], [ 11.966366005087522, 45.385985252516775 ], [ 11.966458223935227, 45.386243545367648 ], [ 11.967447334359461, 45.386253556598533 ], [ 11.968018313420732, 45.386185123824283 ], [ 11.96907560344383, 45.385883740798967 ], [ 11.970002525585674, 45.385835807788375 ], [ 11.971375385196389, 45.385913199915116 ], [ 11.972570740154508, 45.385989244774827 ], [ 11.972744471424086, 45.386240741048489 ], [ 11.972838086106275, 45.386768237517053 ], [ 11.972882811410933, 45.387267176573218 ], [ 11.97277239369919, 45.388222689660068 ], [ 11.972623490906427, 45.389572167569732 ], [ 11.972604347456395, 45.390334775553256 ], [ 11.972684316770167, 45.390731609302776 ], [ 11.972918070467133, 45.390999403745795 ], [ 11.973095578644617, 45.391161491272648 ], [ 11.973326400269801, 45.391151139808265 ], [ 11.973539679369457, 45.391411896822973 ], [ 11.974099573624502, 45.393868208963376 ], [ 11.974307191112782, 45.394693529902277 ], [ 11.97459113073686, 45.395343892766974 ], [ 11.97514775848448, 45.396287974227349 ], [ 11.975283835862736, 45.396477342756903 ], [ 11.975121201788081, 45.396495988378121 ], [ 11.975368309218009, 45.397446716548238 ], [ 11.975409195041276, 45.397620122238685 ], [ 11.975661814867966, 45.398423368052676 ], [ 11.975882881374508, 45.399116498462668 ], [ 11.975970897671326, 45.399534992260079 ], [ 11.976093018480213, 45.4000159868338 ], [ 11.976296986632931, 45.400544533965679 ], [ 11.976357386021867, 45.40076259913149 ], [ 11.976471074671331, 45.401173054048179 ], [ 11.975901585198224, 45.401314025928592 ], [ 11.975614806839046, 45.401381163251422 ], [ 11.975661565683014, 45.401529370045431 ], [ 11.97582144817158, 45.401920012835888 ], [ 11.976089662275314, 45.402575330070377 ], [ 11.97631029987606, 45.40311486795558 ], [ 11.976530941923887, 45.403654405263019 ], [ 11.978175819143182, 45.405777742683888 ], [ 11.978430716126663, 45.406086728352896 ], [ 11.979723877824947, 45.407654233534466 ], [ 11.978703411407228, 45.407656625536809 ], [ 11.977659531660295, 45.407576693119331 ], [ 11.976507170662845, 45.407523396168457 ], [ 11.973696925859274, 45.407447801523048 ], [ 11.972308843150516, 45.407412511434323 ], [ 11.970557794496996, 45.40738665194803 ], [ 11.969458581189077, 45.407379532139934 ], [ 11.96766626186316, 45.407372563855837 ], [ 11.965405631999715, 45.407300334347724 ], [ 11.964695643959789, 45.407300917029524 ], [ 11.963597115052499, 45.407287548168874 ], [ 11.963231594738231, 45.407267489593409 ], [ 11.962450934594017, 45.407263265421967 ], [ 11.959637580382937, 45.407235710121249 ], [ 11.958431791563337, 45.407130030090023 ], [ 11.95747499548753, 45.407157522009072 ], [ 11.950099251157043, 45.407000379979785 ], [ 11.949640329826076, 45.406952701365086 ], [ 11.948899753937608, 45.406852758695827 ], [ 11.948461741341216, 45.406881936657022 ], [ 11.948424549630539, 45.407466385956575 ], [ 11.948423516851177, 45.408258289854032 ], [ 11.948363392815022, 45.408540101731965 ], [ 11.948617030879841, 45.408890364786807 ], [ 11.948656370838952, 45.409672382243578 ], [ 11.948794954791406, 45.410683864786812 ], [ 11.948970050558543, 45.411286644975121 ], [ 11.949780656124378, 45.412804656609715 ], [ 11.950542966079174, 45.414056263281708 ], [ 11.950964071754301, 45.414576027061791 ], [ 11.951713758673796, 45.415186657263945 ], [ 11.95256095896648, 45.415545797578112 ], [ 11.953597935189164, 45.41590037627482 ], [ 11.953833017699562, 45.416031233595348 ], [ 11.954134573050926, 45.416087845062457 ], [ 11.949577524273309, 45.418751585325012 ], [ 11.947289462231327, 45.420065143134025 ], [ 11.944161478606494, 45.419439697160968 ], [ 11.94254245407854, 45.419195658815191 ], [ 11.941111249863392, 45.419149192257308 ], [ 11.940083356660255, 45.419217352449586 ], [ 11.939479092001138, 45.419279037226637 ], [ 11.938587841710314, 45.419429219773853 ], [ 11.937602664880625, 45.419637710607397 ], [ 11.936290898629663, 45.420100902541293 ], [ 11.934977709843469, 45.420700303708578 ], [ 11.933654693880518, 45.421436883167488 ], [ 11.930101912555211, 45.423361961562527 ], [ 11.927978782829026, 45.424488157093315 ], [ 11.918848289253761, 45.429338305843167 ], [ 11.917276178129722, 45.430096944628225 ], [ 11.914252587509086, 45.431317341621458 ], [ 11.912122592519989, 45.432157626103745 ], [ 11.907563870414227, 45.43395285632176 ], [ 11.90558325156581, 45.43474158133985 ], [ 11.902820569791006, 45.435782367549017 ], [ 11.899539410521148, 45.436929590283953 ], [ 11.889847907806272, 45.440255489360467 ], [ 11.887787397206234, 45.440813723285544 ], [ 11.885845658789327, 45.441214114763461 ], [ 11.881154521724467, 45.442100681194972 ], [ 11.87232597796338, 45.44379380790555 ], [ 11.869963761096686, 45.44424618616069 ], [ 11.86257396055648, 45.445634445455049 ], [ 11.862498460018958, 45.445794873214126 ], [ 11.86143234520817, 45.447645727611373 ], [ 11.860550007241129, 45.449179860039848 ], [ 11.859950506806229, 45.450290684774039 ], [ 11.858340544139285, 45.453087227721994 ], [ 11.856589930201491, 45.456078058101468 ], [ 11.856871862711266, 45.456046068806074 ], [ 11.857256165064204, 45.456169487438473 ], [ 11.857466363465502, 45.456122640059469 ], [ 11.857537129248126, 45.456120868514553 ], [ 11.85756076041956, 45.456120276923919 ], [ 11.857645795218069, 45.456168014747334 ], [ 11.857732639186722, 45.456249011656155 ], [ 11.857991781278704, 45.456234242389769 ], [ 11.858323364614311, 45.456018101917934 ], [ 11.85832894475068, 45.455893205534871 ], [ 11.858328103939776, 45.455876574367203 ], [ 11.858147708682038, 45.455814662667429 ], [ 11.858070644645418, 45.455691835640664 ], [ 11.858069803916347, 45.455675204468669 ], [ 11.858157487680407, 45.455540061179832 ], [ 11.858234401410982, 45.455542275811155 ], [ 11.858311315145057, 45.455544490390473 ], [ 11.858409069819963, 45.455608561351397 ], [ 11.858670176435849, 45.455635236883161 ], [ 11.859710691231388, 45.455381352866738 ], [ 11.859710700325474, 45.455381532662955 ] ] ] ] } }
]
}
